<?xml version="1.0" encoding="UTF-8"?><kml xmlns="http://www.opengis.net/kml/2.2"><Document>
								 <name>Маршрут Чистинские (Аагские) нарзаны. Маршрут загрузил(а) Roman Pozdny</name>
								 <description>Скачено с сайта https://idilesom.com</description> <Placemark><LineString><tessellate>1</tessellate> <coordinates>
								158.72931,53.435873,0
								158.728929,53.433927,0
								158.728031,53.431968,0
								158.728014,53.429221,0
								158.730993,53.428938,0
								158.731587,53.429642,0
								158.737824,53.431156,0
								158.743973,53.433801,0
								158.749233,53.434241,0
								158.754196,53.435117,0
								158.755158,53.435128,0
								158.749938,53.430869,0
								158.751524,53.428945,0
								158.750201,53.426029,0
								158.748135,53.423205,0
								158.744325,53.41858,0
								158.743083,53.417094,0
								158.743011,53.414171,0
								158.746471,53.409894,0
								158.745106,53.407512,0
								158.743319,53.401851,0
								158.74187,53.397903,0
								158.741063,53.396283,0
								158.742194,53.391835,0
								158.738692,53.386179,0
								158.735077,53.38184,0
								158.733857,53.378021,0
								158.734292,53.376299,0
								158.733735,53.375063,0
								158.728793,53.374094,0
								158.727418,53.37244,0
								158.725549,53.3715,0
								158.723642,53.370129,0
								158.716684,53.368882,0
								158.712043,53.367083,0
								158.709387,53.366352,0
								158.706083,53.364264,0
								158.70115,53.362493,0
								158.696876,53.363005,0
								158.69503,53.361391,0
								158.690106,53.356911,0
								158.688127,53.355189,0
								158.685788,53.354972,0
								158.685478,53.355405,0
								158.683286,53.354883,0
								158.683202,53.353692,0
								158.668801,53.35162,0
								158.662477,53.350965,0
								158.657581,53.349486,0
								158.649556,53.346459,0
								158.635687,53.343415,0
								158.627435,53.34225,0
								158.622108,53.341029,0
								158.619067,53.340597,0
								158.607015,53.3375,0
								158.592513,53.333808,0
								158.59198,53.332565,0
								158.589002,53.329372,0
								158.5881,53.32781,0
								158.583066,53.326334,0
								158.577273,53.325404,0
								158.572188,53.324354,0
								158.569806,53.322683,0
								158.565251,53.319394,0
								158.56361,53.317276,0
								158.559759,53.314012,0
								158.560909,53.310687,0
								158.562384,53.308897,0
								158.557975,53.305488,0
								158.558537,53.304374,0
								158.558367,53.302831,0
								158.555643,53.301248,0
								158.550289,53.30135,0
								158.543624,53.30013,0
								158.540934,53.298501,0
								158.538693,53.297355,0
								158.536536,53.29523,0
								158.535063,53.294364,0
								158.530109,53.292119,0
								158.528623,53.291631,0
								158.528662,53.290286,0
								158.527866,53.28926,0
								158.528155,53.287887,0
								158.526991,53.287184,0
								158.526589,53.285846,0
								158.52515,53.28371,0
								158.523569,53.282124,0
								158.520817,53.280081,0
								158.517526,53.277967,0
								158.514281,53.276836,0
								158.512831,53.274722,0
								158.512501,53.273227,0
								158.513583,53.272443,0
								158.510392,53.270833,0
								158.507762,53.27158,0
								158.502928,53.270242,0
								158.499355,53.267945,0
								158.49711,53.266799,0</coordinates></LineString></Placemark></Document></kml>