<?xml version="1.0" encoding="UTF-8"?><kml xmlns="http://www.opengis.net/kml/2.2"><Document>
<name>Маршрут Долина гейзеров. Маршрут загрузил(а) Roman Pozdny</name>
<description>Скачено с сайта https://idilesom.com (Pro-выгрузка владельца платформы)</description> <Placemark><LineString><tessellate>1</tessellate> <coordinates>
160.13649,54.43582,0
160.13702,54.43675,0
160.13712,54.436787,0
160.13733,54.436764,0
160.13724,54.436832,0
160.13727,54.436802,0
160.13727,54.43681,0
160.13733,54.43686,0
160.13747,54.436844,0
160.13759,54.43687,0
160.13794,54.436935,0
160.13794,54.436947,0
160.1382,54.437046,0
160.13861,54.43701,0
160.13884,54.43691,0
160.13907,54.436855,0
160.13936,54.436844,0
160.13957,54.436916,0
160.13972,54.43706,0
160.13972,54.437206,0
160.13974,54.437454,0
160.13965,54.437572,0
160.13968,54.43755,0
160.13994,54.437546,0
160.14018,54.437557,0
160.14026,54.437683,0
160.14026,54.437763,0
160.13995,54.437767,0
160.13972,54.4378,0
160.13939,54.43794,0
160.1394,54.438,0
160.13919,54.4379,0
160.13881,54.437782,0
160.13841,54.437702,0
160.13814,54.437675,0
160.13774,54.437523,0
160.13737,54.43764,0
160.13705,54.43778,0
160.13693,54.43776,0
160.13676,54.437798,0
160.13684,54.437782,0
160.13684,54.437782,0
160.13684,54.437782,0
160.13686,54.4378,0
160.1368,54.437813,0
160.1368,54.437786,0
160.13672,54.43779,0
160.13683,54.437794,0
160.13693,54.437756,0
160.13693,54.43777,0
160.13712,54.437763,0
160.13719,54.437706,0
160.13724,54.43768,0
160.1376,54.43757,0
160.13777,54.437584,0
160.1381,54.437702,0
160.13852,54.437767,0
160.13892,54.43787,0
160.13928,54.437992,0
160.13947,54.438053,0
160.13948,54.43808,0
160.13942,54.438065,0
160.13942,54.43808,0
160.13942,54.43809,0
160.13947,54.43813,0
160.13948,54.43807,0
160.13918,54.437992,0
160.13913,54.437935,0
160.13884,54.43784,0
160.13844,54.437744,0
160.13803,54.437683,0
160.13766,54.437557,0
160.13754,54.43734,0
160.13739,54.437195,0
160.13748,54.437195,0
160.13728,54.436996,0
160.13719,54.43689,0
160.13722,54.436893,0
160.13716,54.43683,0
160.13705,54.436764,0
160.13707,54.43677,0
160.13708,54.43678,0
160.13692,54.436554,0
160.13695,54.436375,0
160.13676,54.436176,0
160.1365,54.436,0
160.13618,54.435955,0
160.1362,54.435936,0
160.13622,54.436043,0
160.13577,54.436058,0
160.13545,54.436066,0
160.13528,54.435913,0
160.13527,54.435875,0
160.13527,54.43585,0
160.13527,54.435852,0
160.13528,54.435875,0</coordinates></LineString></Placemark></Document></kml>
