<?xml version="1.0" encoding="UTF-8"?><kml xmlns="http://www.opengis.net/kml/2.2"><Document>
								 <name>Маршрут Ганальские Востряки. Маршрут загрузил(а) Roman Pozdny</name>
								 <description>Скачено с сайта https://idilesom.com</description> <Placemark><LineString><tessellate>1</tessellate> <coordinates>
								157.58977890015,53.489322227936,0
								157.59005784988,53.489312652889,0
								157.59033679962,53.489303077841,0
								157.59073376656,53.489315844572,0
								157.59101271629,53.489322227936,0
								157.59130239487,53.48943712832,0
								157.59156525135,53.489440319993,0
								157.59182810783,53.489443511665,0
								157.59208023548,53.489433936646,0
								157.59233236313,53.489424361626,0
								157.59269714355,53.489360528098,0
								157.59304046631,53.489296694475,0
								157.59328722954,53.489325419607,0
								157.59353399277,53.48935414474,0
								157.59389877319,53.489430744973,0
								157.59416162968,53.489440319992,0
								157.59442448616,53.48944989501,0
								157.59466588497,53.489408403233,0
								157.59490728378,53.489366911455,0
								157.59528279305,53.489408403233,0
								157.59565830231,53.48944989501,0
								157.59588360786,53.489475428371,0
								157.59610891342,53.489500961732,0
								157.5964307785,53.489507345068,0
								157.59672045708,53.489481811719,0
								157.59698867798,53.48943712832,0
								157.59727835655,53.489398828226,0
								157.59763240814,53.489366911455,0
								157.59790062904,53.489379678167,0
								157.59821176529,53.489405211578,0
								157.59844779968,53.489424361626,0
								157.59869456291,53.489456278354,0
								157.59900569916,53.489475428379,0
								157.59919345379,53.489529686702,0
								157.59938120842,53.489583945025,0
								157.59953141212,53.489603094992,0
								157.59969234467,53.48961586163,0
								157.59985327721,53.489628628269,0
								157.59999275208,53.489615861632,0
								157.60015368462,53.489635011585,0
								157.60032534599,53.48965416153,0
								157.60043263435,53.48965416153,0
								157.6006257534,53.489647778216,0
								157.60080814362,53.489666928154,0
								157.60097980499,53.489692461393,0
								157.60114073753,53.489711611311,0
								157.6012802124,53.489724377919,0
								157.6013982296,53.489730761221,0
								157.60152697563,53.489781827605,0
								157.60164499283,53.489858427066,0
								157.60173082352,53.489890343467,0
								157.60185956955,53.489935026388,0
								157.60198831558,53.489986092526,0
								157.60213851929,53.489986092526,0
								157.60225653648,53.489973325997,0
								157.60246038437,53.489992475789,0
								157.60259985924,53.490005242312,0
								157.60276079178,53.490030775346,0
								157.60286808014,53.490081841369,0
								157.60294318199,53.490139290571,0
								157.60306119919,53.490247805518,0
								157.60313630104,53.490279721626,0
								157.60328650475,53.490324404137,0
								157.60341525078,53.490381853011,0
								157.60353326797,53.490439301806,0
								157.60369420052,53.490522283263,0
								157.60387659073,53.490560582342,0
								157.6040160656,53.490560582342,0
								157.60419845581,53.490547815986,0
								157.60434865952,53.490535049626,0
								157.60448813438,53.490573348694,0
								157.60464906693,53.49066271305,0
								157.60483145714,53.490707395157,0
								157.60500311852,53.490752077218,0
								157.60516405106,53.490783992946,0
								157.60530352592,53.490815908651,0
								157.60549664497,53.490847824332,0
								157.60562539101,53.490873356859,0
								157.60580778122,53.490879739988,0
								157.60593652725,53.490892506244,0
								157.60605454445,53.490911655621,0
								157.60618329048,53.49093718811,0
								157.60637640953,53.49093718811,0
								157.60654807091,53.490949954348,0
								157.60671973228,53.490949954348,0
								157.60686993599,53.490994636153,0
								157.60702013969,53.490994636153,0
								157.60715961456,53.491001019264,0
								157.60727763176,53.491001019264,0
								157.60740637779,53.491007402374,0
								157.60750293732,53.491007402374,0
								157.60767459869,53.491039317911,0
								157.60780334473,53.491077616523,0
								157.60793209076,53.491103148912,0
								157.60807156563,53.4911159151,0
								157.60818958282,53.491154213643,0
								157.60833978653,53.491179745986,0
								157.60846853256,53.491205278313,0
								157.60861873627,53.491243576775,0
								157.60880112648,53.491288258271,0
								157.60895133018,53.491326556658,0
								157.60912299156,53.491301024404,0
								157.60931611061,53.491301024404,0
								157.60950922966,53.491320173596,0
								157.60963797569,53.491377621121,0
								157.60982036591,53.491415919427,0
								157.60999202728,53.491479749861,0
								157.61015295982,53.491492515937,0
								157.61036753654,53.491511665042,0
								157.61058211327,53.491530814139,0
								157.61078596115,53.491581878356,0
								157.61093616486,53.491671240587,0
								157.61108636856,53.491741453637,0
								157.6112473011,53.491805283581,0
								157.61142969131,53.491818049558,0
								157.6116335392,53.491818049558,0
								157.61181592941,53.491824432545,0
								157.61195540428,53.491837198517,0
								157.61214852333,53.491837198517,0
								157.61229872704,53.491843581501,0
								157.61251330376,53.491849964485,0
								157.61270642281,53.491881879387,0
								157.61287808418,53.491901028317,0
								157.61302828789,53.491913794265,0
								157.61317849159,53.491964858021,0
								157.61329650879,53.49197762395,0
								157.61345744133,53.492009538756,0
								157.61361837387,53.492015921715,0
								157.61370420456,53.492035070584,0
								157.61385440826,53.492060602397,0
								157.6139831543,53.492086134194,0
								157.61415481567,53.492130814801,0
								157.61435866356,53.492137197742,0
								157.61448740959,53.492162729492,0
								157.61464834213,53.492181878296,0
								157.61476635933,53.492194644159,0
								157.61492729187,53.492213792948,0
								157.61504530907,53.492232941728,0
								157.61515259743,53.4922520905,0
								157.61527061462,53.492277622181,0
								157.61543154716,53.492277622181,0
								157.61559247971,53.492309536762,0
								157.61576414108,53.492354217134,0
								157.61593580246,53.492386131657,0
								157.61606454849,53.49239889746,0
								157.61623620987,53.492424429053,0
								157.61635422707,53.492437194844,0
								157.6164829731,53.492449960631,0
								157.61661171913,53.492469109305,0
								157.61676192284,53.492481875082,0
								157.61690139771,53.492520172391,0
								157.61706233025,53.492539321033,0
								157.61721253395,53.492596766906,0
								157.61734127998,53.492641446976,0
								157.61744856834,53.492673361283,0
								157.61757731438,53.492686126999,0
								157.61772751808,53.492692509856,0
								157.61785626411,53.492692509856,0
								157.6179420948,53.492692509856,0
								157.61803865433,53.492692509856,0
								157.61813521385,53.492692509856,0
								157.61827468872,53.492698892711,0
								157.61842489243,53.492705275566,0
								157.61856436729,53.492698892711,0
								157.61867165565,53.492692509856,0
								157.6188325882,53.492673361283,0
								157.61896133423,53.492660595563,0
								157.61907935143,53.492654212702,0
								157.61915445328,53.492622298381,0
								157.61924028397,53.492609532645,0
								157.61936903,53.492609532645,0
								157.61945486069,53.492590384035,0
								157.61957287788,53.492571235417,0
								157.61968016624,53.492590384035,0
								157.61978745461,53.492622298381,0
								157.6199054718,53.492647829839,0
								157.62004494667,53.492647829839,0
								157.62022733688,53.492647829839,0
								157.62036681175,53.492654212702,0
								157.62052774429,53.492679744141,0
								157.62064576149,53.492686126999,0
								157.62075304985,53.492718041272,0
								157.62090325356,53.492743572673,0
								157.62101054192,53.492756338368,0
								157.62112855911,53.49280101827,0
								157.62131094933,53.492820166785,0
								157.62145042419,53.492852080957,0
								157.62161135674,53.492896760758,0
								157.62177228928,53.492909526407,0
								157.62193322182,53.49291590923,0
								157.62205123901,53.492935057693,0
								157.62221217155,53.49294782333,0
								157.62231945992,53.492928674873,0
								157.62239456177,53.492877612278,0
								157.62253403664,53.492820166785,0
								157.62260913849,53.492775486903,0
								157.62270569801,53.492762721214,0
								157.62281298637,53.492743572673,0
								157.62298464775,53.492788252589,0
								157.62313485146,53.492832932457,0
								157.62327432632,53.492858463789,0
								157.6234459877,53.49291590923,0
								157.62358546257,53.492935057693,0
								157.62372493744,53.492935057693,0
								157.62382149696,53.492935057693,0
								157.62391805649,53.492903143583,0
								157.62400388718,53.492858463789,0
								157.62413263321,53.492826549621,0
								157.62427210808,53.492826549621,0
								157.62440085411,53.492858463789,0
								157.62455105782,53.492826549621,0
								157.62467980385,53.49280101827,0
								157.62480854988,53.492781869746,0
								157.62489438057,53.492756338368,0
								157.62504458427,53.492749955521,0
								157.62516260147,53.492718041272,0
								157.62528061867,53.492692509856,0
								157.62543082237,53.492679744141,0
								157.62554883957,53.492698892711,0
								157.62563467026,53.492737189825,0
								157.62575268745,53.492781869746,0
								157.62585997581,53.492820166785,0
								157.62597799301,53.492864846619,0
								157.62610673904,53.492903143583,0
								157.62624621391,53.492941440512,0
								157.62639641762,53.492922292052,0
								157.62652516365,53.492883995105,0
								157.62661099434,53.492883995105,0
								157.62669682503,53.492858463789,0
								157.62679338455,53.492839315291,0
								157.62691140175,53.492781869746,0
								157.62702941895,53.492769104059,0
								157.62713670731,53.492756338368,0
								157.62720644474,53.492753146945,0
								157.62727618217,53.492749955521,0
								157.6273727417,53.492679744141,0
								157.62744784355,53.492641446976,0
								157.62753367424,53.492596766906,0
								157.62765169144,53.492545703912,0
								157.62782335281,53.492520172391,0
								157.62796282768,53.492520172391,0
								157.6281452179,53.492520172391,0
								157.62830615044,53.492520172391,0
								157.62842416763,53.492520172391,0
								157.6285636425,53.492501023741,0
								157.62872457504,53.492494640856,0
								157.62887477875,53.492475492194,0
								157.62898206711,53.492456343523,0
								157.62914299965,53.492424429053,0
								157.62926101685,53.492392514559,0
								157.62936830521,53.492373365851,0
								157.62951850891,53.492335068409,0
								157.62965798378,53.492271239262,0
								157.62977600098,53.492245707577,0
								157.62988328934,53.492188261228,0
								157.6299905777,53.492162729492,0
								157.63010859489,53.492137197742,0
								157.63020515442,53.492111665975,0
								157.63032317162,53.49212443186,0
								157.63049483299,53.49212443186,0
								157.6306450367,53.492086134194,0
								157.63076305389,53.492060602397,0
								157.63090252876,53.492009538756,0
								157.63096690178,53.491971240986,0
								157.63110637665,53.491939326151,0
								157.63127803802,53.491888262365,0
								157.63147115707,53.491862730448,0
								157.63158917427,53.491824432545,0
								157.63172864914,53.491779751615,0
								157.63188958168,53.491741453637,0
								157.6319861412,53.491690389612,0
								157.63215780258,53.491677623596,0
								157.63229727745,53.491632942511,0
								157.63243675232,53.491601027421,0
								157.63258695602,53.491543580199,0
								157.63271570206,53.491518048076,0
								157.63289809227,53.491441451612,0
								157.63300538063,53.491409536379,0
								157.63310194016,53.491396770278,0
								157.63318777084,53.491377621121,0
								157.6332950592,53.49133932278,0
								157.63345599175,53.491313790533,0
								157.63358473778,53.491249959849,0
								157.63373494148,53.491224427549,0
								157.63385295868,53.491173362902,0
								157.63393878937,53.491141447466,0
								157.63407826424,53.491122298193,0
								157.63416409492,53.491083999621,0
								157.6343357563,53.491039317911,0
								157.63442158699,53.491013785484,0
								157.6345717907,53.491001019264,0
								157.63467907906,53.490949954348,0
								157.63480782509,53.490892506244,0
								157.63489365578,53.490873356859,0
								157.63501167297,53.490835058062,0
								157.6351082325,53.490803142372,0
								157.63523697853,53.490764843512,0
								157.63539791107,53.490707395157,0
								157.63556957245,53.490688245689,0
								157.63567686081,53.49066271305,0
								157.63581633568,53.490598881386,0
								157.63594508171,53.490554199164,0
								157.6361489296,53.49051590008,0
								157.63623476028,53.49047121777,0
								157.63635277748,53.490420152217,0
								157.6364171505,53.490369086601,0
								157.63647079468,53.490318020924,0
								157.63655662537,53.490260571964,0
								157.63663172722,53.490203122927,0
								157.63673901558,53.490139290571,0
								157.63684630394,53.490062691618,0
								157.63693213463,53.490005242312,0
								157.63698577881,53.489935026388,0
								157.63710379601,53.489877576909,0
								157.63715744019,53.48982651064,0
								157.63724327087,53.489762677718,0
								157.63735055923,53.489711611311,0
								157.63747930527,53.489666928154,0
								157.63758659363,53.489615861632,0
								157.63771533966,53.4895775617,0
								157.63783335686,53.489552028393,0
								157.63791918755,53.48952649507,0
								157.63803720474,53.489488195057,0
								157.63812303543,53.48944989501,0
								157.63821959496,53.489398828226,0
								157.63832688332,53.489360528098,0
								157.63845562935,53.489328611299,0
								157.63860583305,53.489303077841,0
								157.63877749443,53.489277544369,0
								157.63885259628,53.489232860755,0
								157.63890624046,53.489188177094,0
								157.63905644417,53.489098809631,0
								157.63916373253,53.489086042835,0
								157.63927102089,53.489054125829,0
								157.63936758041,53.489034975613,0
								157.63949632645,53.488990291744,0
								157.63958215714,53.488939224407,0
								157.639721632,53.488875390149,0
								157.63980746269,53.488837089548,0
								157.63992547989,53.488779638582,0
								157.64002203941,53.488747721346,0
								157.64015078545,53.488703037173,0
								157.64029026031,53.488651969491,0
								157.64039754868,53.488632819094,0
								157.64052629471,53.488600901746,0
								157.64068722725,53.488607285218,0
								157.64082670212,53.488607285218,0
								157.64098763466,53.488575367851,0
								157.64111638069,53.488581751326,0
								157.6412665844,53.488607285218,0
								157.6414167881,53.48863920256,0
								157.64158844948,53.488664736417,0
								157.64172792435,53.488703037173,0
								157.64186739922,53.488664736417,0
								157.6420712471,53.488664736417,0
								157.6421892643,53.488620052158,0
								157.64236092567,53.488600901746,0
								157.64247894287,53.48855621742,0
								157.64268279076,53.488524300014,0
								157.64279007912,53.488466848625,0
								157.64292955399,53.488441314649,0
								157.64304757118,53.488479615607,0
								157.64320850372,53.488511533046,0
								157.64336943626,53.488485999097,0
								157.64350891113,53.488454081639,0
								157.64360547066,53.488441314649,0
								157.64373421669,53.488415780658,0
								157.64388442039,53.488403013656,0
								157.6440346241,53.488403013656,0
								157.64420628548,53.488428547655,0
								157.64438867569,53.488441314649,0
								157.64456033707,53.488460465132,0
								157.64475345612,53.488460465132,0
								157.64494657516,53.488460465132,0
								157.64508605003,53.488460465132,0
								157.64523625374,53.488428547655,0
								157.64539718628,53.488383863147,0
								157.64556884766,53.488345562102,0
								157.64569759369,53.488313644539,0
								157.64590144157,53.488364712629,0
								157.64604091644,53.488428547655,0
								157.64616966248,53.48850514956,0
								157.64625549316,53.488530683497,0
								157.64639496803,53.488466848625,0
								157.64649152756,53.488377479642,0
								157.6465344429,53.488313644539,0
								157.64657735825,53.488230658761,0
								157.64662027359,53.488102988017,0
								157.64678120613,53.487975316888,0
								157.64688849449,53.487898714026,0
								157.64699578285,53.487828494615,0
								157.64708161354,53.487745507888,0
								157.64723181725,53.487681671834,0
								157.64744639397,53.487649753771,0
								157.6476931572,53.487636986538,0
								157.64785408974,53.487630602921,0
								157.64807939529,53.487624219303,0
								157.64829397202,53.487649753771,0
								157.64844417572,53.487688055443,0
								157.64860510826,53.487758275087,0
								157.64875531197,53.487809343846,0
								157.64892697334,53.487873179708,0
								157.64907717705,53.487924248329,0
								157.64917373657,53.487968933321,0
								157.64933466911,53.487937015474,0
								157.64954924583,53.487898714026,0
								157.64964580536,53.487860412544,0
								157.64978528023,53.487815727437,0
								157.64993548393,53.487777425879,0
								157.65005350113,53.487758275087,0
								157.65022516251,53.487802960255,0
								157.65042901039,53.487822111026,0
								157.65063285828,53.487802960255,0
								157.65070796013,53.487758275087,0
								157.65086889267,53.487713589873,0
								157.65101909637,53.487675288223,0
								157.65116930008,53.487656137385,0
								157.65137314796,53.487656137385,0
								157.65154480934,53.487656137385,0
								157.65170574188,53.487630602921,0
								157.65185594559,53.487617835683,0
								157.65204906464,53.487579533947,0
								157.65218853951,53.487547615807,0
								157.6523065567,53.487522081278,0
								157.65244603157,53.487471012173,0
								157.65256404877,53.487368873779,0
								157.65266060829,53.487305037158,0
								157.65283226967,53.487266735139,0
								157.65300393105,53.487273118811,0
								157.65315413475,53.487247584117,0
								157.65327215195,53.487202898364,0
								157.65343308449,53.487139061493,0
								157.65355110168,53.487094375626,0
								157.65362620354,53.487056073417,0
								157.65374422073,53.486998620039,0
								157.65390515327,53.486973085179,0
								157.65406608582,53.486934782861,0
								157.65420556068,53.486890096779,0
								157.65431284904,53.48685817812,0
								157.65443086624,53.486819875697,0
								157.65458106995,53.486775189494,0
								157.65473127365,53.48675603825,0
								157.65488147736,53.486800724473,0
								157.65501022339,53.486832643175,0
								157.65514969826,53.486832643175,0
								157.65529990196,53.486781573241,0
								157.65538573265,53.486743270749,0
								157.65552520752,53.48671135198,0
								157.65563249588,53.486660281899,0
								157.65581488609,53.486609211757,0
								157.65601873398,53.486577292886,0
								157.65613675117,53.48653899021,0
								157.6563513279,53.4865006875,0
								157.65643715858,53.486462384755,0
								157.65651226044,53.486404930572,0
								157.65660881996,53.486347476312,0
								157.65660881996,53.486200648404,0
								157.65655517578,53.486136810025,0
								157.65649080276,53.486053819988,0
								157.65640497208,53.4860219007,0
								157.65632987022,53.485983597523,0
								157.65622258186,53.485938910438,0
								157.65615820885,53.485900607186,0
								157.65604019165,53.485875071665,0
								157.65587925911,53.485836768355,0
								157.65573978424,53.485798465011,0
								157.65563249588,53.48576654553,0
								157.65554666519,53.485721858218,0
								157.65545010567,53.485715474312,0
								157.6553106308,53.485760161631,0
								157.65521407127,53.485887839428,0
								157.65508532524,53.485919758817,0
								157.65491366386,53.485926142691,0
								157.65464544296,53.485983597523,0
								157.65444159508,53.486009132978,0
								157.65428066254,53.486041052276,0
								157.65414118767,53.486066587697,0
								157.65394806862,53.486117658492,0
								157.65377640724,53.486072971549,0
								157.65364766121,53.486047436132,0
								157.65359401703,53.485989981388,0
								157.65356183052,53.485906991064,0
								157.65359401703,53.485804848904,0
								157.65351891518,53.485696322589,0
								157.65363693237,53.485606947769,0
								157.65376567841,53.485594179922,0
								157.65389442444,53.485594179922,0
								157.65409827232,53.485555876358,0
								157.65429139137,53.485523956695,0
								157.6545381546,53.485492037008,0
								157.65475273132,53.485434581512,0
								157.65489220619,53.485421813613,0
								157.65510678291,53.485383509893,0
								157.65532135963,53.485332438214,0
								157.65553593636,53.485281366473,0
								157.65573978424,53.485243062627,0
								157.6559650898,53.485185606793,0
								157.65619039536,53.485128150881,0
								157.65639424324,53.485051542877,0
								157.65657663345,53.484994086784,0
								157.65672683716,53.484943014635,0
								157.65690922737,53.484879174363,0
								157.65707015991,53.484821718036,0
								157.65718817711,53.48477064568,0
								157.65734910965,53.484713189206,0
								157.65743494034,53.484655732655,0
								157.65755295753,53.484617428244,0
								157.6576602459,53.48459189195,0
								157.65772461891,53.484515282978,0
								157.65789628029,53.484496130714,0
								157.65805721283,53.484496130714,0
								157.6581966877,53.484496130714,0
								157.6583468914,53.484464210253,0
								157.65841126442,53.484425905669,0
								157.65848636627,53.484362064619,0
								157.65854001045,53.484285455232,0
								157.6585829258,53.484157772613,0
								157.65866875649,53.484087547008,0
								157.65869021416,53.484010937125,0
								157.65875458717,53.483940711278,0
								157.65879750252,53.483870485314,0
								157.65886187553,53.483800259234,0
								157.65897989273,53.483730033038,0
								157.65909790993,53.483627885636,0
								157.65919446945,53.483557659154,0
								157.65930175781,53.483500201037,0
								157.65939831734,53.483436358594,0
								157.65951633453,53.483353363274,0
								157.65959143639,53.48330228915,0
								157.65972018242,53.48323206213,0
								157.65978455544,53.483174603572,0
								157.65990257263,53.483161834993,0
								157.65995621681,53.48309799204,0
								157.65990257263,53.482963921527,0
								157.66012787819,53.482855387944,0
								157.66034245491,53.482797928876,0
								157.66046047211,53.482753238436,0
								157.66070723534,53.482708547949,0
								157.66093254089,53.482708547949,0
								157.66109347343,53.482721316664,0
								157.66129732132,53.482746854084,0
								157.66151189804,53.482721316664,0
								157.66171574593,53.482727701021,0
								157.66185522079,53.482797928876,0
								157.66182303429,53.482931999914,0
								157.66190886497,53.483053301916,0
								157.66208052635,53.483129913529,0
								157.66226291656,53.48310437634,0
								157.66226291656,53.483014996058,0
								157.66234874725,53.482938384239,0
								157.66258478165,53.482900078277,0
								157.66264915466,53.482842619269,0
								157.6628100872,53.482785160184,0
								157.66293883324,53.482721316664,0
								157.66309976578,53.48267024178,0
								157.66332507133,53.482568091826,0
								157.66351819038,53.482523401144,0
								157.66371130943,53.482478710414,0
								157.66388297081,53.482446788436,0
								157.66407608986,53.482402097626,0
								157.66429066658,53.482402097626,0
								157.66448378563,53.482427635238,0
								157.66465544701,53.482389328815,0
								157.6647734642,53.482299947026,0
								157.66492366791,53.482242487206,0
								157.66507387161,53.482140336222,0
								157.66521334648,53.482031800532,0
								157.66539573669,53.481923264565,0
								157.66546010971,53.481853035261,0
								157.66559958458,53.481801959331,0
								157.66570687294,53.481706191797,0
								157.66587853432,53.481604039521,0
								157.66602873802,53.481527425154,0
								157.66613602638,53.48149550246,0
								157.6663184166,53.481469964287,0
								157.66642570496,53.481431656999,0
								157.66654372215,53.48138696512,0
								157.66677975655,53.481335888629,0
								157.66702651978,53.481335888629,0
								157.66714453697,53.481278427503,0
								157.667273283,53.481195427961,0
								157.66728401184,53.481067736041,0
								157.66734838486,53.481016659166,0
								157.66742348671,53.480927274486,0
								157.66744494438,53.480825120335,0
								157.66749858856,53.48074850456,0
								157.66760587692,53.480703811962,0
								157.66774535179,53.480627195968,0
								157.66785264015,53.480531425782,0
								157.66794919968,53.480473963566,0
								157.6680457592,53.480403731863,0
								157.66820669174,53.480378193034,0
								157.66830325127,53.480371808324,0
								157.66846418381,53.48033988476,0
								157.66867876053,53.480224959732,0
								157.66887187958,53.480135573384,0
								157.66904354095,53.480065341121,0
								157.66911864281,53.480007878274,0
								157.66923666,53.479931261024,0
								157.66939759254,53.479829104475,0
								157.66950488091,53.479758871705,0
								157.66959071159,53.479669484375,0
								157.66969799995,53.479548172698,0
								157.6698589325,53.479477939462,0
								157.67001986504,53.479452400075,0
								157.67019152641,53.479477939462,0
								157.67040610313,53.479522633353,0
								157.67062067986,53.479516248514,0
								157.67080307007,53.479458784924,0
								157.67098546028,53.479414090966,0
								157.67115712166,53.479318318041,0
								157.67133951187,53.479216160017,0
								157.67150044441,53.47915869602,0
								157.67169356346,53.47915869602,0
								157.67187595367,53.47913315644,0
								157.67211198807,53.47913315644,0
								157.67230510712,53.47913315644,0
								157.67248749733,53.479152311126,0
								157.67261624336,53.479075692331,0
								157.67268061638,53.479011843229,0
								157.67272353172,53.47893522418,0
								157.67283082008,53.478813910403,0
								157.67288446426,53.47873090604,0
								157.67291665077,53.478673441386,0
								157.6730132103,53.478603206703,0
								157.673163414,53.478513816938,0
								157.6732814312,53.478398886964,0
								157.67337799072,53.47834142186,0
								157.67373204231,53.47821372135,0
								157.67356038094,53.478271186627,0
								157.67388224602,53.47813710086,0
								157.67403244972,53.478073250346,0
								157.67417192459,53.477996629602,0
								157.67437577248,53.47790723856,0
								157.67453670502,53.477862542968,0
								157.67479419708,53.477741226124,0
								157.67504096031,53.477683760129,0
								157.67525553703,53.477600753555,0
								157.67537355423,53.477504976537,0
								157.67552375793,53.477441125072,0
								157.6756310463,53.47737727351,0
								157.67583489418,53.477338962527,0
								157.6760494709,53.477319807023,0
								157.67619967461,53.477281495988,0
								157.67640352249,53.477230414554,0
								157.67659664154,53.477179333059,0
								157.67677903175,53.477128251502,0
								157.67691850662,53.477089940295,0
								157.67707943916,53.477045243842,0
								157.67716526985,53.476975006463,0
								157.67742276192,53.476917539431,0
								157.67757296562,53.476853687082,0
								157.67781972885,53.476815375626,0
								157.6778948307,53.476764293631,0
								157.67802357674,53.476706826314,0
								157.67827033997,53.476611047278,0
								157.67838835716,53.476559965037,0
								157.67859220505,53.476534423894,0
								157.6788175106,53.476451415071,0
								157.67894625664,53.476413103252,0
								157.67911791801,53.476374791399,0
								157.67930030823,53.476330094193,0
								157.67948269844,53.476285396939,0
								157.67966508865,53.476196002291,0
								157.67994403839,53.476125763508,0
								157.68016934395,53.47602998316,0
								157.68037319183,53.475991670961,0
								157.68056631088,53.475902275694,0
								157.68088817596,53.475863963379,0
								157.68115639687,53.475806494842,0
								157.68133878708,53.475806494842,0
								157.6815533638,53.475761797038,0
								157.68183231354,53.475768182441,0
								157.68204689026,53.475768182441,0
								157.68219709396,53.475806494842,0
								157.68245458603,53.4758511926,0
								157.68262624741,53.475895890311,0
								157.68289446831,53.475870348768,0
								157.68305540085,53.475812880239,0
								157.68311977386,53.475704328362,0
								157.68319487572,53.475627703341,0
								157.68329143524,53.475487223775,0
								157.68337726593,53.475391441987,0
								157.68358111382,53.475276503555,0
								157.68373131752,53.475161564812,0
								157.68393516541,53.475142408325,0
								157.68413901329,53.475078553304,0
								157.68442869186,53.474995541634,0
								157.6847076416,53.474925300863,0
								157.68486857414,53.474842288892,0
								157.68507242203,53.474829517806,0
								157.68523335457,53.474823132261,0
								157.68540501595,53.47477843342,0
								157.68540501595,53.47470819229,0
								157.68543720245,53.474599637587,0
								157.68544793129,53.474484697011,0
								157.68545866013,53.474337828043,0
								157.68559813499,53.474197344208,0
								157.68578052521,53.474031317257,0
								157.68587708473,53.473935532182,0
								157.68600583076,53.473839746891,0
								157.6862847805,53.473788661314,0
								157.68654227257,53.473680104259,0
								157.68674612045,53.473648175661,0
								157.68685340881,53.473597089853,0
								157.68700361252,53.473539618246,0
								157.68729329109,53.473501303798,0
								157.68750786781,53.473411903285,0
								157.6875936985,53.473386360247,0
								157.68770098686,53.473360817193,0
								157.68782973289,53.473322502584,0
								157.68793702126,53.473277802163,0
								157.68806576729,53.473213944337,0
								157.68821597099,53.473137314818,0
								157.6882481575,53.473060685161,0
								157.68832325935,53.47295851207,0
								157.68832325935,53.472901039599,0
								157.68838763237,53.472811637821,0
								157.68844127655,53.472696692402,0
								157.68864512444,53.472594518435,0
								157.68892407417,53.472492344221,0
								157.68908500671,53.47253704547,0
								157.68925666809,53.472588132553,0
								157.6894068718,53.472639219576,0
								157.6895570755,53.472626447826,0
								157.68971800804,53.472594518435,0
								157.68986821175,53.472524273689,0
								157.69005060196,53.472460414729,0
								157.69019007683,53.472390169762,0
								157.69022226334,53.472319924679,0
								157.69030809402,53.472230521677,0
								157.69044756889,53.472160276329,0
								157.69054412842,53.472070872991,0
								157.69068360329,53.471987855437,0
								157.69078016281,53.47189206575,0
								157.6908659935,53.471796275847,0
								157.6909840107,53.47174518781,0
								157.69106984138,53.471643011552,0
								157.69120931625,53.471489746704,0
								157.69126296043,53.471381183768,0
								157.69131660461,53.471279006634,0
								157.69135951996,53.471202373621,0
								157.69141316414,53.471157670967,0
								157.69157409668,53.47109380995,0
								157.69177794456,53.470985246002,0
								157.69196033478,53.470870295636,0
								157.69219636917,53.470685097169,0
								157.69237875938,53.470646780144,0
								157.69257187843,53.470621235442,0
								157.69277572632,53.470602076905,0
								157.69295811653,53.47057014599,0
								157.69306540489,53.470531828862,0
								157.69312977791,53.470487125501,0
								157.69327998161,53.470416877268,0
								157.69344091415,53.470340242699,0
								157.69360184669,53.470308311587,0
								157.69380569458,53.470308311587,0
								157.69408464432,53.470269994222,0
								157.69425630569,53.470276380452,0
								157.69453525543,53.470238063058,0
								157.69470691681,53.47020613187,0
								157.69493222237,53.470186973146,0
								157.69511461258,53.470161428166,0
								157.69539356232,53.470142269422,0
								157.69552230835,53.470065634357,0
								157.69576907158,53.469982612881,0
								157.69597291946,53.469899591242,0
								157.69619822502,53.469797410541,0
								157.69633769989,53.46970161591,0
								157.69656300545,53.469580275733,0
								157.69671320915,53.469529185029,0
								157.69677758217,53.469446162504,0
								157.69693851471,53.469369526182,0
								157.69706726074,53.46925457144,0
								157.69721746445,53.469101297966,0
								157.6974105835,53.468909705346,0
								157.69748568535,53.468839454502,0
								157.69755005836,53.468737271248,0
								157.69771099091,53.468686179529,0
								157.69777536392,53.468609541835,0
								157.69788265228,53.468494585035,0
								157.6979470253,53.468430720012,0
								157.69803285599,53.468360468375,0
								157.69817233086,53.468283830093,0
								157.69827961922,53.468188032046,0
								157.69834399223,53.468092233782,0
								157.69845128059,53.468015595016,0
								157.69856929779,53.467926182947,0
								157.69873023033,53.46783677069,0
								157.69881606102,53.467740971634,0
								157.69894480705,53.467638785736,0
								157.69910573959,53.467568532788,0
								157.69920229912,53.467472733127,0
								157.69924521446,53.467396093242,0
								157.69928812981,53.467293906514,0
								157.699406147,53.467191719539,0
								157.69957780838,53.467115079147,0
								157.69963145256,53.467051212048,0
								157.69969582558,53.466980958128,0
								157.69974946976,53.46688515714,0
								157.69983530045,53.466757422154,0
								157.69997477531,53.466668007435,0
								157.70010352135,53.466578592527,0
								157.70021080971,53.466546658586,0
								157.70036101341,53.46642530939,0
								157.70051121712,53.466329507149,0
								157.70061850548,53.466220931014,0
								157.70068287849,53.466144288869,0
								157.70085453987,53.466125128311,0
								157.70096182823,53.466022938523,0
								157.7011013031,53.46594629602,0
								157.70120859146,53.465882427163,0
								157.70133733749,53.465812171308,0
								157.70149827003,53.465729141512,0
								157.70165920258,53.465678046172,0
								157.70188450813,53.465556694493,0
								157.70199179649,53.465467277245,0
								157.70213127136,53.465365085873,0
								157.7022922039,53.465288442183,0
								157.70242094994,53.465154315392,0
								157.7025282383,53.465096832352,0
								157.70265698433,53.465026575197,0
								157.70278573036,53.464956317926,0
								157.70295739174,53.464892447579,0
								157.7030646801,53.464834964184,0
								157.70332217216,53.464713610095,0
								157.70344018936,53.464656126459,0
								157.70365476608,53.464605029827,0
								157.70390152931,53.464585868574,0
								157.70407319069,53.464534771858,0
								157.70416975021,53.464413416911,0
								157.70427703857,53.464343158626,0
								157.70444869995,53.464240964548,0
								157.70473837852,53.464011026973,0
								157.704641819,53.464106834447,0
								157.70482420921,53.463908832096,0
								157.70493149757,53.463806636973,0
								157.70511388779,53.463723603254,0
								157.70523190498,53.463691667165,0
								157.70546793938,53.463653343826,0
								157.70573616028,53.463615020453,0
								157.70594000816,53.463576697046,0
								157.70613312721,53.46353198636,0
								157.70624041557,53.463474501123,0
								157.70636916161,53.463397854019,0
								157.706605196,53.463321206777,0
								157.70681977272,53.463238172109,0
								157.70698070526,53.463167911878,0
								157.70724892616,53.463155137278,0
								157.70736694336,53.463116813455,0
								157.70754933357,53.46308487691,0
								157.70777463913,53.46308487691,0
								157.70795702934,53.463046553024,0
								157.70815014839,53.462995454455,0
								157.70828962326,53.462957130488,0
								157.70840764046,53.462918806486,0
								157.70848274231,53.462848545727,0
								157.70857930183,53.46272718596,0
								157.70862221718,53.462631375372,0
								157.70864367485,53.462561114137,0
								157.70877242088,53.462433366139,0
								157.70892262459,53.462490852786,0
								157.70913720131,53.462561114137,0
								157.70930886269,53.462612213229,0
								157.70952343941,53.462656924883,0
								157.70970582962,53.46270802386,0
								157.70993113518,53.462701636491,0
								157.71019935608,53.462733573325,0
								157.71044611931,53.462733573325,0
								157.71056413651,53.462624987992,0
								157.7106821537,53.462580276304,0
								157.71088600159,53.462580276304,0
								157.71107912064,53.462541951962,0
								157.71117568016,53.462478077982,0
								157.71129369736,53.462458915769,0
								157.71147608757,53.46240142908,0
								157.71167993546,53.462375879415,0
								157.7118730545,53.462382266832,0
								157.7119910717,53.462420591318,0
								157.7121090889,53.462439753548,0
								157.71228075027,53.462439753548,0
								157.71239876747,53.462382266832,0
								157.71255970001,53.462407816493,0
								157.71273136139,53.462414203906,0
								157.71293520927,53.462414203906,0
								157.71302103996,53.462497240186,0
								157.71312832832,53.462567501527,0
								157.71327853203,53.462637762751,0
								157.71345019341,53.462656924883,0
								157.71362185478,53.462695249121,0
								157.71367549896,53.462778284851,0
								157.71381497383,53.462803834274,0
								157.71392226219,53.462822996331,0
								157.7140724659,53.462835771031,0
								157.71417975426,53.46291241915,0
								157.71416902542,53.463014616425,0
								157.71421194077,53.463097651531,0
								157.71429777145,53.463142362674,0
								157.71442651749,53.463193461066,0
								157.71454453468,53.463276495822,0
								157.71464109421,53.463397854019,0
								157.71471619606,53.463436177588,0
								157.71479129791,53.463525599115,0
								157.71482348442,53.463589471519,0
								157.71493077278,53.463589471519,0
								157.71505951881,53.463627794915,0
								157.7151453495,53.463685279944,0
								157.71517753601,53.463749152108,0
								157.71524190903,53.463832185777,0
								157.7154135704,53.463838572975,0
								157.71544575691,53.463915219283,0
								157.71554231644,53.463947155204,0
								157.71563887596,53.463940768022,0
								157.71572470665,53.463972703923,0
								157.7157998085,53.464023801316,0
								157.71589636803,53.46406212432,0
								157.71601438522,53.464106834447,0
								157.71610021591,53.464196254562,0
								157.7161860466,53.464247351685,0
								157.71628260612,53.464260125956,0
								157.71640062332,53.464355932868,0
								157.71650791168,53.464394255572,0
								157.71660447121,53.46443896535,0
								157.7167224884,53.46450283638,0
								157.71689414978,53.464560320224,0
								157.71700143814,53.464624191071,0
								157.71713018417,53.464681674751,0
								157.71730184555,53.464739158354,0
								157.71745204926,53.464783867768,0
								157.71755933762,53.464866899413,0
								157.71767735481,53.464937156832,0
								157.7177631855,53.465020188177,0
								157.71785974503,53.465064897296,0
								157.71802067757,53.465064897296,0
								157.7181494236,53.465109606368,0
								157.7182674408,53.465122380379,0
								157.71848201752,53.465122380379,0
								157.71856784821,53.465160702392,0
								157.71872878075,53.465250120286,0
								157.71876096725,53.465339537992,0
								157.71890044212,53.465377859808,0
								157.7190721035,53.46542256855,0
								157.71923303604,53.465435342468,0
								157.71941542625,53.465492825049,0
								157.71958708763,53.465524759783,0
								157.71968364716,53.465607789979,0
								157.71981239319,53.465633337699,0
								157.72000551224,53.465639724627,0
								157.72012352943,53.465748302248,0
								157.72022008896,53.465837718905,0
								157.72035956383,53.465888814053,0
								157.72047758102,53.46594629602,0
								157.72058486938,53.465997391037,0
								157.72072434425,53.466029325392,0
								157.72081017494,53.466042099127,0
								157.72093892097,53.466042099127,0
								157.7210354805,53.466105967744,0
								157.7211856842,53.466163449418,0
								157.72137880325,53.466163449418,0
								157.72150754929,53.466137902017,0
								157.72162556648,53.466182609958,0
								157.72176504135,53.4662528652,0
								157.7218401432,53.466284799362,0
								157.72193670273,53.466399762147,0
								157.72205471992,53.466463630226,0
								157.72219419479,53.46652749821,0
								157.72232294083,53.466591366097,0
								157.72248387337,53.466636073561,0
								157.72269845009,53.466648847113,0
								157.72281646729,53.466674394207,0
								157.72293448448,53.466680780978,0
								157.72310614586,53.466744648634,0
								157.7232670784,53.466789355937,0
								157.72339582443,53.466840449939,0
								157.72347092628,53.466910704091,0
								157.72357821465,53.467025665181,0
								157.72355675697,53.467115079147,0
								157.72364258766,53.467230039684,0
								157.72370696068,53.467319453219,0
								157.72379279137,53.467428026544,0
								157.72382497787,53.467549372873,0
								157.72381424904,53.467670718855,0
								157.72382497787,53.467760131462,0
								157.72386789322,53.467830384093,0
								157.72388935089,53.467900636607,0
								157.72395372391,53.467970889005,0
								157.72411465645,53.468021981585,0
								157.72423267365,53.468105006897,0
								157.72433996201,53.468149712766,0
								157.72446870804,53.468194418589,0
								157.72454380989,53.468283830093,0
								157.72459745407,53.468347695337,0
								157.72471547127,53.468430720012,0
								157.72483348846,53.468520131018,0
								157.72493004799,53.468583995907,0
								157.72509098053,53.468705338931,0
								157.72519826889,53.468813908712,0
								157.72533774376,53.468922478214,0
								157.72543430328,53.468999115343,0
								157.72555232048,53.469082138743,0
								157.72565960884,53.469165161981,0
								157.72577762604,53.46925457144,0
								157.72580981255,53.469356753448,0
								157.7258849144,53.469465321562,0
								157.72596001625,53.469561116727,0
								157.72605657578,53.469644139027,0
								157.72618532181,53.469720774853,0
								157.72632479668,53.469765479021,0
								157.72645354271,53.469822955739,0
								157.72658228874,53.469918750096,0
								157.72670030594,53.470008157968,0
								157.72682905197,53.470084793136,0
								157.7269256115,53.470161428166,0
								157.72708654404,53.470231676823,0
								157.72718310356,53.470321084035,0
								157.72731184959,53.470423263475,0
								157.72740840912,53.470512670284,0
								157.72750496864,53.470595690724,0
								157.72762298584,53.470678711001,0
								157.7277302742,53.470742572642,0
								157.72783756256,53.470806434187,0
								157.72788047791,53.470908612459,0
								157.72789120674,53.471017176604,0
								157.72786438465,53.471061879335,0
								157.72783756256,53.471106582067,0
								157.72778391838,53.471195987531,0
								157.72792339325,53.471247076229,0
								157.72790193558,53.47130455094,0
								157.72787511349,53.471390762774,0
								157.7278482914,53.471476974608,0
								157.72779464722,53.471566379197,0
								157.72774100304,53.471630239503,0
								157.72774100304,53.471726029781,0
								157.72790193558,53.471751573818,0
								157.72810578346,53.471809047847,0
								157.72819161415,53.471885679763,0
								157.72834181786,53.471898451736,0
								157.72852420807,53.471911223705,0
								157.72872805595,53.47194315361,0
								157.72888898849,53.471981469465,0
								157.72907137871,53.471994241409,0
								157.72927522659,53.471968697517,0
								157.7294254303,53.471987855437,0
								157.72959709167,53.472019785285,0
								157.72972583771,53.472102802776,0
								157.72975802422,53.472179434163,0
								157.72985458374,53.472313538756,0
								157.72997260094,53.4724157134,0
								157.73006916046,53.472517887798,0
								157.73018717766,53.472626447826,0
								157.73029446602,53.472715849993,0
								157.73040175438,53.472824409515,0
								157.73056268692,53.472862724574,0
								157.73068070412,53.472881882091,0
								157.73082017899,53.472913811266,0
								157.73103475571,53.472945740417,0
								157.73121714592,53.472964897896,0
								157.7313888073,53.473009598647,0
								157.73163557053,53.473079842588,0
								157.73182868958,53.473143700617,0
								157.73205399513,53.473207558549,0
								157.73230075836,53.473277802163,0
								157.73253679276,53.473348045661,0
								157.73271918297,53.473411903285,0
								157.73286938667,53.473437446308,0
								157.73299813271,53.473443832062,0
								157.73318052292,53.473450217814,0
								157.73331999779,53.473507689542,0
								157.73344874382,53.473597089853,0
								157.7336204052,53.473648175661,0
								157.73375988007,53.473692875692,0
								157.73393154144,53.473775889911,0
								157.73408174515,53.473852518276,0
								157.73417830467,53.473916375141,0
								157.73434996605,53.474005774592,0
								157.73444652557,53.474076016885,0
								157.73459672928,53.474184572927,0
								157.73465037346,53.474286743066,0
								157.73480057716,53.474356984894,0
								157.73497223854,53.474408069787,0
								157.73512244225,53.474420841,0
								157.73528337479,53.474420841,0
								157.73544430733,53.47443361221,0
								157.73559451103,53.474478311414,0
								157.73569107056,53.474542167338,0
								157.7358520031,53.474586866427,0
								157.73610949516,53.474599637587,0
								157.73621678352,53.474669878897,0
								157.73632407188,53.474746505648,0
								157.7365064621,53.47477843342,0
								157.73662447929,53.474855059975,0
								157.73676395416,53.474861445515,0
								157.7368927002,53.474912529801,0
								157.73698925972,53.474969999549,0
								157.73709654808,53.475033854732,0
								157.7371609211,53.475123251829,0
								157.73724675179,53.475187106782,0
								157.73743987083,53.475187106782,0
								157.73759007454,53.475187106782,0
								157.7376973629,53.475187106782,0
								157.73777246475,53.475136022827,0
								157.73795485497,53.475187106782,0
								157.73800849915,53.475295659982,0
								157.73809432983,53.47536590014,0
								157.7382338047,53.475429754728,0
								157.73831963539,53.47556384905,0
								157.73843765259,53.475666015869,0
								157.73853421211,53.475774567844,0
								157.73860931396,53.47585757799,0
								157.73874878883,53.475991670961,0
								157.73884534836,53.476081066039,0
								157.73896336555,53.476164075586,0
								157.73904919624,53.476240699639,0
								157.7391242981,53.476310938233,0
								157.73929595947,53.476291782264,0
								157.73943543434,53.476285396939,0
								157.73957490921,53.476317323554,0
								157.73973584175,53.476342864828,0
								157.73990750313,53.476374791399,0
								157.74006843567,53.476413103252,0
								157.74020791054,53.476470570968,0
								157.74027228355,53.476553579753,0
								157.74030447006,53.476662129457,0
								157.74040102959,53.476706826314,0
								157.74048686028,53.476757908378,0
								157.74055123329,53.476828146115,0
								157.74056196213,53.476891998503,0
								157.74062633514,53.476962236019,0
								157.74077653885,53.476962236019,0
								157.74091601372,53.476962236019,0
								157.74102330208,53.476943080344,0
								157.74110913277,53.476911154201,0
								157.74118423462,53.476764293631,0
								157.74132370949,53.476719596835,0
								157.74140954018,53.476687670524,0
								157.74154901505,53.476687670524,0
								157.74154901505,53.476630203102,0
								157.74166703224,53.476579120885,0
								157.7417743206,53.476559965037,0
								157.74193525314,53.476547194467,0
								157.7421605587,53.476540809181,0
								157.74226784706,53.476649358918,0
								157.74228930473,53.476751523123,0
								157.74232149124,53.476879228033,0
								157.74243950844,53.476987776904,0
								157.742664814,53.477051629052,0
								157.74287939072,53.477128251502,0
								157.74310469627,53.477243184918,0
								157.74329781532,53.477364503186,0
								157.74339437485,53.477460280521,0
								157.74357676506,53.477613523808,0
								157.74375915527,53.477741226124,0
								157.74388790131,53.477830617516,0
								157.74411320686,53.477837002608,0
								157.74430632591,53.47791362364,0
								157.74445652962,53.47792000872,0
								157.74460673332,53.477983859465,0
								157.74475693703,53.478060480232,0
								157.74495005608,53.478066865289,0
								157.74511098862,53.478098790563,0
								157.74519681931,53.478188181202,0
								157.74536848068,53.478258416573,0
								157.7455830574,53.478277571653,0
								157.74576544762,53.478328651826,0
								157.74599075317,53.478373346927,0
								157.74619460106,53.478398886964,0
								157.74637699127,53.478392501956,0
								157.7465057373,53.478322266808,0
								157.7466237545,53.4782648016,0
								157.74678468704,53.478232876451,0
								157.74692416191,53.478220106385,0
								157.74704217911,53.478181796163,0
								157.7471280098,53.47813710086,0
								157.74738550186,53.478117945716,0
								157.74760007858,53.478117945716,0
								157.74777173996,53.478143485906,0
								157.74792194366,53.478143485906,0
								157.74802923203,53.478117945716,0
								157.74819016457,53.478111560666,0
								157.74835109711,53.478156255996,0
								157.74849057198,53.478239261483,0
								157.74865150452,53.478296726725,0
								157.74875879288,53.478347806875,0
								157.7488553524,53.478405271971,0
								157.74896264076,53.478469121985,0
								157.7490913868,53.478526586916,0
								157.74927377701,53.47853935689,0
								157.74940252304,53.478545741876,0
								157.74954199791,53.478501046956,0
								157.74968147278,53.478462736988,0
								157.74982094765,53.478430811988,0
								157.74999260902,53.478418041981,0
								157.75017499924,53.478398886964,0
								157.75031447411,53.478386116947,0
								157.75047540665,53.478386116947,0
								157.75063633919,53.478418041981,0
								157.75075435638,53.478520201928,0
								157.75082945824,53.478596821726,0
								157.75087237358,53.478718136124,0
								157.75092601776,53.478813910403,0
								157.75089383125,53.478954378955,0
								157.75080800056,53.479011843229,0
								157.75080800056,53.479062922518,0
								157.75087237358,53.47913315644,0
								157.75100111961,53.47919700536,0
								157.75115132332,53.479209775132,0
								157.75133371353,53.479216160017,0
								157.75153756142,53.479241699546,0
								157.75166630745,53.47926723906,0
								157.75187015533,53.479350242374,0
								157.75207400322,53.479414090966,0
								157.7522456646,53.479458784924,0
								157.75242805481,53.479522633353,0
								157.75257825851,53.479567327196,0
								157.7527821064,53.479592866514,0
								157.75297522545,53.479643945104,0
								157.75315761566,53.479675869191,0
								157.75338292122,53.47972694768,0
								157.75366187096,53.479739717293,0
								157.75379061699,53.479758871705,0
								157.75399446487,53.479784410908,0
								157.75418758392,53.479841874057,0
								157.75436997414,53.479854643636,0
								157.75459527969,53.479899337129,0
								157.75480985641,53.479956800123,0
								157.75498151779,53.480001493509,0
								157.755163908,53.480007878274,0
								157.75533556938,53.480027032565,0
								157.75553941727,53.480020647803,0
								157.75570034981,53.480007878274,0
								157.75589346886,53.479995108742,0
								157.75603294373,53.480020647803,0
								157.75619387627,53.480020647803,0
								157.75637626648,53.480020647803,0
								157.75653719902,53.480046186848,0
								157.75669813156,53.480052571607,0
								157.75678396225,53.480110034393,0
								157.75683760643,53.480193036058,0
								157.75692343712,53.480269652836,0
								157.75704145432,53.480352654188,0
								157.75713801384,53.480442040079,0
								157.75723457336,53.480569733882,0
								157.7573633194,53.480691042639,0
								157.75748133659,53.480818735692,0
								157.7576315403,53.480927274486,0
								157.75767445564,53.48102942839,0
								157.75771737099,53.481163505017,0
								157.75785684586,53.481284812076,0
								157.7578997612,53.481393349677,0
								157.75785684586,53.481469964287,0
								157.75788903236,53.48159127047,0
								157.75799632072,53.48165511569,0
								157.75813579559,53.481687038264,0
								157.75836110115,53.481770036844,0
								157.75852203369,53.481827497304,0
								157.7586722374,53.481884957686,0
								157.75885462761,53.481948802464,0
								157.75895118713,53.482012647146,0
								157.759090662,53.482082876186,0
								157.75926232338,53.482133951778,0
								157.75943398476,53.482204180616,0
								157.75955200195,53.482268024914,0
								157.75967001915,53.482325484699,0
								157.75976657867,53.482389328815,0
								157.75987386703,53.48245955723,0
								157.76003479958,53.482548938682,0
								157.76019573212,53.482619166833,0
								157.76039958,53.482721316664,0
								157.76053905487,53.482753238436,0
								157.76065707207,53.482842619269,0
								157.76080727577,53.482938384239,0
								157.76089310646,53.482995843116,0
								157.76101112366,53.483053301916,0
								157.76112914085,53.483129913529,0
								157.76126861572,53.483219293568,0
								157.76133298874,53.483257599242,0
								157.76141881943,53.483315057687,0
								157.7615582943,53.48341082159,0
								157.76162266731,53.483461895583,0
								157.761708498,53.483544890691,0
								157.76174068451,53.483634269856,0
								157.76191234589,53.483691727791,0
								157.76204109192,53.48375556985,0
								157.76220202446,53.483800259234,0
								157.76244878769,53.483857716945,0
								157.76269555092,53.483915174577,0
								157.76294231415,53.483991784633,0
								157.7631354332,53.484030089609,0
								157.76332855225,53.484074778704,0
								157.76347875595,53.484119467752,0
								157.76365041733,53.484164156753,0
								157.7637898922,53.484202461573,0
								157.76399374008,53.484227998101,0
								157.76411175728,53.484266302864,0
								157.76426196098,53.484304607592,0
								157.76441216469,53.484349296397,0
								157.76458382607,53.484387601051,0
								157.76473402977,53.484406753364,0
								157.76484131813,53.484470594347,0
								157.76493787766,53.484515282978,0
								157.76505589485,53.484540819318,0
								157.76515245438,53.484598276025,0
								157.76527047157,53.484681268909,0
								157.76542067528,53.484719573263,0
								157.76556015015,53.484738725427,0
								157.76565670967,53.484783413775,0
								157.76579618454,53.484847254191,0
								157.7659034729,53.484891942425,0
								157.76601076126,53.484930246588,0
								157.76613950729,53.484987702768,0
								157.76619315147,53.485083462895,0
								157.76636481285,53.485089846896,0
								157.76649355888,53.485153686851,0
								157.76659011841,53.485198374762,0
								157.76671886444,53.485198374762,0
								157.76681542397,53.485268598528,0
								157.76693344116,53.48534520614,0
								157.7670943737,53.485415429662,0
								157.76725530624,53.485498420948,0
								157.76734113693,53.485594179922,0
								157.76745915413,53.485632483451,0
								157.76754498482,53.485670786945,0
								157.76763081551,53.485734626026,0
								157.76772737503,53.485862303899,0
								157.76775956154,53.485958062052,0
								157.76783466339,53.486060203843,0
								157.76792049408,53.4861814969,0
								157.76802778244,53.486315557245,0
								157.76811361313,53.486424081975,0
								157.76823163033,53.486596444211,0
								157.76828527451,53.486762421999,0
								157.76832818985,53.486877329318,0
								157.76842474937,53.486998620039,0
								157.76851058006,53.487068840824,0
								157.76856422424,53.487215665727,0
								157.76866078377,53.487343339142,0
								157.7686715126,53.487439093951,0
								157.76875734329,53.487579533947,0
								157.76882171631,53.487656137385,0
								157.76891827583,53.487745507888,0
								157.76898264885,53.48785402896,0
								157.76897192001,53.488007234706,0
								157.76889681816,53.488102988017,0
								157.76896119118,53.488230658761,0
								157.76904702187,53.488345562102,0
								157.76906847954,53.488422164157,0
								157.76918649673,53.488460465132,0
								157.76924014091,53.488607285218,0
								157.76925086975,53.488658352954,0
								157.7691757679,53.488766871691,0
								157.76924014091,53.488843472984,0
								157.76912212372,53.489003058569,0
								157.76910066605,53.489079659436,0
								157.76899337769,53.48921371062,0
								157.76901483536,53.489296694475,0
								157.76895046234,53.489456278354,0
								157.76896119118,53.489615861632,0
								157.76897192001,53.489769061015,0
								157.76904702187,53.490005242312,0
								157.76902556419,53.490139290571,0
								157.76903629303,53.490292488063,0
								157.76903629303,53.490432918611,0
								157.76903629303,53.490541432807,0
								157.76903629303,53.490643563561,0
								157.76903629303,53.490790376089,0
								157.76903629303,53.49093718811,0
								157.76903629303,53.491032934805,0
								157.76904702187,53.491173362902,0
								157.76907920837,53.491249959849,0
								157.76900410652,53.49133932278,0
								157.76897192001,53.491466983782,0
								157.76896119118,53.491575495332,0
								157.76896119118,53.491664857577,0
								157.76899337769,53.491779751615,0
								157.76901483536,53.491881879387,0
								157.76898264885,53.491990389875,0
								157.76896119118,53.492130814801,0
								157.76893973351,53.492264856342,0
								157.76891827583,53.49240528036,0
								157.76891827583,53.492513789509,0
								157.76891827583,53.492679744141,0
								157.76885390282,53.492743572673,0
								157.76886463165,53.492883995105,0
								157.76891827583,53.493011651458,0
								157.76899337769,53.493062713892,0
								157.76910066605,53.493196752487,0
								157.76910066605,53.493305259612,0
								157.7690577507,53.493375469956,0
								157.76904702187,53.493515890295,0
								157.76904702187,53.493637162033,0
								157.76904702187,53.493758433423,0
								157.76911139488,53.493898852495,0
								157.76918649673,53.493924383185,0
								157.76911139488,53.493988209844,0
								157.76911139488,53.494077567004,0
								157.76911139488,53.494179689243,0
								157.76911139488,53.494339254749,0
								157.76907920837,53.494441376357,0
								157.76907920837,53.49454349772,0
								157.76910066605,53.494664766518,0
								157.76914358139,53.49479880005,0
								157.76920795441,53.494900920552,0
								157.7692937851,53.494964745741,0
								157.76939034462,53.495060483344,0
								157.76936888695,53.49515622073,0
								157.76934742928,53.49522642801,0</coordinates></LineString></Placemark></Document></kml>