<?xml version="1.0" encoding="UTF-8"?><kml xmlns="http://www.opengis.net/kml/2.2"><Document>
								 <name>Маршрут Горный массив Вачкажец. Маршрут загрузил(а) Roman Pozdny</name>
								 <description>Скачено с сайта https://idilesom.com</description> <Placemark><LineString><tessellate>1</tessellate> <coordinates>
								157.911558,53.175589,0
								157.913918,53.174534,0
								157.91276,53.173016,0
								157.907395,53.168617,0
								157.901344,53.163498,0
								157.900615,53.161542,0
								157.897182,53.154955,0
								157.894607,53.150219,0
								157.895851,53.146461,0
								157.897267,53.14206,0
								157.893319,53.138224,0
								157.891345,53.136061,0
								157.89525,53.134414,0
								157.898641,53.131659,0
								157.897782,53.12705,0
								157.897439,53.123676,0
								157.897611,53.119658,0
								157.897868,53.114996,0
								157.89465,53.111132,0
								157.889757,53.105491,0
								157.88435,53.099539,0
								157.877827,53.095802,0
								157.876024,53.09338,0
								157.874136,53.089205,0
								157.874844,53.089031,0
								157.875488,53.088747,0
								157.876142,53.088219,0
								157.87684,53.087942,0
								157.877902,53.087794,0
								157.879114,53.088283,0
								157.880327,53.088373,0
								157.88141,53.088341,0
								157.882805,53.088013,0
								157.883577,53.087774,0
								157.884103,53.087929,0
								157.884961,53.088174,0
								157.886302,53.088805,0
								157.888234,53.088786,0
								157.889028,53.088573,0
								157.890058,53.088187,0
								157.891431,53.087922,0
								157.892611,53.087478,0
								157.893373,53.086924,0
								157.894349,53.086846,0
								157.894907,53.086621,0
								157.895186,53.086079,0
								157.895679,53.085918,0
								157.896677,53.08615,0
								157.897096,53.085828,0
								157.897696,53.08539,0
								157.898265,53.085113,0
								157.898952,53.084771,0
								157.899585,53.084372,0
								157.900164,53.084043,0
								157.901098,53.083772,0
								157.901881,53.083212,0
								157.902997,53.082542,0
								157.904123,53.081968,0
								157.904745,53.081743,0
								157.905979,53.08191,0
								157.906591,53.082149,0
								157.90731,53.082323,0
								157.907803,53.08278,0
								157.908576,53.083089,0
								157.909563,53.082973,0
								157.910646,53.082909,0
								157.911966,53.082529,0
								157.91364,53.081923,0
								157.914562,53.081678,0
								157.915356,53.081652,0
								157.916343,53.081472,0
								157.917094,53.081395,0
								157.917738,53.081008,0
								157.918403,53.080956,0
								157.918038,53.08133,0
								157.918875,53.081549,0
								157.919562,53.08173,0
								157.920506,53.081794,0
								157.92145,53.081962,0
								157.922523,53.08173,0
								157.923317,53.081291,0
								157.92454,53.081072,0
								157.925334,53.080956,0
								157.926171,53.081098,0
								157.9269,53.080982,0
								157.927737,53.080956,0
								157.928338,53.081098,0
								157.929261,53.081227,0
								157.930484,53.081111,0
								157.931256,53.081266,0
								157.931256,53.081266,0</coordinates></LineString></Placemark></Document></kml>