<?xml version="1.0" encoding="UTF-8"?><kml xmlns="http://www.opengis.net/kml/2.2"><Document>
								 <name>Маршрут Камчатский камень. Маршрут загрузил(а) Илья Шелопугин</name>
								 <description>Скачено с сайта https://idilesom.com</description> <Placemark><LineString><tessellate>1</tessellate> <coordinates>
								158.70890915394,52.9634938787,0
								158.7090754509,52.963765291626,0
								158.70956897736,52.96406578252,0
								158.70985329151,52.964162714621,0
								158.711130023,52.964556902927,0
								158.71161818504,52.964660295985,0
								158.71235847473,52.96488646744,0
								158.71285200119,52.965077096746,0
								158.71325969696,52.965390502423,0
								158.71374249458,52.965665134396,0
								158.71391415596,52.965849298389,0
								158.7143433094,52.966259625867,0
								158.71459007263,52.966450249119,0
								158.7149977684,52.966837954834,0
								158.71551275253,52.967161040273,0
								158.71585607529,52.967458276744,0
								158.71635496616,52.967816896288,0
								158.71685385704,52.967871819739,0
								158.71725618839,52.967994589555,0
								158.7176156044,52.968156128254,0
								158.71841490269,52.968304743324,0
								158.71894598007,52.968424281161,0
								158.71948242188,52.968543818668,0
								158.71995449066,52.968841045631,0
								158.7206196785,52.969073656612,0
								158.72102737427,52.969254575398,0
								158.72163891792,52.969374110609,0
								158.72208952904,52.969622872015,0
								158.72259378433,52.969942706005,0
								158.72307121754,52.970172080439,0
								158.72336626053,52.97034007221,0
								158.72392952442,52.970543599828,0
								158.72439622879,52.970676053794,0
								158.72488439083,52.970740665338,0
								158.72555494308,52.970766509928,0
								158.72572660446,52.970831121337,0
								158.72601091862,52.970889271522,0
								158.72626304626,52.970999110547,0
								158.72647225857,52.971118640933,0
								158.72670829296,52.97125755421,0
								158.72683167458,52.97139646704,0
								158.72703015804,52.971525687877,0
								158.72713208199,52.971677521867,0
								158.7273144722,52.971900426119,0
								158.72739493847,52.972113637806,0
								158.72748613358,52.972323617986,0
								158.72775971889,52.972443144709,0
								158.72786700726,52.97256590154,0
								158.72797966003,52.972711271021,0
								158.72809767723,52.972895404995,0
								158.72822105885,52.972995547704,0
								158.7283551693,52.973089229383,0
								158.72858047485,52.973260440202,0
								158.7287735939,52.973421959221,0
								158.72885406017,52.973619011608,0
								158.72897207737,52.973751456149,0
								158.72910618782,52.973841905847,0
								158.72924566269,52.973909742996,0
								158.72939586639,52.973971119372,0
								158.72958362103,52.974032495661,0
								158.72973382473,52.974080950565,0
								158.72994840145,52.974145557018,0
								158.73012006283,52.974203702744,0
								158.73028635979,52.974290921186,0
								158.73043656349,52.974374909148,0
								158.73066186905,52.974439515162,0
								158.73086035252,52.974494430198,0
								158.73103201389,52.974546114874,0
								158.73121440411,52.974594569202,0
								158.7313914299,52.974655944606,0
								158.73157382011,52.974730241031,0
								158.73178303242,52.974836840026,0
								158.73201370239,52.974927287451,0
								158.73227655888,52.975053267479,0
								158.73239457607,52.975146944698,0
								158.73247504234,52.975272924085,0
								158.73260378838,52.975369831056,0
								158.73271644115,52.97544089603,0
								158.73280227184,52.975515191105,0
								158.73288273811,52.975547493272,0
								158.73301684856,52.975541032841,0
								158.73330116272,52.975492579574,0
								158.73342990875,52.975492579574,0
								158.73356938362,52.975427975135,0
								158.73371958733,52.975366600827,0
								158.73382151127,52.975266463613,0
								158.7339502573,52.975211549558,0
								158.73407900333,52.97513725396,0
								158.7342184782,52.975111411983,0
								158.73433113098,52.97503388596,0
								158.73450279236,52.974904675613,0
								158.73463690281,52.974840070294,0
								158.73479783535,52.974756083235,0
								158.73492121696,52.974688247415,0
								158.73506605625,52.974630102341,0
								158.73513579369,52.974584878341,0
								158.73535037041,52.974513811959,0
								158.73543083668,52.97448150902,0
								158.73571515083,52.974465357541,0</coordinates></LineString></Placemark></Document></kml>