<?xml version="1.0" encoding="UTF-8"?><kml xmlns="http://www.opengis.net/kml/2.2"><Document>
<name>Маршрут Каньон Крылья Гамулов (Дракон). Маршрут загрузил(а) Roman Pozdny</name>
<description>Скачено с сайта https://idilesom.com (Pro-выгрузка владельца платформы)</description> <Placemark><LineString><tessellate>1</tessellate> <coordinates>
161.034036,56.556946,0
161.036932,56.55684,0
161.039883,56.556863,0
161.043917,56.556934,0
161.048284,56.557153,0
161.052436,56.556491,0
161.055343,56.556313,0
161.061952,56.556845,0
161.066705,56.557307,0
161.07075,56.557183,0
161.075406,56.556863,0
161.078775,56.556556,0
161.082852,56.556367,0
161.086982,56.556219,0
161.090266,56.555137,0
161.093709,56.554717,0
161.098119,56.555018,0
161.103698,56.5548,0
161.107378,56.554486,0
161.112388,56.553611,0
161.117206,56.55289,0
161.121089,56.552801,0
161.12522,56.552582,0
161.129737,56.553014,0
161.139801,56.553623,0
161.144714,56.554344,0
161.147912,56.555166,0
161.15171,56.555598,0
161.156538,56.555947,0
161.160647,56.556857,0
161.165947,56.557431,0
161.170528,56.55817,0
161.175581,56.558495,0
161.181235,56.558548,0
161.185495,56.558767,0
161.190108,56.559069,0
161.193981,56.559388,0
161.197371,56.559932,0
161.199088,56.56083,0
161.202092,56.561351,0
161.204453,56.561847,0
161.206512,56.562722,0
161.209688,56.563432,0
161.211791,56.563692,0
161.212521,56.563739,0
161.213207,56.563952,0
161.213551,56.564354,0
161.213465,56.564898,0
161.214623,56.56582,0
161.214709,56.566506,0</coordinates></LineString></Placemark></Document></kml>
