<?xml version="1.0" encoding="UTF-8"?><kml xmlns="http://www.opengis.net/kml/2.2"><Document>
								 <name>Маршрут Карымшинские термальные источники. Маршрут загрузил(а) Roman Pozdny</name>
								 <description>Скачено с сайта https://idilesom.com</description> <Placemark><LineString><tessellate>1</tessellate> <coordinates>
								158.15181970596,52.840663402913,0
								158.15151929855,52.840702286364,0
								158.15125107765,52.840656922334,0
								158.15085411072,52.840663402913,0
								158.15043568611,52.840689325217,0
								158.15012454987,52.840728208645,0
								158.14983487129,52.840689325217,0
								158.14944863319,52.840689325217,0
								158.14907312393,52.840676364067,0
								158.14875125885,52.84066988349,0
								158.14839720726,52.84066988349,0
								158.14811825752,52.840663402913,0
								158.14759254456,52.840650441755,0
								158.14731359482,52.840650441755,0
								158.1470990181,52.840637480593,0
								158.14682006836,52.84052731056,0
								158.14661622047,52.840462504527,0
								158.14654111862,52.840319930916,0
								158.14658403397,52.840190318136,0
								158.14657330513,52.840073666303,0
								158.14658403397,52.83996349484,0
								158.14662694931,52.839846842397,0
								158.14671278,52.839736670359,0
								158.14677715302,52.839645940234,0
								158.14685225487,52.839542248432,0
								158.1468307972,52.839393191032,0
								158.14671278,52.839211729159,0
								158.14661622047,52.839082113071,0
								158.14642310143,52.838933054092,0
								158.14633727074,52.838777513742,0
								158.14618706703,52.838693262487,0
								158.14606904984,52.838576606632,0
								158.14591884613,52.838518278588,0
								158.14572572708,52.838459950465,0
								158.14560770988,52.838362736752,0
								158.14542531967,52.838265522822,0
								158.14531803131,52.838155346772,0
								158.14516782761,52.8380905372,0
								158.1450176239,52.838064613344,0
								158.14488887787,52.838012765586,0
								158.144749403,52.837941474817,0
								158.14467430115,52.83785722194,0
								158.14454555511,52.837785930916,0
								158.14444899559,52.837682234673,0
								158.14438462257,52.83755261402,0
								158.14427733421,52.837448917219,0
								158.14423441887,52.837332258023,0
								158.14415931702,52.837235041786,0
								158.14399838448,52.837124863121,0
								158.14385890961,52.837014684177,0
								158.14378380775,52.83694339177,0
								158.14366579056,52.83685265581,0
								158.14354777336,52.836787844295,0
								158.143440485,52.836690626839,0
								158.14334392548,52.836606371535,0
								158.14334392548,52.836515634871,0
								158.14334392548,52.836386010737,0
								158.1432902813,52.836223980025,0
								158.14330101013,52.836113798795,0
								158.1433224678,52.835990654738,0
								158.14324736595,52.835841585148,0
								158.14319372177,52.835686033726,0
								158.14315080643,52.835562888455,0
								158.14312934875,52.835394373309,0
								158.14308643341,52.835303634113,0
								158.14314007759,52.835174006361,0
								158.14312934875,52.835050859639,0
								158.1431722641,52.834901786823,0
								158.1431722641,52.834778639329,0
								158.14318299294,52.834629565579,0
								158.14322590828,52.834564750746,0
								158.14325809479,52.83440271324,0
								158.14323663712,52.83429252739,0
								158.14320445061,52.834104562648,0
								158.14320445061,52.833961968164,0
								158.14320445061,52.83382585481,0
								158.14307570457,52.833676777791,0
								158.14296841621,52.833579553372,0
								158.14282894135,52.833488810384,0
								158.14267873764,52.833333250537,0
								158.14258217812,52.833216580285,0
								158.14242124557,52.83312583654,0
								158.14232468605,52.833028610888,0
								158.1422495842,52.832937866749,0
								158.14204573631,52.832801750187,0
								158.14191699028,52.832659151425,0
								158.14182043076,52.832542479363,0
								158.14175605774,52.83241932518,0
								158.14167022705,52.832244316003,0
								158.1415951252,52.83208226984,0
								158.14148783684,52.831920223073,0
								158.14134836197,52.831835958515,0
								158.14127326012,52.831699838499,0
								158.14123034477,52.831596127725,0
								158.14111232758,52.831524826424,0
								158.14106941223,52.831382223471,0
								158.14099431038,52.831297957869,0
								158.14089775085,52.831207210115,0
								158.14083337784,52.831116462172,0
								158.14081192017,52.830993303946,0
								158.140822649,52.830889591485,0
								158.14096212387,52.830708094082,0
								158.14104795456,52.830571970532,0
								158.14112305641,52.830429364451,0
								158.14111232758,52.830325650643,0
								158.14111232758,52.830221936588,0
								158.14106941223,52.830020989901,0
								158.14106941223,52.829897828569,0
								158.1410586834,52.829781149091,0
								158.14102649689,52.829677433736,0
								158.14092993736,52.829489449023,0
								158.14083337784,52.829333874853,0
								158.14066171646,52.829197746997,0
								158.14057588577,52.829094030249,0
								158.14050078392,52.828977348612,0
								158.14041495323,52.828873631338,0
								158.14036130905,52.828769913816,0
								158.14014673233,52.828679160781,0
								158.13997507095,52.828575442795,0
								158.13973903656,52.828491171749,0
								158.13958883286,52.828426347756,0
								158.13943862915,52.828348558837,0
								158.1392455101,52.828277252206,0
								158.13904166222,52.82819946302,0
								158.13880562782,52.828121673695,0
								158.13856959343,52.82804388423,0
								158.13846230507,52.828011471912,0
								158.13826918602,52.82797905957,0
								158.13808679581,52.827946647204,0
								158.13784003258,52.827829962485,0
								158.13760399818,52.827713277452,0
								158.13735723495,52.82762252221,0
								158.13719630241,52.827531766779,0
								158.13704609871,52.827428046054,0
								158.13681006432,52.827317842512,0
								158.13657402992,52.827253016768,0
								158.13627362251,52.827201156104,0
								158.13628435135,52.827103917191,0
								158.13646674156,52.827045573739,0
								158.13659548759,52.826974264969,0
								158.13678860664,52.826909438713,0
								158.13697099686,52.82684461236,0
								158.13706755638,52.826740889995,0
								158.13705682755,52.82663068471,0
								158.13700318336,52.82646213491,0
								158.13696026802,52.826319515338,0
								158.13693881035,52.826176895298,0
								158.13690662384,52.826066688582,0
								158.13685297966,52.825891653812,0
								158.13679933548,52.825684204283,0
								158.13677787781,52.825509167973,0
								158.1367456913,52.825366545273,0
								158.13665986061,52.825295233747,0
								158.13649892807,52.825256336502,0
								158.136241436,52.825282268002,0
								158.13583374023,52.825249853624,0
								158.13546895981,52.825243370746,0
								158.13515782356,52.825262819378,0
								158.13494324684,52.825243370746,0
								158.13471794128,52.825172059018,0
								158.13450336456,52.825126678766,0
								158.13438534737,52.825055366847,0
								158.13422441483,52.824925708512,0
								158.1341278553,52.824841430387,0
								158.13393473625,52.824698805495,0
								158.13380599022,52.824562663115,0
								158.13358068466,52.824484867279,0
								158.13338756561,52.824387622287,0
								158.13305497169,52.824277411033,0
								158.13295841217,52.824154233418,0
								158.13282966614,52.824037538514,0
								158.13275456429,52.823927326372,0
								158.13269019127,52.823868978655,0
								158.13262581825,52.823804147765,0
								158.13261508942,52.823687451921,0
								158.13261508942,52.823557789504,0
								158.13261508942,52.82343460985,0
								158.1325507164,52.823324396178,0
								158.13250780106,52.823201215862,0
								158.13246488571,52.823058585586,0
								158.13235759735,52.82294188774,0
								158.13221812248,52.822831672819,0
								158.13200354576,52.822708491106,0
								158.13182115555,52.822572342491,0
								158.1316280365,52.822455643338,0
								158.13144564629,52.822358393805,0
								158.13132762909,52.822248177404,0
								158.13118815422,52.822157410747,0
								158.13099503517,52.822092577304,0
								158.13076972961,52.822060160546,0
								158.13057661057,52.821995326958,0
								158.13040494919,52.821911043149,0
								158.13023328781,52.821839725952,0
								158.13004016876,52.821748958441,0
								158.12985777855,52.821690607799,0
								158.12972903252,52.82161929024,0
								158.12955737114,52.821560939423,0
								158.12937498093,52.821431270661,0
								158.12926769257,52.821334018835,0
								158.12923550606,52.821152481511,0
								158.12919259071,52.821061712565,0
								158.12920331955,52.820938525835,0
								158.12914967537,52.82086072351,0
								158.12921404839,52.82073753621,0
								158.12920331955,52.820640282831,0
								158.12919259071,52.820471709794,0
								158.12922477722,52.82037445582,0
								158.12913894653,52.820296652485,0
								158.12897801399,52.820179947221,0
								158.12881708145,52.820056757991,0
								158.12890291214,52.820069725295,0
								158.12859177589,52.81990763372,0
								158.12842011452,52.819752025239,0
								158.12824845314,52.819667737079,0
								158.12811970711,52.819576965031,0
								158.12804460526,52.819460257835,0
								158.1279695034,52.819369485354,0
								158.12787294388,52.819259261372,0
								158.12774419785,52.819116618158,0
								158.12767982483,52.818999909725,0
								158.1275832653,52.818909136282,0
								158.12747597694,52.81878594345,0
								158.12736868858,52.818662750269,0
								158.12726140022,52.818520105097,0
								158.12710046768,52.818364491647,0
								158.12700390816,52.818241297271,0
								158.12688589096,52.818098650716,0
								158.12673568726,52.818014359349,0
								158.12660694122,52.817956003692,0
								158.12647819519,52.817897647956,0
								158.12620997429,52.817819840187,0
								158.1261241436,52.817767968263,0
								158.12592029572,52.817709612275,0
								158.12572717667,52.817638288183,0
								158.1254696846,52.817560479949,0
								158.12521219254,52.817463219461,0
								158.12497615814,52.817404863064,0
								158.12476158142,52.817327054412,0
								158.12455773354,52.817281665968,0
								158.12437534332,52.817210341174,0
								158.12419295311,52.817158468522,0
								158.12406420708,52.817113079902,0
								158.12388181686,52.817061207135,0
								158.12372088432,52.816989881979,0
								158.12351703644,52.816925040826,0
								158.1232380867,52.816853715447,0
								158.12306642532,52.816788874091,0
								158.12280893326,52.816730516789,0
								158.12269091606,52.816639738606,0
								158.12250852585,52.816626770279,0
								158.122433424,52.816548960235,0
								158.12229394913,52.816477634238,0
								158.12211155891,52.816419276517,0
								158.12188625336,52.816341466101,0
								158.12167167664,52.816250687107,0
								158.12148928642,52.816205297538,0
								158.12128543854,52.816140455215,0
								158.12102794647,52.8160496758,0
								158.12072753906,52.815952411932,0
								158.12044858932,52.815894053506,0
								158.12016963959,52.815816242149,0
								158.11998724937,52.815712493458,0
								158.11970829964,52.815634681776,0
								158.11956882477,52.815543901305,0
								158.11934351921,52.815440151963,0
								158.11905384064,52.815355855441,0
								158.11884999275,52.815329918016,0
								158.11866760254,52.815284527486,0
								158.11851739883,52.815258590019,0
								158.11832427979,52.815200230662,0
								158.11819553375,52.815083511712,0
								158.1179702282,52.814973276861,0
								158.11788439751,52.814837104011,0
								158.11776638031,52.814804681841,0
								158.11755180359,52.814687961829,0
								158.11730504036,52.814584210444,0
								158.11713337898,52.814486943296,0
								158.11699390411,52.814383191431,0
								158.11675786972,52.81430537737,0
								158.11652183533,52.814188656017,0
								158.11641454697,52.814091387984,0
								158.11623215675,52.81403951161,0
								158.11597466469,52.81400060429,0
								158.11560988426,52.813961696934,0
								158.11530947685,52.813896851264,0
								158.11498761177,52.813890366692,0
								158.11477303505,52.813851459237,0
								158.11454772949,52.813896851264,0
								158.11437606812,52.813896851264,0
								158.11405420303,52.813838490078,0
								158.11372160912,52.813786613403,0
								158.11341047287,52.813702313674,0
								158.1131207943,52.813643952227,0
								158.1128847599,52.813605044552,0
								158.11264872551,52.813572621463,0
								158.11233758926,52.813533713724,0
								158.11211228371,52.813494805951,0
								158.11185479164,52.813449413504,0
								158.11156511307,52.813416990299,0
								158.11129689217,52.813352143817,0
								158.11107158661,52.813313235881,0
								158.11078190804,52.813267843245,0
								158.11061024666,52.813254873912,0
								158.11027765274,52.81320299654,0
								158.10997724533,52.813190027187,0
								158.10981631279,52.813235419904,0
								158.10965538025,52.813248389243,0
								158.10950517654,52.813235419904,0
								158.10935497284,52.813215965889,0
								158.10906529427,52.813196511864,0
								158.10885071754,52.813177057831,0
								158.10858249664,52.81311221099,0
								158.10833573341,52.813138149738,0
								158.10806751251,52.813183542509,0
								158.10790657997,52.813267843245,0
								158.10770273209,52.813365113121,0
								158.10759544373,52.813481836685,0
								158.10737013817,52.813605044552,0
								158.10708045959,52.813708798274,0
								158.10697317123,52.813812551748,0
								158.10666203499,52.813877397544,0
								158.10636162758,52.813961696934,0
								158.10623288155,52.814058965258,0
								158.10606122017,52.81414974883,0
								158.10597538948,52.814208109598,0
								158.10576081276,52.814247016733,0
								158.10550332069,52.814169202428,0
								158.10536384583,52.814071934351,0
								158.10515999794,52.813974666056,0
								158.10503125191,52.813903335835,0
								158.10495615005,52.813832005497,0
								158.10474157333,52.813773644225,0
								158.10453772545,52.813715282873,0
								158.10423731804,52.813643952227,0
								158.10404419899,52.813630983006,0
								158.10386180878,52.813715282873,0
								158.10363650322,52.813734736666,0
								158.10343265533,52.813734736666,0
								158.10323953629,52.813721767472,0
								158.10304641724,52.813637467617,0
								158.10281038284,52.813514259842,0
								158.10271382332,52.813442928865,0
								158.10256361961,52.813378082422,0
								158.10246706009,52.813254873912,0
								158.10225248337,52.813177057831,0
								158.10217738152,52.813060333448,0
								158.10201644897,52.81297603231,0
								158.1017267704,52.812917669888,0
								158.10151219368,52.812852822661,0
								158.10129761696,52.812807429544,0
								158.10096502304,52.812807429544,0
								158.10062170029,52.812787975336,0
								158.10037493706,52.812755551638,0
								158.10019254684,52.812749066895,0
								158.0998814106,52.812742582152,0
								158.09952735901,52.812742582152,0
								158.09930205345,52.812742582152,0
								158.09906601906,52.812749066895,0
								158.09892654419,52.812749066895,0
								158.0987226963,52.812749066895,0
								158.09851884842,52.812658280398,0
								158.09831500053,52.812599917549,0
								158.09799313545,52.81250913074,0
								158.09766054153,52.812411858948,0
								158.09740304947,52.812353495769,0
								158.09708118439,52.812275678074,0
								158.09683442116,52.812223799534,0
								158.09664130211,52.812158951271,0
								158.09642672539,52.812100587752,0
								158.09620141983,52.81205519385,0
								158.09600830078,52.812016284753,0
								158.09579372406,52.811996830192,0
								158.09555768967,52.811957921043,0
								158.09536457062,52.811925496725,0
								158.09511780739,52.811919011859,0
								158.09482812881,52.811919011859,0
								158.09462428093,52.811906042123,0
								158.09436678886,52.811886587512,0
								158.09419512749,52.811938466455,0
								158.09406638145,52.811964405903,0
								158.09404492378,52.811854163141,0
								158.09388399124,52.811841193386,0
								158.09370160103,52.811841193386,0
								158.09359967709,52.811779586997,0
								158.09353530407,52.811750404993,0
								158.0934548378,52.81171798052,0
								158.09337437153,52.811659616409,0
								158.0932456255,52.811594767305,0
								158.09309542179,52.811559100256,0
								158.09294521809,52.811526675641,0
								158.0928003788,52.811516948252,0
								158.09266090393,52.811465068806,0
								158.09254825115,52.811448856467,0
								158.09245169163,52.811377522101,0
								158.09233367443,52.811309430097,0
								158.09225320816,52.811254307921,0
								158.09216201305,52.811189458212,0
								158.09204936028,52.811134335883,0
								158.09195280075,52.811072728492,0
								158.0918186903,52.811017606016,0
								158.09171676636,52.8109884235,0
								158.09167385101,52.810933300916,0
								158.09157192707,52.810848995653,0
								158.09154510498,52.810790630376,0
								158.09150755405,52.81071929493,0
								158.09155583382,52.810690112214,0</coordinates></LineString></Placemark></Document></kml>