<?xml version="1.0" encoding="UTF-8"?><kml xmlns="http://www.opengis.net/kml/2.2"><Document>
<name>Маршрут Курильское озеро. Маршрут загрузил(а) Roman Pozdny</name>
<description>Скачено с сайта https://idilesom.com (Pro-выгрузка владельца платформы)</description> <Placemark><LineString><tessellate>1</tessellate> <coordinates>
156.52101516724,51.501743821454,0
156.53500556946,51.499499755957,0
156.55225753784,51.497362447992,0
156.565990448,51.495331912589,0
156.56839370728,51.495225039799,0
156.57371520996,51.49340816403,0
156.57963752747,51.490629272781,0
156.58513069153,51.488384660034,0
156.5905380249,51.486246830868,0
156.59783363342,51.484269249648,0
156.60718917847,51.484750290811,0
156.61602973938,51.485391671135,0
156.6225528717,51.485605462572,0
156.626329422,51.486193383854,0
156.62967681885,51.486567511633,0
156.63808822632,51.489720752362,0
156.63937568665,51.492660017665,0
156.63963317871,51.493194409178,0
156.64169311523,51.494476923252,0
156.64280891418,51.495599093468,0
156.64521217346,51.496507496742,0
156.64752960205,51.49811051718,0
156.65061950684,51.500514942131,0
156.65267944336,51.502865812766,0
156.65499687195,51.505537109467,0
156.65705680847,51.508421934017,0
156.65843009949,51.509864277799,0
156.66246414185,51.511413411001,0
156.66666984558,51.513389814815,0
156.6725063324,51.516060494553,0
156.67739868164,51.51611390655,0
156.68761253357,51.516274142168,0
156.69138908386,51.516434377221,0
156.70091629028,51.515686608816,0
156.70846939087,51.518624199789,0
156.71387672424,51.518303744526,0
156.7209148407,51.517449186135,0
156.72829627991,51.516754845636,0
156.73293113708,51.516274142168,0
156.73765182495,51.51595367037,0
156.73739433289,51.514992241448,0
156.73945426941,51.514832001321,0
156.74065589905,51.514591640074,0
156.74486160278,51.514618346942,0
156.74872398376,51.514671760631,0
156.75241470337,51.514564933191,0
156.75348758698,51.515152481011,0
156.75413131714,51.51517918755,0
156.75503253937,51.515686608816,0
156.7559337616,51.516167318485,0
156.75636291504,51.516781551236,0
156.7570066452,51.517556006811,0
156.75734996796,51.518063401599,0
156.75846576691,51.518277039819,0
156.75953865051,51.518410563198,0
156.76091194153,51.518624199789,0
156.76284313202,51.518704313252,0
156.7644739151,51.518731017709,0
156.76601886749,51.518463972439,0
156.76756381989,51.518063401599,0
156.7689371109,51.517769647411,0
156.77022457123,51.517556006811,0
156.77215576172,51.517342365209,0
156.7737865448,51.517075311797,0
156.77580356598,51.516781551236,0
156.77752017975,51.516300848049,0
156.77893638611,51.515873552068,0
156.78065299988,51.515018948081,0
156.78189754486,51.514431398539,0
156.78288459778,51.513977377792,0
156.78382873535,51.513523352521,0
156.78563117981,51.513149445959,0
156.78799152374,51.512775536327,0
156.79009437561,51.512401623626,0
156.79262638092,51.511974291067,0
156.79550170898,51.511760623285,0
156.79756164551,51.51127986711,0
156.79914951324,51.511146322827,0
156.80155277252,51.510532014086,0
156.80314064026,51.510318339539,0
156.80511474609,51.510184792438,0
156.8076467514,51.509917697062,0
156.80953502655,51.509677309884,0
156.8114233017,51.50924995177,0
156.8140411377,51.508929430554,0
156.81571483612,51.508475354971,0
156.81854724884,51.508288381357,0
156.82137966156,51.507967853376,0
156.82313919067,51.50780758854,0
156.82507038116,51.507273368348,0
156.82713031769,51.506952833227,0
156.82931900024,51.506739141893,0
156.83275222778,51.506659007384,0
156.83515548706,51.506712430406,0
156.83845996857,51.506578872735,0
156.84103488922,51.506739141893,0
156.84365272522,51.506845987685,0
156.84609889984,51.507166523558,0
156.84863090515,51.507193234779,0
156.8509054184,51.507433635063,0
156.85330867767,51.507540479227,0
156.85579776764,51.507914431827,0
156.85837268829,51.508288381357,0
156.8609046936,51.508715748491,0
156.86287879944,51.50927666177,0
156.86549663544,51.509784148787,0
156.86845779419,51.509971116262,0
156.87124729156,51.510478595544,0
156.87352180481,51.510398467612,0
156.87532424927,51.510558723334,0
156.87772750854,51.510532014086,0
156.87927246094,51.510505304823,0
156.88103199005,51.510638850984,0
156.88283443451,51.510612141783,0
156.88467979431,51.510478595544,0
156.88678264618,51.510451886249,0
156.88862800598,51.510505304823,0
156.89103126526,51.510665560169,0
156.89317703247,51.510558723334,0
156.8948507309,51.510718978493,0
156.89695358276,51.51103948712,0
156.89884185791,51.51127986711,0
156.90068721771,51.511493537147,0
156.90231800079,51.51160037179,0
156.90356254578,51.511733914741,0
156.90412044525,51.511466828447,0
156.90472126007,51.511520245831,0
156.90557956696,51.512294790862,0
156.90635204315,51.512615288402,0
156.90738201141,51.512695412435,0
156.90879821777,51.512989199349,0
156.90974235535,51.513309692004,0
156.9104719162,51.513603474957,0
156.91163063049,51.513790426758,0
156.9127035141,51.514030792233,0
156.91369056702,51.514511519377,0
156.91437721252,51.51531272001,0
156.91566467285,51.515766727446,0
156.91686630249,51.516194024429,0
156.91798210144,51.51624743627,0
156.91871166229,51.516407671418,0
156.9197845459,51.516621317404,0
156.92115783691,51.51704860637,0
156.92274570465,51.517315659938,0
156.92446231842,51.517529301665,0
156.92622184753,51.517823057404,0
156.92780971527,51.518036696751,0
156.92991256714,51.518544086185,0
156.93154335022,51.518704313252,0
156.9331741333,51.518998061413,0
156.93652153015,51.519398624032,0
156.93798065186,51.519905998293,0
156.93943977356,51.519852590743,0
156.94111347198,51.519825886944,0
156.94240093231,51.519799183129,0
156.94351673126,51.519452032116,0
156.94514751434,51.519745775453,0
156.94660663605,51.519558848094,0
156.94862365723,51.519558848094,0
156.95012569427,51.519532144123,0
156.95175647736,51.519345215887,0
156.95321559906,51.519425328082,0
156.95381641388,51.518891244119,0
156.95467472076,51.518223630358,0
156.95553302765,51.517823057404,0
156.95634841919,51.517155427985,0
156.95694923401,51.516514494536,0
156.95802211761,51.516407671418,0
156.9588804245,51.516407671418,0
156.95956707001,51.51624743627,0
156.96003913879,51.515820139789,0
156.96081161499,51.515125774456,0
156.96166992188,51.514832001321,0
156.96239948273,51.514671760631,0
156.96364402771,51.514671760631,0
156.96441650391,51.514377984568,0
156.9651889801,51.514030792233,0
156.9655752182,51.513576767494,0
156.96660518646,51.513389814815,0
156.9678068161,51.513416522388,0
156.96793556213,51.513042614948,0
156.96883678436,51.512962491526,0
156.96973800659,51.513069322724,0
156.97016716003,51.512695412435,0
156.97093963623,51.512268082632,0
156.97141170502,51.511867457301,0
156.97175502777,51.511707206183,0
156.97209835052,51.511253158284,0
156.97205543518,51.510825814952,0
156.97257041931,51.510879233088,0
156.97329998016,51.51106619607,0
156.97398662567,51.511653789018,0
156.97510242462,51.511653789018,0
156.97578907013,51.511760623285,0
156.97681903839,51.511520245831,0
156.97776317596,51.510986069172,0
156.97823524475,51.51037175827,0
156.97900772095,51.510077954476,0
156.97995185852,51.50965060012,0
156.98081016541,51.509463631328,0
156.98141098022,51.509330081722,0
156.98218345642,51.509356791675,0
156.98312759399,51.509196531724,0
156.98415756226,51.509169821678,0
156.98523044586,51.508715748491,0
156.98553085327,51.508208249573,0
156.98493003845,51.507353501776,0
156.98600292206,51.507113101069,0
156.98754787445,51.50663229585,0
156.98784828186,51.506044638137,0
156.98900699615,51.505724094371,0
156.99029445648,51.505163137356,0
156.99136734009,51.504548747939,0
156.99196815491,51.503987776454,0
156.99282646179,51.503373371189,0
156.99364185333,51.502839099008,0
156.99445724487,51.502064393219,0
156.99522972107,51.501717107038,0
156.99621677399,51.501690392607,0
156.99668884277,51.501182815439,0
156.99716091156,51.50035465108,0
156.99789047241,51.499633334377,0
156.99810504913,51.498831857985,0
156.99879169464,51.498270816123,0
156.99939250946,51.49754946644,0
156.99995040894,51.497309014008,0
157.00055122375,51.49677467073,0
157.00076580048,51.496080015103,0
157.00115203857,51.495198321562,0
157.00188159943,51.494557079184,0
157.00235366821,51.493621917879,0
157.00299739838,51.492847055407,0
157.00299739838,51.492446259305,0
157.00394153595,51.491804978213,0
157.00492858887,51.491243849857,0
157.00591564178,51.490736156346,0
157.00677394867,51.490522388966,0
157.00797557831,51.490094851198,0
157.00900554657,51.489587144892,0
157.00999259949,51.489293207077,0
157.01085090637,51.488678603706,0
157.0117521286,51.488438104479,0
157.0125246048,51.488357937788,0
157.01325416565,51.488010547166,0
157.01394081116,51.487449372107,0
157.0147562027,51.487128697545,0
157.0158290863,51.486888190142,0
157.01690196991,51.486781297556,0
157.01763153076,51.486433894921,0
157.01879024506,51.486220107369,0
157.02012062073,51.48608648964,0
157.02080726624,51.48584597674,0
157.02170848846,51.485658910275,0
157.02273845673,51.48541839512,0
157.0236825943,51.485070982101,0
157.02436923981,51.484857188158,0
157.02578544617,51.484509770864,0
157.02672958374,51.484376148123,0
157.02818870544,51.484215800316,0
157.02934741974,51.484082176714,0
157.03054904938,51.48376147847,0
157.03162193298,51.483734753514,0
157.03286647797,51.483734753514,0
157.0337677002,51.483574403453,0
157.0344543457,51.483414052827,0
157.03525900841,51.483380646376,0
157.03561306,51.483320514702,0
157.0358812809,51.483200251116,0
157.03621387482,51.483173525832,0
157.03648209572,51.48308666855,0
157.03677177429,51.483066624538,0
157.03710436821,51.482966404347,0
157.03740477562,51.482839458456,0
157.03764081001,51.482786007449,0
157.03764081001,51.482538795725,0
157.0376086235,51.482371760018,0
157.03741550446,51.482071094204,0
157.03736186028,51.481837241644,0
157.03716874123,51.481663521824,0
157.03725457191,51.481409622435,0
157.03735113144,51.481182448099,0
157.0376086235,51.481022089063,0
157.03802704811,51.481102268651,0
157.03834891319,51.481122313526,0</coordinates></LineString></Placemark></Document></kml>
