<?xml version="1.0" encoding="UTF-8"?><kml xmlns="http://www.opengis.net/kml/2.2"><Document>
								 <name>Маршрут Малкинские термальные источники. Маршрут загрузил(а) Roman Pozdny</name>
								 <description>Скачено с сайта https://idilesom.com</description> <Placemark><LineString><tessellate>1</tessellate> <coordinates>
								157.48489379883,53.329386489927,0
								157.48626708984,53.329181452332,0
								157.48712539673,53.32902767349,0
								157.48824119568,53.328873894093,0
								157.48897075653,53.328797004186,0
								157.48989343643,53.328579148699,0
								157.49048620462,53.328479831048,0
								157.49107897282,53.328380513398,0
								157.49167174101,53.328281195747,0
								157.4922645092,53.328181878097,0
								157.49285727739,53.328082560446,0
								157.49345004559,53.327983242796,0
								157.49404281378,53.327883925145,0
								157.49463558197,53.327784607495,0
								157.4950003624,53.327682084971,0
								157.49551534653,53.327605192917,0
								157.49596595764,53.327541116099,0
								157.49667406082,53.32743859299,0
								157.49708175659,53.327336069635,0
								157.49761819839,53.327271992413,0
								157.49819755554,53.327143837681,0
								157.49875545502,53.327054129139,0
								157.49916315079,53.32695160486,0
								157.49963521957,53.326861895914,0
								157.50019311905,53.326785002381,0
								157.50072956085,53.326618399252,0
								157.50115871429,53.326554320952,0
								157.5016951561,53.32643897977,0
								157.50225305557,53.32640053264,0
								157.50266075134,53.326246743773,0
								157.50326156616,53.326169849132,0
								157.50388383865,53.32605450691,0
								157.50437736511,53.325964796078,0
								157.50482797623,53.325900716797,0
								157.50534296036,53.325746926128,0
								157.50575065613,53.325644398708,0
								157.50626564026,53.325605950862,0
								157.50667333603,53.325580318946,0
								157.50725269318,53.325439343129,0
								157.50789642334,53.325298366846,0
								157.50847578049,53.325170206186,0
								157.50905513763,53.325106125711,0
								157.50959157944,53.324965148327,0
								157.51010656357,53.324875435204,0
								157.51055717468,53.324811354287,0
								157.51096487045,53.324696008393,0
								157.51152276993,53.324606294704,0
								157.5120806694,53.324478131964,0
								157.51257419586,53.32445249937,0
								157.51293897629,53.32434996884,0
								157.51345396042,53.324337152506,0
								157.51401185989,53.32427307078,0
								157.51446247101,53.324234621698,0
								157.51497745514,53.32422180533,0
								157.5156211853,53.324144907039,0
								157.51613616943,53.324106457842,0
								157.51665115356,53.324055192192,0
								157.5171661377,53.32404237577,0
								157.51765966415,53.324029559344,0
								157.51828193665,53.323991110043,0
								157.51866817474,53.323939844254,0
								157.51909732819,53.323952660707,0
								157.5195479393,53.323927027797,0
								157.5199341774,53.323965477156,0
								157.52053499222,53.323952660707,0
								157.52098560333,53.323978293601,0
								157.52147912979,53.32406800861,0
								157.52203702927,53.324055192192,0
								157.52242326736,53.32404237577,0
								157.52298116684,53.324055192192,0
								157.52349615097,53.324132090644,0
								157.52403259277,53.324144907039,0
								157.52463340759,53.324170539818,0
								157.52506256104,53.324170539818,0
								157.52564191818,53.324260254423,0
								157.52630710602,53.324285887133,0
								157.52695083618,53.324285887133,0
								157.52750873566,53.324324336169,0
								157.52804517746,53.324362785169,0
								157.52851724625,53.324388417817,0
								157.52907514572,53.32445249937,0
								157.52943992615,53.324478131964,0
								157.53012657166,53.324490948256,0
								157.5307059288,53.324542213382,0
								157.53128528595,53.324542213382,0
								157.53188610077,53.324619110957,0
								157.53252983093,53.324657559692,0
								157.53304481506,53.324683192163,0
								157.53364562988,53.324708824619,0
								157.53401041031,53.324696008393,0
								157.5346326828,53.324760089484,0
								157.53512620926,53.324785721893,0
								157.53566265106,53.32477290569,0
								157.53615617752,53.324811354287,0
								157.5364780426,53.324811354287,0
								157.53669261932,53.324708824619,0
								157.53703594208,53.324555029654,0
								157.53722906113,53.32445249937,0
								157.53746509552,53.324298703482,0
								157.53780841827,53.324106457842,0
								157.53780841827,53.323965477156,0
								157.53776550293,53.323786046518,0
								157.53774404526,53.323580982007,0
								157.53785133362,53.323414366367,0
								157.53798007965,53.323132399955,0
								157.53808736801,53.322927332304,0
								157.53823757172,53.322670996353,0
								157.53843069077,53.322440292681,0
								157.53864526749,53.322119868846,0
								157.53890275955,53.322183953805,0
								157.53913879395,53.32236339118,0
								157.53931045532,53.322465926484,0
								157.53950357437,53.322632545828,0
								157.5396323204,53.322735080485,0</coordinates></LineString></Placemark></Document></kml>