<?xml version="1.0" encoding="UTF-8"?><kml xmlns="http://www.opengis.net/kml/2.2"><Document>
								 <name>Маршрут Нижне-Щапинские (Кипелые) термальные источники. Маршрут загрузил(а) Roman Pozdny</name>
								 <description>Скачено с сайта https://idilesom.com</description> <Placemark><LineString><tessellate>1</tessellate> <coordinates>
								159.426126,55.510239,0
								159.468741,55.510385,0
								159.507709,55.51053,0
								159.531956,55.508319,0
								159.530797,55.49145,0
								159.531612,55.474086,0
								159.527149,55.46022,0
								159.533715,55.45152,0
								159.534831,55.44154,0
								159.531226,55.432715,0
								159.527106,55.422243,0
								159.53938,55.412597,0
								159.543371,55.400926,0
								159.536333,55.391056,0
								159.538393,55.379135,0
								159.522386,55.375794,0
								159.506121,55.37171,0
								159.492517,55.363222,0
								159.481273,55.356294,0
								159.470866,55.349329,0
								159.463356,55.344558,0
								159.471166,55.343753,0
								159.478762,55.339201,0
								159.489856,55.333209,0
								159.501336,55.326898,0
								159.512343,55.320929,0
								159.522107,55.315898,0
								159.533136,55.309658,0
								159.543092,55.304113,0
								159.553607,55.298348,0
								159.562941,55.292667,0
								159.574978,55.286545,0
								159.586351,55.280313,0
								159.596179,55.275045,0
								159.604247,55.269642,0
								159.616821,55.26271,0
								159.629889,55.255251,0
								159.641562,55.248732,0
								159.651968,55.242702,0
								159.660873,55.237466,0
								159.670959,55.232094,0
								159.681001,55.226624,0
								159.690056,55.221325,0
								159.699304,55.216233,0
								159.70896,55.211716,0
								159.716921,55.210993,0
								159.726791,55.208496,0
								159.737091,55.206647,0
								159.745846,55.202888,0
								159.753463,55.198663,0
								159.762497,55.193299,0
								159.770865,55.187872,0
								159.778247,55.186341,0
								159.785113,55.184038,0
								159.793439,55.18013,0
								159.799726,55.174089,0
								159.807193,55.167324,0
								159.819639,55.163488,0
								159.830012,55.156821,0
								159.844089,55.153645,0
								159.850869,55.145083,0
								159.857392,55.141071,0
								159.863207,55.140727,0
								159.870267,55.137766,0
								159.873872,55.136243,0
								159.879494,55.135127,0
								159.881382,55.132531,0
								159.893162,55.132552,0
								159.902432,55.134612,0
								159.909363,55.135213,0
								159.91668,55.134848,0
								159.92389,55.131908,0
								159.933546,55.129848,0
								159.941936,55.122467,0
								159.949725,55.122553,0
								159.953308,55.120536,0
								159.957857,55.116781,0
								159.961526,55.114721,0
								159.964187,55.115665,0
								159.975259,55.115643,0
								159.983692,55.114807,0
								159.99043,55.114699,0
								159.996116,55.117939,0
								160.006416,55.119334,0
								160.016136,55.11972,0
								160.027037,55.118304,0
								160.037508,55.116588,0
								160.049567,55.116459,0
								160.05594,55.116673,0
								160.063257,55.115987,0
								160.068171,55.117746,0
								160.073922,55.119699,0
								160.079629,55.122918,0
								160.084608,55.124849,0
								160.093341,55.127724,0
								160.098641,55.129763,0
								160.098898,55.131994,0
								160.096924,55.134827,0
								160.094521,55.136114,0</coordinates></LineString></Placemark></Document></kml>