<?xml version="1.0" encoding="UTF-8"?><kml xmlns="http://www.opengis.net/kml/2.2"><Document>
								 <name>Маршрут Озеро Толмачево. Маршрут загрузил(а) Roman Pozdny</name>
								 <description>Скачено с сайта https://idilesom.com</description> <Placemark><LineString><tessellate>1</tessellate> <coordinates>
								157.1245765686,52.924376602908,0
								157.12498426437,52.924221368749,0
								157.12554216385,52.924014389005,0
								157.12605714798,52.923897962463,0
								157.12667942047,52.923846217233,0
								157.12766647339,52.923846217233,0
								157.12878227234,52.924014389005,0
								157.12985515594,52.924156687685,0
								157.13084220886,52.924337794421,0
								157.13200092316,52.924402475214,0
								157.13330984116,52.924570644825,0
								157.13449001312,52.924751749829,0
								157.13526248932,52.924894046086,0
								157.13631391525,52.924945790063,0
								157.13718295097,52.925049277709,0
								157.13805198669,52.925152765355,0
								157.13886737823,52.92525625263,0
								157.13976860046,52.92528212441,0
								157.1409702301,52.925514969735,0
								157.14191436768,52.925489098094,0
								157.14275121689,52.925269188522,0
								157.14352369308,52.925204509024,0
								157.14414596558,52.925191573112,0
								157.14459657669,52.925398547229,0
								157.14502573013,52.925618456144,0
								157.1456694603,52.925799556765,0
								157.14633464813,52.925890106791,0
								157.14725732803,52.925812492495,0
								157.14807271957,52.925683135024,0
								157.14863061905,52.925307996175,0
								157.14911341667,52.925016936953,0
								157.14959621429,52.924725877732,0
								157.15002536774,52.924286049717,0
								157.1506729981,52.923873265723,0
								157.15135964361,52.923226445534,0
								157.15189608542,52.922631362426,0
								157.15277584997,52.921984523684,0
								157.15348395315,52.921492919778,0
								157.15419205633,52.920936624415,0
								157.1549859902,52.920496757905,0
								157.1557584664,52.919953387224,0
								157.15646656958,52.919759324614,0
								157.15728196112,52.919552323538,0
								157.15848359076,52.919267695443,0
								157.15936335531,52.918814874163,0
								157.15979250876,52.918206792423,0
								157.16011437384,52.917288184667,0
								157.1605181694,52.916743597663,0
								157.16101169586,52.916290749988,0
								157.16223478317,52.916135486838,0
								157.16386556625,52.915876713685,0
								157.16548074459,52.915700129668,0
								157.16682672501,52.915488551055,0
								157.16804981232,52.915333285029,0
								157.16914415359,52.91519095735,0
								157.17041015625,52.914958056502,0
								157.17210531235,52.914789849555,0
								157.17356443405,52.914569885638,0
								157.17508792877,52.914298163964,0
								157.17631101608,52.91410407601,0
								157.17792034149,52.91394880502,0
								157.17907905579,52.913741776168,0
								157.18088150024,52.913547685721,0
								157.18204021454,52.913340654951,0
								157.18310236931,52.91321772979,0
								157.18416452408,52.913094804628,0
								157.18528422323,52.912834836942,0
								157.18672188726,52.912653682091,0
								157.18837412802,52.912446647049,0
								157.18968304602,52.912187851854,0
								157.19120654074,52.911941994986,0
								157.19245108572,52.911683196776,0
								157.19384583572,52.911548944845,0
								157.1952405831,52.911294996561,0
								157.19710350037,52.911046635148,0
								157.19828757254,52.910945613393,0
								157.19993981329,52.910777390863,0
								157.20127018896,52.910777390863,0
								157.20221432653,52.91068680923,0
								157.20371636358,52.91068680923,0
								157.20564755407,52.91068680923,0
								157.2073212525,52.91068680923,0
								157.20905932394,52.910712689715,0
								157.21064719168,52.91079033108,0
								157.21236380545,52.910738570186,0
								157.21397313086,52.910777390863,0
								157.21581849066,52.910880912497,0
								157.21661242453,52.910777390863,0
								157.21853971481,52.910429179949,0
								157.22029924393,52.910286836153,0
								157.22263813019,52.909989206705,0
								157.22429037094,52.909730396827,0
								157.22592115402,52.909523347811,0
								157.22761631012,52.909342179111,0
								157.22929000854,52.909070424639,0
								157.23089933395,52.908850431675,0
								157.23227262497,52.908708082691,0
								157.23315238953,52.908501028789,0
								157.23437547684,52.908332796765,0
								157.23585605621,52.908125741069,0
								157.23746538162,52.907905743308,0
								157.23905324936,52.907698685571,0
								157.24068403244,52.907465744433,0
								157.24199295044,52.907271625862,0
								157.24321603775,52.907090447744,0
								157.24396705627,52.906961034339,0
								157.24538716218,52.9068210322,0
								157.24744709871,52.906419846891,0
								157.24946411989,52.906212782052,0
								157.25139920993,52.90593056645,0
								157.25242917819,52.905775266159,0
								157.25375955386,52.905594081783,0
								157.25500409884,52.905335245646,0
								157.25599115176,52.904325769935,0
								157.25706403537,52.903575118902,0
								157.25809400363,52.902927995504,0
								157.25929563327,52.902177320254,0
								157.26058309359,52.901193657136,0
								157.26229970736,52.900158198151,0
								157.26375882907,52.89930392586,0
								157.26538961215,52.898812064478,0
								157.26710622592,52.898346085386,0
								157.26933002472,52.89784950605,0
								157.27237701416,52.897202297138,0
								157.27499485016,52.896658634183,0
								157.27679729462,52.896244410211,0
								157.27847099304,52.895674845785,0
								157.28156089783,52.894768705134,0
								157.28336334229,52.894380353342,0
								157.28583097458,52.894432133751,0
								157.28829860687,52.89448391416,0
								157.29216098785,52.894639254924,0
								157.29503631592,52.894768705134,0
								157.29821205139,52.894872265025,0
								157.30095863342,52.894768705134,0
								157.30293273926,52.894458023979,0
								157.30395490449,52.893963460419,0
								157.30536330782,52.892810141242,0
								157.30616114321,52.89218301151,0
								157.30725548448,52.891341528029,0
								157.30757734957,52.891108498946,0
								157.30710528078,52.890681275707,0
								157.30613968553,52.889878602477,0
								157.30549595537,52.88910180778,0
								157.30465910616,52.88818258274,0
								157.30427286806,52.887638806639,0
								157.30427286806,52.887146812861,0
								157.30425141039,52.886680708342,0
								157.30432748795,52.885952115231,0
								157.30445623398,52.884955135877,0
								157.30456352234,52.883971081826,0
								157.30497121811,52.883517891527,0
								157.30561494827,52.883025850983,0
								157.30604410172,52.882326625868,0
								157.30660200119,52.881238919942,0
								157.30703115463,52.880487868974,0
								157.30737447739,52.879659107982,0
								157.30780363083,52.87880443162,0
								157.30814695358,52.878195788184,0
								157.30857220551,52.87732695548,0
								157.30925885102,52.876109618593,0
								157.30968800446,52.875112412918,0
								157.3103531923,52.873907965103,0
								157.31095400712,52.87276824175,0
								157.31146899125,52.871706199852,0
								157.31202689072,52.870449848423,0
								157.3125847902,52.86936184459,0
								157.31305685898,52.868610587922,0
								157.31352502626,52.867527248532,0
								157.31406146806,52.866490985214,0
								157.31453353685,52.865480604648,0
								157.31494123262,52.864625648866,0
								157.3154133014,52.863718859174,0
								157.31590682786,52.862695459472,0
								157.31646472734,52.861594306254,0
								157.31693679612,52.860791094517,0
								157.31762344163,52.85959920454,0
								157.31825351715,52.858079850344,0
								157.31902599335,52.856486238333,0
								157.31973409653,52.855359014017,0
								157.32016324997,52.854141060587,0
								157.32076406479,52.853221094383,0
								157.32125759125,52.852158573939,0
								157.32164382935,52.851238565716,0
								157.32218027115,52.850525869887,0
								157.32265233994,52.84933369798,0
								157.32306003571,52.848478424053,0
								157.32359647751,52.84738986923,0
								157.32409000397,52.846301287113,0
								157.3247551918,52.845018280292,0
								157.32529163361,52.844253642035,0
								157.32595682144,52.842840969837,0
								157.32649326324,52.841765234495,0
								157.32694387436,52.840987577894,0
								157.32733011246,52.839963642129,0
								157.32786655426,52.839058694426,0
								157.32838153839,52.838008789291,0
								157.32885360718,52.836997745543,0
								157.329454422,52.83592186545,0
								157.32977628708,52.835312620325,0
								157.33020544052,52.834301513812,0
								157.33063459396,52.833588539941,0
								157.33089208603,52.832836663908,0
								157.33155727386,52.831760680741,0
								157.33200788498,52.831164341242,0
								157.3322536725,52.830560922333,0
								157.33268282595,52.829783065096,0
								157.33294031801,52.829018158565,0
								157.33351967516,52.828123589774,0
								157.3337986249,52.827358654024,0
								157.33435652437,52.826321431496,0
								157.33491442385,52.825323081427,0
								157.33512900057,52.824182081829,0
								157.33549378099,52.823274447117,0
								157.33555815401,52.822509425993,0
								157.33585856142,52.821096046456,0
								157.33624479952,52.82064219924,0
								157.33647108078,52.819233473637,0
								157.33698606491,52.817781083614,0
								157.33715772629,52.816691759245,0
								157.33747959137,52.815278190494,0
								157.33785022407,52.813692292304,0
								157.33812332153,52.812850464605,0
								157.33810186386,52.812736244789,0
								157.33840227127,52.811322547398,0
								157.33870267868,52.810025536876,0
								157.33902454376,52.808728487659,0
								157.33928203583,52.807781617295,0
								157.3394536972,52.807016323439,0
								157.33977556229,52.80601752984,0
								157.33979701996,52.805226261479,0
								157.3400759697,52.804422006751,0
								157.34033346176,52.803358292166,0
								157.34057339767,52.802432533334,0
								157.34074505905,52.801381742961,0
								157.34102400878,52.800227141547,0
								157.34115275482,52.799409820893,0
								157.34143170455,52.798397878802,0
								157.34175356964,52.797411861296,0
								157.34188231567,52.796373923982,0
								157.34214175849,52.795383142982,0
								157.3424421659,52.794319207295,0
								157.34267820029,52.793255245586,0
								157.3429786077,52.792204233469,0
								157.34319318442,52.791308906823,0
								157.3433648458,52.790504394698,0
								157.34349359183,52.789622009455,0
								157.34383691459,52.78871365301,0
								157.34400857596,52.78799993107,0
								157.3441529274,52.787036091846,0
								157.34458208084,52.785958974529,0
								157.34481811523,52.78479098586,0
								157.34516143799,52.783674878505,0
								157.34529018402,52.782636613405,0
								157.34559059143,52.781520450794,0
								157.34578371048,52.780611925209,0
								157.34594756883,52.779566507546,0
								157.34624797624,52.778476225619,0
								157.34648401063,52.777372936343,0
								157.3468917064,52.776464324175,0
								157.34706336778,52.775231177323,0
								157.34732085984,52.773738373865,0
								157.34777147096,52.772699871702,0
								157.3478143863,52.771998868735,0
								157.34796459001,52.771323818173,0
								157.34824743995,52.770289979632,0
								157.34841910133,52.769199465332,0
								157.34884825477,52.767914181269,0
								157.34914866218,52.766550959741,0
								157.34942761192,52.765343499316,0
								157.34972801933,52.764343748681,0
								157.34987822303,52.7635647063,0
								157.35009670258,52.762645181664,0
								157.35035419464,52.761749246779,0
								157.35065460205,52.760554638261,0
								157.35093355179,52.759736572221,0
								157.35114812851,52.758710721662,0
								157.3513841629,52.75767186103,0
								157.35151290894,52.756555058214,0
								157.35185623169,52.755503159609,0
								157.35207080841,52.754568117302,0
								157.35232830048,52.753827861241,0
								157.35246680095,52.752781800507,0
								157.35265992,52.751716823098,0
								157.35296032741,52.75056090352,0
								157.35323927714,52.749534836853,0
								157.35345385387,52.748703575253,0
								157.35360405757,52.747924253099,0
								157.35368988826,52.747002037211,0
								157.35381863429,52.746495459614,0
								157.35344409943,52.745717278666,0
								157.35295057297,52.744678108146,0
								157.3522190607,52.743480669497,0
								157.35185428028,52.742285559925,0
								157.3512963808,52.741376215469,0
								157.35069556598,52.740518816176,0
								157.35033078556,52.739635417443,0
								157.34974362669,52.738420124402,0
								157.34909989653,52.737224876056,0
								157.34847762404,52.73608156436,0
								157.3478124362,52.735016178743,0
								157.34744765577,52.734080696733,0
								157.34699704466,52.733496010282,0
								157.34648206053,52.732521515438,0
								157.34590270338,52.731611967264,0
								157.34573104201,52.731053235405,0
								157.34531749331,52.730306673237,0
								157.34499562823,52.729656964901,0
								157.34510291659,52.729085213556,0
								157.3455535277,52.728487465498,0
								157.34617580019,52.727824735245,0
								157.34679807269,52.727045039699,0
								157.34729159914,52.726382287522,0
								157.34750617587,52.725706529834,0
								157.34753153505,52.725064875274,0
								157.34747886527,52.725193798023,0
								157.34726428855,52.724310088701,0
								157.34694242346,52.723673287058,0
								157.34649181235,52.723049472352,0
								157.34563350547,52.721866799143,0
								157.34496831763,52.721151981104,0
								157.34447479117,52.720554124293,0
								157.3439168917,52.719800293154,0
								157.34353845663,52.718983825452,0
								157.34289472646,52.718112987997,0
								157.34222953863,52.717268129074,0
								157.34184330053,52.716540237495,0
								157.34145706243,52.715786336984,0
								157.34081333227,52.715136412293,0
								157.34012668676,52.714109511545,0
								157.33930544229,52.713431349048,0
								157.33793215128,52.712105420831,0
								157.33649253845,52.710507633664,0
								157.33533382416,52.709103614331,0
								157.33438968658,52.70736152754,0
								157.33378887177,52.706321442567,0
								157.33473300934,52.705255329742,0
								157.33567714691,52.704085175929,0
								157.33700752258,52.702784968225,0
								157.33782291412,52.70119866237,0
								157.33863830566,52.70015843051,0
								157.33896602236,52.699018876274,0
								157.33973849856,52.697926577621,0
								157.34068263613,52.69706832379,0
								157.34141219698,52.696132027638,0
								157.34244216525,52.694935619997,0
								157.34312881075,52.69381720929,0
								157.34445918642,52.692698769931,0
								157.34506000124,52.691424234338,0
								157.34617580019,52.690513828992,0
								157.3472486838,52.689161191711,0
								157.34806407534,52.688380804988,0
								157.34913695895,52.687392295116,0
								157.34965194308,52.686793975639,0
								157.35055316531,52.685675356365,0
								157.35142707825,52.684630023568,0
								157.35280036926,52.683329236315,0
								157.35404491425,52.681976376473,0
								157.35537528992,52.680545421422,0
								157.35683441162,52.678854232284,0
								157.35816478729,52.677371135615,0
								157.35898017883,52.676122173047,0
								157.36022472382,52.674977259325,0
								157.36104011536,52.6738062938,0
								157.36211299896,52.672583251854,0
								157.36288547516,52.671490291785,0
								157.3635984549,52.670717573862,0
								157.3644431078,52.66967306701,0
								157.36521655839,52.66882727016,0
								157.36586809158,52.668015910697,0
								157.36659765244,52.667065978618,0
								157.36728429794,52.666155065449,0
								157.36809968948,52.665426321244,0
								157.36857175827,52.664697564886,0
								157.36904382706,52.664111948292,0
								157.36934423447,52.663786602349,0
								157.37013816833,52.663448239999,0
								157.37080335617,52.663292071877,0
								157.37246925026,52.662853141729,0
								157.37437898308,52.662397643612,0
								157.37633163124,52.661968169611,0
								157.37781221062,52.66159074958,0
								157.37922841698,52.661200311637,0
								157.38038713127,52.660796855431,0
								157.38186771065,52.660471484811,0
								157.38360578209,52.660094051856,0
								157.38504344612,52.659768676004,0
								157.38731795936,52.659026810005,0
								157.38950664192,52.658519210225,0
								157.39118034035,52.658089696004,0
								157.39285403877,52.657660181784,0
								157.39498615265,52.65704488942,0
								157.39662766457,52.656621868787,0
								157.39826917648,52.656198848154,0
								157.39953517914,52.655938524471,0
								157.40129470825,52.655404856073,0
								157.40314006805,52.655014362875,0
								157.40429878235,52.654636882801,0
								157.405564785,52.654337499735,0
								157.40708827972,52.653986047433,0
								157.40833282471,52.653699676802,0
								157.4093413353,52.653413304295,0
								157.41120815277,52.652931673576,0
								157.41247415543,52.652593227194,0
								157.41389036179,52.652319864742,0
								157.41464138031,52.652033483198,0
								157.41635799408,52.651668994883,0
								157.41883537819,52.650969742872,0
								157.42226860573,52.650058494219,0
								157.42411396554,52.649537772176,0
								157.42630264809,52.649095153564,0
								157.42831966927,52.648756677485,0
								157.43151686242,52.648795732534,0
								157.43471405556,52.648834787582,0
								157.43801853707,52.648808750899,0
								157.44025013497,52.6487827142,0
								157.44085094979,52.648261976965,0
								157.4411513572,52.647350671882,0
								157.44136593392,52.646413309698,0
								157.44170925667,52.645658197772,0
								157.44291088631,52.644564564281,0
								157.44428417733,52.643601102595,0
								157.44574329903,52.642767821318,0
								157.44763157418,52.642585538923,0
								157.44926235726,52.643444863565,0
								157.45012066414,52.643392783764,0
								157.45127937844,52.642793861599,0
								157.45240688324,52.642048156423,0
								157.45395183563,52.640876308487,0
								157.45536804199,52.639860681547,0
								157.45635509491,52.638480432779,0
								157.45764255524,52.637360576307,0
								157.45785713196,52.636917834445,0
								157.46038523444,52.63611313459,0
								157.46338930854,52.635071352196,0
								157.46656504401,52.634081635944,0
								157.47059908637,52.632935620734,0
								157.47351732978,52.632102136273,0
								157.47660723457,52.631841669123,0
								157.47952547797,52.630956069215,0
								157.48210039863,52.630330929076,0
								157.48347368964,52.631424918458,0
								157.48587694892,52.634446270852,0
								157.48716440925,52.637623674997,0
								157.4897393299,52.639134163248,0
								157.49368754157,52.640696682416,0
								157.49566164741,52.640957096851,0
								157.49772158393,52.639915429808,0
								157.49789324531,52.638092452794,0
								157.50046816596,52.637259066571,0
								157.50321474799,52.636790279843,0
								157.50587549934,52.636165223058,0
								157.50810709724,52.635435978856,0
								157.5099095417,52.634602542026,0
								157.51093950996,52.632779343607,0
								157.51102534065,52.631372824345,0
								157.51188364753,52.629445298591,0
								157.51454439887,52.627882377539,0
								157.51591768989,52.626163099909,0
								157.51737681159,52.624652163807,0
								157.520295055,52.623610108518,0
								157.52372828254,52.622568028418,0
								157.52595988044,52.621994873788,0
								157.53023580881,52.620483793788,0
								157.53358320566,52.619389530878,0
								157.53710226389,52.618191021067,0
								157.54002050729,52.616731921357,0
								157.54345373483,52.616106578023,0
								157.54808859201,52.615689677504,0
								157.55066351267,52.61563756466,0
								157.55315260263,52.614647408839,0
								157.55521253916,52.61329242248,0
								157.55752996774,52.612510680506,0
								157.55967573496,52.611781042071,0
								157.56147817941,52.6112077462,0
								157.56130651804,52.610217490198,0
								157.56173567148,52.609383573037,0
								157.56285147043,52.609227211801,0
								157.56559805246,52.609435693325,0
								157.5675721583,52.610373847897,0
								157.56877378793,52.608445397249,0
								157.56971792551,52.607194464932,0
								157.5712628779,52.605265874271,0
								157.57297949167,52.603232943529,0
								157.57512525888,52.60172121591,0
								157.57830099436,52.60213824943,0
								157.58053259226,52.603128688126,0
								157.58250669809,52.603910597594,0
								157.5854249415,52.603962724395,0
								157.58851484628,52.603806343805,0
								157.59005979868,52.604953121837,0
								157.59023146005,52.60703809588,0
								157.59126142832,52.608914487655,0
								157.59237722727,52.609122970667,0</coordinates></LineString></Placemark></Document></kml>