<?xml version="1.0" encoding="UTF-8"?><kml xmlns="http://www.opengis.net/kml/2.2"><Document>
<name>Озеро Икар</name>
<description>Маршрут «Озеро Икар», скачено с https://idilesom.com (Pro-выгрузка владельца платформы, GPX от 20.08). По пути: обзорная площадка (55.87468, 158.67529), навес со столом (55.88831, 158.68749).</description> <Placemark><LineString><tessellate>1</tessellate> <coordinates>
158.716980005,55.92318004,0
158.716613967,55.922206985,0
158.716019019,55.921313977,0
158.715485008,55.920616016,0
158.71434004,55.919971028,0
158.713195994,55.919163013,0
158.711975003,55.918353992,0
158.710875968,55.917484034,0
158.709914982,55.916405031,0
158.710097959,55.915428037,0
158.71022,55.914370995,0
158.710692991,55.913417973,0
158.711410984,55.912388004,0
158.711273018,55.911358036,0
158.71077002,55.91031298,0
158.710251013,55.909313019,0
158.709136974,55.908363014,0
158.708144976,55.907504959,0
158.707489008,55.90644096,0
158.706405982,55.905696983,0
158.70504803,55.904972032,0
158.704971001,55.904942024,0
158.70498701,55.904918974,0
158.704955997,55.904891985,0
158.704955997,55.904891985,0
158.704955997,55.904887961,0
158.70492599,55.904876981,0
158.705002014,55.904900031,0
158.704742007,55.904864995,0
158.703308031,55.904071983,0
158.702316033,55.902934978,0
158.701035026,55.901852036,0
158.700211002,55.900660967,0
158.699219003,55.899609039,0
158.697936991,55.898951981,0
158.696868969,55.898514027,0
158.695083959,55.897941962,0
158.693741011,55.897338968,0
158.693069033,55.896014962,0
158.692855965,55.894999998,0
158.692245008,55.893871039,0
158.692291025,55.892776027,0
158.691207999,55.891811019,0
158.690124974,55.89072003,0
158.689072039,55.889725015,0
158.688201997,55.888713989,0
158.68754603,55.888381982,0
158.687515017,55.888366979,0
158.687515017,55.888366979,0
158.687515017,55.888366979,0
158.687515017,55.888363039,0
158.687515017,55.888363039,0
158.687515017,55.888348036,0
158.687453996,55.888366979,0
158.687453996,55.888366979,0
158.687469,55.888363039,0
158.687591963,55.888366979,0
158.687591963,55.888199005,0
158.688583039,55.887310021,0
158.689422989,55.886413995,0
158.689132975,55.885559041,0
158.688812032,55.884533012,0
158.688918985,55.883494997,0
158.68983496,55.882580029,0
158.690247014,55.881610997,0
158.69133004,55.880675996,0
158.692351962,55.87980696,0
158.693847964,55.879088966,0
158.692032024,55.878573982,0
158.690169984,55.878078025,0
158.688842962,55.877131959,0
158.687118972,55.876384964,0
158.684814032,55.876122024,0
158.682647981,55.875702007,0
158.680328038,55.87583201,0
158.67829903,55.875908034,0
158.677017018,55.875480976,0
158.676971002,55.875480976,0
158.675933992,55.875114016,0
158.675522022,55.874705985,0
158.675507018,55.874690982,0
158.675507018,55.874690982,0
158.675507018,55.874690982,0
158.675507018,55.874690982,0
158.675507018,55.874686958,0
158.675399981,55.874705985,0
158.675491009,55.874683019,0
158.675476005,55.874633985,0
158.675368968,55.87369496,0
158.674621973,55.872745961,0
158.673614971,55.871666037,0
158.67286697,55.870776968,0
158.671463002,55.870593991,0
158.669845965,55.870972015,0
158.669815036,55.870827008,0
158.669800032,55.870833965,0
158.669800032,55.870827008,0
158.669800032,55.870827008,0
158.669800032,55.870831031,0
</coordinates></LineString></Placemark>
</Document></kml>
