<?xml version="1.0" encoding="UTF-8"?><kml xmlns="http://www.opengis.net/kml/2.2"><Document>
								 <name>Маршрут Озеро Большой Кар. Маршрут загрузил(а) Roman Pozdny</name>
								 <description>Скачено с сайта https://idilesom.com</description> <Placemark><LineString><tessellate>1</tessellate> <coordinates>
								157.8741,53.08913,0
								157.87441,53.08908,0
								157.8746,53.08899,0
								157.87488,53.08903,0
								157.87508,53.08902,0
								157.8754,53.08888,0
								157.87557,53.08863,0
								157.87641,53.0881,0
								157.87735,53.08775,0
								157.87784,53.0878,0
								157.87886,53.08821,0
								157.87985,53.08832,0
								157.88083,53.08836,0
								157.8813,53.08834,0
								157.88213,53.0881,0
								157.88258,53.0879,0
								157.88289,53.08772,0
								157.883,53.08771,0
								157.88348,53.08779,0
								157.88359,53.08778,0
								157.88363,53.08772,0
								157.8837,53.08771,0
								157.88426,53.08803,0
								157.88486,53.08816,0
								157.88562,53.08849,0
								157.8868,53.08888,0
								157.88733,53.08893,0
								157.88795,53.08889,0
								157.88848,53.08877,0
								157.8891,53.08838,0
								157.88959,53.08819,0
								157.89052,53.08811,0
								157.89163,53.08788,0
								157.89214,53.08769,0
								157.89258,53.0874,0
								157.89291,53.08724,0
								157.89301,53.08716,0
								157.89311,53.087,0
								157.89325,53.08693,0
								157.89387,53.08684,0
								157.89435,53.08684,0
								157.89483,53.08695,0
								157.8951,53.0868,0
								157.89605,53.08665,0
								157.89619,53.08658,0
								157.89648,53.08632,0
								157.89694,53.08612,0
								157.89701,53.086,0
								157.89729,53.08584,0
								157.89776,53.08564,0
								157.8978,53.0854,0
								157.89808,53.08519,0
								157.8988,53.085,0
								157.89909,53.08452,0
								157.89916,53.08447,0
								157.89967,53.08436,0
								157.8998,53.08436,0
								157.89996,53.08417,0
								157.90012,53.08414,0
								157.90027,53.08403,0
								157.90129,53.08385,0
								157.90166,53.08367,0
								157.90176,53.08358,0
								157.9018,53.08336,0
								157.90219,53.08297,0
								157.90233,53.08287,0
								157.90397,53.08206,0
								157.90407,53.08188,0
								157.90423,53.08184,0
								157.90441,53.08174,0
								157.90515,53.08167,0
								157.90557,53.08144,0
								157.90597,53.08139,0
								157.90612,53.08132,0
								157.90638,53.08106,0
								157.90705,53.08082,0
								157.90767,53.08052,0
								157.90788,53.08045,0
								157.90856,53.08038,0
								157.90876,53.08033,0
								157.90906,53.08022,0
								157.90921,53.08011,0
								157.9096,53.08004,0
								157.90979,53.07985,0
								157.91106,53.07962,0
								157.91132,53.07945,0
								157.91171,53.07937,0
								157.91207,53.07936,0
								157.91263,53.0795,0
								157.91276,53.07949,0
								157.91335,53.07932,0
								157.91554,53.07896,0
								157.9157,53.07897,0
								157.91583,53.07892,0
								157.91606,53.07894,0
								157.91618,53.079,0
								157.9161,53.07916,0
								157.91617,53.0792,0
								157.91752,53.07918,0
								157.91781,53.0791,0
								157.91881,53.07896,0
								157.91934,53.07893,0
								157.92038,53.07867,0
								157.92071,53.07864,0
								157.92164,53.07841,0
								157.92256,53.0781,0
								157.92261,53.07791,0
								157.92244,53.07775,0
								157.9228,53.07766,0
								157.92288,53.0776,0
								157.92378,53.07741,0
								157.92455,53.07697,0
								157.92523,53.07689,0
								157.92638,53.07634,0
								157.92665,53.07617,0
								157.92721,53.076,0
								157.92745,53.07589,0
								157.92797,53.07559,0
								157.9284,53.07539,0
								157.92985,53.07508,0
								157.93002,53.07501,0
								157.93075,53.07483,0
								157.9311,53.07486,0
								157.93224,53.07441,0
								157.93323,53.07374,0
								157.93321,53.07362,0
								157.93328,53.07349,0
								157.9339,53.07327,0
								157.93434,53.07305,0
								157.93467,53.07271,0
								157.93506,53.07254,0
								157.93563,53.07239,0
								157.93669,53.07223,0
								157.93706,53.072,0
								157.93921,53.07143,0
								157.93958,53.0713,0
								157.94007,53.07133,0
								157.94085,53.07101,0
								157.94151,53.07063,0
								157.94297,53.07014,0
								157.94374,53.06997,0
								157.94436,53.06972,0
								157.94486,53.06942,0
								157.94514,53.06936,0
								157.94545,53.06914,0
								157.94592,53.069,0
								157.94647,53.06894,0
								157.94834,53.06884,0
								157.94912,53.06873,0
								157.95074,53.06867,0
								157.95122,53.06871,0
								157.9515,53.06881,0
								157.95158,53.06888,0
								157.95167,53.06911,0
								157.95196,53.06951,0
								157.9522,53.06974,0
								157.95244,53.0699,0
								157.95335,53.07036,0
								157.95356,53.07053,0
								157.95445,53.07095,0
								157.95473,53.07119,0
								157.95537,53.07144,0
								157.95626,53.07168,0
								157.95661,53.07171,0
								157.95707,53.07166,0
								157.9575,53.07172,0
								157.95791,53.07184,0
								157.95847,53.07191,0
								157.95919,53.07216,0
								157.95962,53.07214,0
								157.95992,53.07227,0
								157.96019,53.07233,0
								157.96118,53.07243,0
								157.96127,53.07256,0
								157.96152,53.07258,0
								157.96159,53.07255,0
								157.96182,53.07259,0
								157.96252,53.07286,0
								157.96343,53.07333,0
								157.96421,53.07339,0
								157.96434,53.07343,0
								157.96454,53.07361,0
								157.96473,53.07366,0
								157.965,53.07368,0
								157.965503,53.073693,0
								157.965728,53.07357,0
								157.965825,53.073254,0
								157.966168,53.072951,0
								157.96635,53.072726,0
								157.966737,53.072674,0
								157.966994,53.072539,0
								157.967166,53.072403,0
								157.967359,53.072287,0
								157.96752,53.072165,0
								157.967767,53.072004,0
								157.968174,53.071875,0
								157.968378,53.071791,0
								157.968571,53.071688,0
								157.968775,53.071533,0
								157.968925,53.071366,0
								157.969097,53.071108,0
								157.969451,53.070843,0
								157.969623,53.070573,0
								157.969912,53.07036,0
								157.970288,53.070128,0
								157.970492,53.069954,0
								157.970974,53.069767,0
								157.971543,53.069496,0
								157.971908,53.069354,0
								157.972198,53.069283,0
								157.972648,53.069109,0
								157.972873,53.068948,0
								157.973056,53.068813,0
								157.973367,53.06849,0
								157.973614,53.068374,0
								157.974107,53.06822,0
								157.974461,53.068168,0
								157.975051,53.0682,0
								157.975341,53.06822,0
								157.975802,53.068162,0
								157.976264,53.068168,0
								157.976511,53.068233,0
								157.976865,53.068271,0
								157.977272,53.068278,0
								157.977626,53.068168,0
								157.97798,53.068104,0
								157.978463,53.067981,0
								157.97871,53.067955,0
								157.97915,53.067975,0
								157.979708,53.068039,0
								157.980083,53.067923,0
								157.980341,53.067878,0
								157.980716,53.067775,0
								157.981092,53.067549,0
								157.981274,53.067388,0
								157.981424,53.067266,0
								157.981671,53.067066,0
								157.981982,53.06684,0
								157.98225,53.06664,0</coordinates></LineString></Placemark></Document></kml>