<?xml version="1.0" encoding="UTF-8"?><kml xmlns="http://www.opengis.net/kml/2.2"><Document>
								 <name>Маршрут Озеро Синичкино. Маршрут загрузил(а) Roman Pozdny</name>
								 <description>Скачено с сайта https://idilesom.com</description> <Placemark><LineString><tessellate>1</tessellate> <coordinates>
								158.63824367523,53.078713757835,0
								158.63948822021,53.07886843749,0
								158.64021778107,53.079023116589,0
								158.6411190033,53.079100455931,0
								158.64244937897,53.079306693495,0
								158.64395141602,53.079616047988,0
								158.64553928375,53.079822283082,0
								158.64699840546,53.080028517188,0
								158.64880084991,53.080415203474,0
								158.65034580231,53.08062143474,0
								158.65167617798,53.080905001117,0
								158.65253448486,53.081085451475,0
								158.65314602852,53.081136788876,0
								158.65380048752,53.081233458285,0
								158.65443348885,53.081169012036,0
								158.65469098091,53.081098121052,0
								158.65525960922,53.08114323351,0
								158.65571022034,53.081181901294,0
								158.6562359333,53.08132368287,0
								158.65656852722,53.081388128887,0
								158.65670800209,53.081478353148,0
								158.65710496902,53.081671690213,0
								158.65744829178,53.081884359983,0
								158.65764141083,53.082006805737,0
								158.65788817406,53.082232362794,0
								158.65811347961,53.082432140914,0
								158.65829586983,53.082786583684,0
								158.65837097168,53.083115246191,0
								158.65857481956,53.08337301895,0
								158.65873575211,53.083675899969,0
								158.65904688835,53.083888559837,0
								158.65932583809,53.084133439595,0
								158.65965843201,53.084371873811,0
								158.65980863571,53.084603862591,0
								158.66022706032,53.084958287479,0
								158.66053819656,53.085299821428,0
								158.66072058678,53.085544693158,0
								158.66133213043,53.085673572456,0
								158.66178274155,53.085776675616,0
								158.66209387779,53.085628464745,0
								158.66257667542,53.085422257467,0
								158.66282343864,53.085241825288,0
								158.66298437119,53.085112944697,0
								158.66326332092,53.084919623087,0
								158.66353154182,53.084758521083,0
								158.66383194923,53.084603862591,0
								158.66422891617,53.08458453024,0
								158.66463661194,53.084346097203,0
								158.66508722305,53.084152772148,0
								158.66544127464,53.08387567139,0
								158.66590261459,53.083624345904,0
								158.66638541222,53.083334353134,0
								158.66687893867,53.083095913172,0
								158.66730809212,53.082773694907,0
								158.66767287254,53.082535251839,0
								158.66811275482,53.082264585134,0
								158.66877794266,53.08185440766,0
								158.669475317,53.081465463979,0
								158.66994738579,53.081130344241,0
								158.67041945457,53.080879002726,0
								158.67091200598,53.080588918225,0
								158.67096662521,53.080569657308,0
								158.671438694,53.080260382903,0
								158.67206096649,53.079886584872,0
								158.67246866226,53.079680350086,0
								158.67343425751,53.079590122056,0
								158.67489337921,53.079603011786,0
								158.67615938187,53.079860805578,0
								158.67669582367,53.080195935198,0
								158.67748975754,53.080415057001,0
								158.67815494537,53.080543951659,0
								158.67916345596,53.080569730544,0
								158.68004322052,53.080453725439,0
								158.68126630783,53.080389278024,0
								158.68218898773,53.080389278024,0
								158.68312239647,53.080634176993,0
								158.68405580521,53.080879075961,0
								158.6850643158,53.08109819373,0
								158.68607282639,53.081317311498,0
								158.68684530258,53.081639540664,0
								158.68723154068,53.081832877006,0
								158.68793964386,53.081768431655,0
								158.68845462799,53.081819987943,0
								158.68873357773,53.082051990477,0
								158.68894815445,53.082064879469,0
								158.68920564651,53.082348436338,0</coordinates></LineString></Placemark></Document></kml>