<?xml version="1.0" encoding="UTF-8"?><kml xmlns="http://www.opengis.net/kml/2.2"><Document>
								 <name>Маршрут Маршрут Пиначево - Центральный. Маршрут загрузил(а) Природный парк "Вулканы Камчатки"</name>
								 <description>Скачено с сайта https://idilesom.com</description> <Placemark><LineString><tessellate>1</tessellate> <coordinates>
								158.760868,53.510099,0
								158.760357,53.510037,0
								158.759875,53.509848,0
								158.759895,53.509807,0
								158.759807,53.509711,0
								158.759386,53.509354,0
								158.759304,53.509236,0
								158.759242,53.508988,0
								158.75908,53.508755,0
								158.759032,53.50863,0
								158.759047,53.508379,0
								158.758982,53.508165,0
								158.758791,53.507964,0
								158.758084,53.507484,0
								158.75768,53.507082,0
								158.757757,53.507058,0
								158.757457,53.506767,0
								158.757215,53.506361,0
								158.757194,53.506057,0
								158.757232,53.505946,0
								158.757111,53.505732,0
								158.757129,53.50562,0
								158.757029,53.505546,0
								158.756756,53.505409,0
								158.756255,53.50532,0
								158.755799,53.505177,0
								158.755353,53.505004,0
								158.755139,53.504851,0
								158.754839,53.504742,0
								158.753602,53.504557,0
								158.751778,53.503949,0
								158.751448,53.503867,0
								158.751178,53.503724,0
								158.749236,53.503421,0
								158.748397,53.503206,0
								158.747727,53.502985,0
								158.747518,53.502886,0
								158.746786,53.502749,0
								158.745932,53.502186,0
								158.74561,53.501825,0
								158.745549,53.50168,0
								158.745327,53.501457,0
								158.74513,53.501374,0
								158.744698,53.501086,0
								158.744521,53.500847,0
								158.744287,53.500788,0
								158.743739,53.50051,0
								158.743347,53.500299,0
								158.743057,53.500094,0
								158.74287,53.500022,0
								158.742741,53.499934,0
								158.742679,53.499822,0
								158.741729,53.499424,0
								158.740917,53.498888,0
								158.740526,53.498723,0
								158.739603,53.498441,0
								158.739316,53.498311,0
								158.738789,53.498162,0
								158.738438,53.498104,0
								158.738152,53.497989,0
								158.737542,53.497854,0
								158.737057,53.497847,0
								158.736661,53.497711,0
								158.736329,53.497909,0
								158.735926,53.498046,0
								158.735372,53.498024,0
								158.735028,53.497892,0
								158.734418,53.497853,0
								158.733606,53.498055,0
								158.732955,53.498038,0
								158.732533,53.497946,0
								158.731671,53.498168,0
								158.730916,53.498284,0
								158.729042,53.498176,0
								158.727845,53.498032,0
								158.727248,53.497563,0
								158.726552,53.49718,0
								158.725766,53.496895,0
								158.725036,53.496725,0
								158.724146,53.496611,0
								158.724054,53.496159,0
								158.723663,53.496322,0
								158.723418,53.496231,0
								158.723021,53.495911,0
								158.722527,53.495727,0
								158.722007,53.495586,0
								158.721524,53.495371,0
								158.721112,53.49504,0
								158.721029,53.494925,0
								158.720567,53.494681,0
								158.720227,53.494379,0
								158.719618,53.494253,0
								158.718714,53.493932,0
								158.718335,53.493876,0
								158.718048,53.493775,0
								158.716961,53.49366,0
								158.715918,53.493719,0
								158.715603,53.493669,0
								158.715381,53.493493,0
								158.71467,53.493104,0
								158.714545,53.492965,0
								158.714307,53.49252,0
								158.714306,53.492174,0
								158.714188,53.491826,0
								158.71405,53.491632,0
								158.713759,53.491473,0
								158.713255,53.491084,0
								158.712987,53.490731,0
								158.712942,53.490614,0
								158.712341,53.490396,0
								158.712113,53.490256,0
								158.711974,53.490095,0
								158.711773,53.489703,0
								158.711427,53.48944,0
								158.711293,53.48927,0
								158.710432,53.488924,0
								158.709701,53.48824,0
								158.709382,53.48806,0
								158.709251,53.487907,0
								158.708932,53.487746,0
								158.708741,53.487701,0
								158.70851,53.48757,0
								158.708249,53.487306,0
								158.707596,53.48683,0
								158.707306,53.486571,0
								158.706974,53.486396,0
								158.706643,53.486307,0
								158.705529,53.48584,0
								158.704479,53.485291,0
								158.703954,53.48514,0
								158.70375,53.485008,0
								158.703265,53.484537,0
								158.703174,53.484514,0
								158.703311,53.484489,0
								158.703017,53.484292,0
								158.702928,53.484191,0
								158.702581,53.484081,0
								158.702362,53.483873,0
								158.702381,53.483753,0
								158.702183,53.483484,0
								158.702245,53.483093,0
								158.702216,53.482868,0
								158.702066,53.482778,0
								158.701431,53.482614,0
								158.701181,53.482399,0
								158.701035,53.482325,0
								158.700802,53.482285,0
								158.700322,53.482119,0
								158.699641,53.482027,0
								158.699493,53.481927,0
								158.699384,53.481793,0
								158.698702,53.48173,0
								158.698717,53.481572,0
								158.698651,53.481452,0
								158.698708,53.481286,0
								158.69859,53.48112,0
								158.698267,53.480846,0
								158.698156,53.480708,0
								158.697801,53.480536,0
								158.697479,53.48052,0
								158.69722,53.480421,0
								158.696906,53.480162,0
								158.696651,53.480039,0
								158.69645,53.479879,0
								158.696301,53.479711,0
								158.696268,53.479587,0
								158.696161,53.479476,0
								158.695749,53.479223,0
								158.695549,53.479198,0
								158.695081,53.478992,0
								158.694864,53.478822,0
								158.6946,53.478715,0
								158.694302,53.478464,0
								158.694,53.478079,0
								158.694011,53.477821,0
								158.693973,53.477618,0
								158.693876,53.477486,0
								158.693931,53.477335,0
								158.693946,53.477099,0
								158.693751,53.477008,0
								158.693743,53.476873,0
								158.693551,53.476719,0
								158.69351,53.47662,0
								158.693618,53.476421,0
								158.693503,53.476121,0
								158.693497,53.475921,0
								158.693427,53.475718,0
								158.693219,53.475435,0
								158.693021,53.474743,0
								158.692968,53.47434,0
								158.6928,53.474058,0
								158.692742,53.473749,0
								158.692642,53.473459,0
								158.692378,53.473199,0
								158.692147,53.473125,0
								158.692107,53.472999,0
								158.692127,53.472882,0
								158.691901,53.472572,0
								158.691792,53.472484,0
								158.691402,53.472341,0
								158.691233,53.47235,0
								158.691093,53.472228,0
								158.691203,53.472102,0
								158.691303,53.471871,0
								158.691249,53.471665,0
								158.69099,53.471253,0
								158.690549,53.470785,0
								158.690325,53.470479,0
								158.690051,53.470254,0
								158.68962,53.470016,0
								158.689044,53.469593,0
								158.68904,53.469443,0
								158.68909,53.469292,0
								158.688996,53.468931,0
								158.68885,53.468809,0
								158.688668,53.468546,0
								158.688582,53.468217,0
								158.688583,53.467884,0
								158.688356,53.467536,0
								158.688171,53.467494,0
								158.68758,53.467206,0
								158.687186,53.467084,0
								158.68703,53.46689,0
								158.686562,53.466749,0
								158.686219,53.466568,0
								158.686038,53.466463,0
								158.685733,53.46619,0
								158.685367,53.465997,0
								158.685071,53.465765,0
								158.684715,53.465397,0
								158.684465,53.465023,0
								158.683907,53.464699,0
								158.683716,53.464429,0
								158.683649,53.464267,0
								158.683269,53.46382,0
								158.683297,53.463613,0
								158.683102,53.463525,0
								158.683002,53.463363,0
								158.682834,53.463265,0
								158.682752,53.46309,0
								158.682375,53.46285,0
								158.682166,53.462786,0
								158.681847,53.462607,0
								158.681621,53.462537,0
								158.680746,53.46238,0
								158.679352,53.461839,0
								158.679121,53.46171,0
								158.678859,53.461247,0
								158.678779,53.461025,0
								158.678124,53.460541,0
								158.677999,53.46041,0
								158.677241,53.460101,0
								158.677163,53.459922,0
								158.677182,53.459633,0
								158.677279,53.459148,0
								158.676916,53.458725,0
								158.676835,53.458278,0
								158.676656,53.458182,0
								158.676471,53.458165,0
								158.676163,53.45797,0
								158.676068,53.457844,0
								158.676264,53.457611,0
								158.67659,53.457402,0
								158.676773,53.457155,0
								158.67674,53.456809,0
								158.676771,53.456455,0
								158.677184,53.456142,0
								158.677132,53.455971,0
								158.676843,53.455815,0
								158.676787,53.45568,0
								158.676363,53.455404,0
								158.676018,53.454907,0
								158.67562,53.454723,0
								158.675023,53.454705,0
								158.674265,53.454537,0
								158.674135,53.45444,0
								158.67389,53.454075,0
								158.673768,53.453986,0
								158.672878,53.453664,0
								158.67254,53.453479,0
								158.670934,53.453128,0
								158.670458,53.452861,0
								158.669437,53.452368,0
								158.667985,53.4519,0
								158.667826,53.451807,0
								158.667666,53.451763,0
								158.667567,53.451648,0
								158.667452,53.451358,0
								158.666819,53.451221,0
								158.665584,53.45134,0
								158.665368,53.451325,0
								158.665193,53.451204,0
								158.664661,53.451079,0
								158.664781,53.451022,0
								158.664723,53.451046,0
								158.664752,53.451038,0
								158.663757,53.450629,0
								158.663205,53.450562,0
								158.661807,53.450166,0
								158.661561,53.449963,0
								158.660994,53.449652,0
								158.659959,53.449375,0
								158.65928,53.448937,0
								158.659035,53.448683,0
								158.658796,53.448541,0
								158.658627,53.448471,0
								158.658021,53.448334,0
								158.657277,53.447927,0
								158.656385,53.447711,0
								158.65607,53.447519,0
								158.656121,53.447436,0
								158.655587,53.447162,0
								158.654392,53.446914,0
								158.653122,53.446378,0
								158.651257,53.445986,0
								158.650896,53.445785,0
								158.650326,53.445553,0
								158.64953,53.445352,0
								158.649276,53.445198,0
								158.648865,53.445122,0
								158.648173,53.44482,0
								158.646596,53.444589,0
								158.646227,53.444562,0
								158.645357,53.444401,0
								158.644977,53.444379,0
								158.643893,53.444148,0
								158.64331,53.444143,0
								158.642488,53.443975,0
								158.641679,53.443912,0
								158.641489,53.443948,0
								158.64105,53.443915,0
								158.63957,53.443603,0
								158.639418,53.443647,0
								158.639206,53.443799,0
								158.639108,53.443822,0
								158.638771,53.443816,0
								158.638535,53.443696,0
								158.638157,53.44363,0
								158.637978,53.44378,0
								158.637078,53.443983,0
								158.636912,53.444125,0
								158.636745,53.444212,0
								158.636715,53.444331,0
								158.636622,53.444399,0
								158.636336,53.444405,0
								158.635653,53.444722,0
								158.635371,53.444727,0
								158.634887,53.444836,0
								158.634299,53.445169,0
								158.633999,53.445291,0
								158.633725,53.445523,0
								158.63317,53.445902,0
								158.632875,53.446031,0
								158.631934,53.44626,0
								158.631489,53.446512,0
								158.631055,53.446653,0
								158.630784,53.446882,0
								158.630299,53.447132,0
								158.63029,53.447218,0
								158.629216,53.447683,0
								158.628881,53.447889,0
								158.6285,53.448064,0
								158.628143,53.448295,0
								158.627313,53.448636,0
								158.626078,53.449228,0
								158.625299,53.44981,0
								158.624726,53.4501,0
								158.624456,53.45035,0
								158.623585,53.450816,0
								158.623409,53.45111,0
								158.623276,53.451464,0
								158.622742,53.451919,0
								158.622365,53.452064,0
								158.622204,53.452305,0
								158.621247,53.45268,0
								158.620836,53.452772,0
								158.620743,53.452852,0
								158.61984,53.45307,0
								158.619417,53.453263,0
								158.619317,53.453342,0
								158.619129,53.453395,0
								158.61889,53.453407,0
								158.617934,53.453731,0
								158.617657,53.453866,0
								158.617207,53.453975,0
								158.616973,53.454117,0
								158.616819,53.45415,0
								158.616459,53.454326,0
								158.616138,53.454524,0
								158.61557,53.454686,0
								158.615387,53.454701,0
								158.615059,53.454981,0
								158.615063,53.454953,0
								158.61497,53.455108,0
								158.614693,53.455341,0
								158.614376,53.455568,0
								158.614132,53.455695,0
								158.614147,53.455888,0
								158.614006,53.456063,0
								158.613855,53.456157,0
								158.613409,53.45627,0
								158.613207,53.456359,0
								158.612608,53.456794,0
								158.612178,53.456805,0
								158.612065,53.456916,0
								158.611854,53.456966,0
								158.611708,53.457064,0
								158.611326,53.45717,0
								158.6108,53.457439,0
								158.610604,53.457442,0
								158.610227,53.457537,0
								158.609399,53.457858,0
								158.609151,53.457936,0
								158.608905,53.457962,0
								158.608755,53.458034,0
								158.608583,53.45836,0
								158.608642,53.458503,0
								158.608912,53.458624,0
								158.608962,53.458706,0
								158.608991,53.458838,0
								158.609132,53.45906,0
								158.609051,53.45915,0
								158.608866,53.459186,0
								158.608418,53.459366,0
								158.608178,53.459551,0
								158.607629,53.459714,0
								158.607325,53.459865,0
								158.60708,53.460066,0
								158.60605,53.460304,0
								158.605851,53.460488,0
								158.605553,53.460545,0
								158.605259,53.460656,0
								158.604486,53.460613,0
								158.604332,53.460667,0
								158.604126,53.46089,0
								158.603682,53.461046,0
								158.603024,53.461029,0
								158.602576,53.460854,0
								158.60218,53.460655,0
								158.60185,53.460572,0
								158.601333,53.460343,0
								158.601116,53.460197,0
								158.600972,53.460222,0
								158.600616,53.4601,0
								158.600273,53.459826,0
								158.599396,53.459848,0
								158.599243,53.459784,0
								158.599021,53.459611,0
								158.598853,53.459586,0
								158.598374,53.459372,0
								158.597441,53.45914,0
								158.596704,53.458866,0
								158.596384,53.458819,0
								158.59578,53.458972,0
								158.595364,53.459157,0
								158.59512,53.459144,0
								158.594801,53.459195,0
								158.594572,53.459323,0
								158.594033,53.459309,0
								158.59388,53.459276,0
								158.59379,53.45919,0
								158.593512,53.459104,0
								158.593374,53.459121,0
								158.593132,53.45935,0
								158.593006,53.459409,0
								158.592686,53.459487,0
								158.592528,53.459517,0
								158.592302,53.459501,0
								158.591998,53.459566,0
								158.591647,53.45958,0
								158.591424,53.459525,0
								158.591286,53.459569,0
								158.591226,53.459737,0
								158.591267,53.45991,0
								158.590902,53.460497,0
								158.590716,53.460641,0
								158.590449,53.460784,0
								158.589795,53.460718,0
								158.589273,53.460422,0
								158.588783,53.460274,0
								158.588412,53.460295,0
								158.588247,53.460343,0
								158.58807,53.460337,0
								158.58752,53.460182,0
								158.58658,53.460097,0
								158.586071,53.460176,0
								158.586014,53.460273,0
								158.585824,53.46043,0
								158.58567,53.460474,0
								158.585352,53.460379,0
								158.585134,53.460202,0
								158.584974,53.460154,0
								158.584469,53.460113,0
								158.584088,53.460005,0
								158.583524,53.460011,0
								158.583055,53.459872,0
								158.582727,53.459869,0
								158.58241,53.459779,0
								158.582029,53.459558,0
								158.58168,53.459441,0
								158.581126,53.459319,0
								158.580143,53.458548,0
								158.57961,53.45857,0
								158.579338,53.458652,0
								158.579121,53.458638,0
								158.579013,53.458537,0
								158.578869,53.458487,0
								158.57807,53.458372,0
								158.577689,53.458352,0
								158.575566,53.458512,0
								158.575298,53.458463,0
								158.575001,53.458327,0
								158.574578,53.458189,0
								158.574246,53.458008,0
								158.573747,53.457806,0
								158.572796,53.457618,0
								158.571318,53.457646,0
								158.570675,53.457803,0
								158.570254,53.457958,0
								158.570103,53.457968,0
								158.569716,53.45774,0
								158.569355,53.457679,0
								158.568971,53.457669,0
								158.568227,53.45749,0
								158.567635,53.457305,0
								158.567394,53.457139,0
								158.567251,53.45709,0
								158.566257,53.456895,0
								158.565849,53.456662,0
								158.56538,53.456267,0
								158.564759,53.455912,0
								158.564399,53.455929,0
								158.564164,53.455892,0
								158.563719,53.455752,0
								158.563248,53.455451,0
								158.563075,53.455408,0
								158.562761,53.455478,0
								158.562435,53.455467,0
								158.562117,53.455546,0
								158.561793,53.455553,0
								158.561752,53.455618,0
								158.561216,53.45577,0
								158.560707,53.455791,0
								158.5601,53.455885,0
								158.559614,53.455987,0
								158.559516,53.456073,0
								158.559325,53.456094,0
								158.559117,53.456065,0
								158.558721,53.455819,0
								158.558375,53.455846,0
								158.558135,53.455781,0
								158.557738,53.45576,0
								158.557372,53.455835,0
								158.556561,53.455872,0
								158.555994,53.455827,0
								158.555436,53.455834,0
								158.555088,53.455887,0
								158.554754,53.455853,0
								158.553459,53.45587,0
								158.553321,53.455925,0
								158.553234,53.456002,0
								158.552862,53.456103,0
								158.552773,53.456282,0
								158.552503,53.456393,0
								158.551632,53.45649,0
								158.550768,53.457147,0
								158.550516,53.457295,0
								158.550361,53.457322,0
								158.54995,53.457311,0
								158.549393,53.457223,0
								158.54927,53.457112,0
								158.548908,53.457024,0
								158.548569,53.456999,0
								158.548401,53.457013,0
								158.548302,53.457067,0
								158.54806,53.45702,0
								158.546748,53.456555,0
								158.546583,53.456541,0
								158.546278,53.45659,0
								158.546151,53.456646,0
								158.545635,53.456637,0
								158.545333,53.456701,0
								158.545193,53.456763,0
								158.545035,53.456942,0
								158.544906,53.457034,0
								158.54461,53.457197,0
								158.543903,53.457432,0
								158.543642,53.457451,0
								158.542358,53.457346,0
								158.541802,53.4574,0
								158.541076,53.457332,0
								158.539891,53.457442,0
								158.539476,53.457278,0
								158.53897,53.457232,0
								158.538089,53.457453,0
								158.537828,53.457413,0
								158.53769,53.457293,0
								158.537555,53.457235,0
								158.537059,53.457166,0
								158.536217,53.457159,0
								158.535886,53.457208,0
								158.534397,53.457288,0
								158.53386,53.457229,0
								158.533352,53.457045,0
								158.532775,53.456977,0
								158.532235,53.456948,0
								158.532038,53.457004,0
								158.530838,53.456891,0
								158.530007,53.456616,0
								158.529664,53.456611,0
								158.529003,53.456463,0
								158.528723,53.45633,0
								158.527952,53.455867,0
								158.527659,53.4556,0
								158.527535,53.455532,0
								158.526923,53.455486,0
								158.52675,53.45543,0
								158.526383,53.455416,0
								158.526055,53.455324,0
								158.525647,53.455123,0
								158.524974,53.454936,0
								158.524683,53.454819,0
								158.52434,53.454597,0
								158.523939,53.454405,0
								158.523594,53.454341,0
								158.523431,53.454356,0
								158.523085,53.454276,0
								158.523022,53.454369,0
								158.522865,53.454387,0
								158.522724,53.454298,0
								158.522217,53.454357,0
								158.521662,53.45421,0
								158.520973,53.454158,0
								158.520874,53.454086,0
								158.520765,53.453895,0
								158.520605,53.453709,0
								158.520475,53.453636,0
								158.520275,53.453233,0
								158.520193,53.453138,0
								158.520069,53.453079,0
								158.519861,53.452776,0
								158.519475,53.452488,0
								158.518908,53.452354,0
								158.518654,53.452247,0
								158.518409,53.452093,0
								158.51731,53.45183,0
								158.516559,53.451878,0
								158.51639,53.45184,0
								158.516218,53.451864,0
								158.515778,53.451826,0
								158.515597,53.451772,0
								158.515407,53.451672,0
								158.51513,53.451624,0
								158.514514,53.451283,0
								158.51428,53.451262,0
								158.513587,53.450747,0
								158.512842,53.450704,0
								158.512046,53.4503,0
								158.51184,53.450264,0
								158.510998,53.44995,0
								158.510889,53.449842,0
								158.510722,53.449788,0
								158.510679,53.449687,0
								158.510557,53.449581,0
								158.510096,53.449294,0
								158.510033,53.448847,0
								158.509962,53.448725,0
								158.509786,53.44849,0
								158.509542,53.448396,0
								158.508519,53.448148,0
								158.508073,53.448086,0
								158.507744,53.447924,0
								158.507569,53.447889,0
								158.507474,53.447765,0
								158.507117,53.447712,0
								158.506941,53.447742,0
								158.506391,53.447691,0
								158.505655,53.447545,0
								158.505484,53.447442,0
								158.505127,53.447361,0
								158.504804,53.447397,0
								158.504434,53.447373,0
								158.504261,53.447404,0
								158.503472,53.447613,0
								158.50334,53.447726,0
								158.503179,53.447714,0
								158.502436,53.447463,0
								158.502072,53.447286,0
								158.501804,53.447042,0
								158.501572,53.446937,0
								158.501536,53.446851,0
								158.501441,53.446776,0
								158.500873,53.446559,0
								158.500371,53.44613,0
								158.500201,53.446101,0
								158.499848,53.44591,0
								158.499351,53.445773,0
								158.499148,53.445652,0
								158.498966,53.445613,0
								158.498683,53.445307,0
								158.498558,53.445221,0
								158.498385,53.44494,0
								158.498316,53.444736,0
								158.497893,53.444261,0
								158.498104,53.444048,0
								158.498157,53.443703,0
								158.498016,53.443075,0
								158.497949,53.443132,0
								158.497713,53.442985,0
								158.497595,53.442848,0
								158.497518,53.44266,0
								158.497175,53.442366,0
								158.496959,53.442292,0
								158.496536,53.442066,0
								158.496195,53.441955,0
								158.495806,53.441642,0
								158.495672,53.441587,0
								158.495613,53.4415,0
								158.495458,53.441444,0
								158.494889,53.441071,0
								158.494455,53.440951,0
								158.494206,53.440831,0
								158.49405,53.440817,0
								158.493783,53.440722,0
								158.493279,53.440475,0
								158.492521,53.440267,0
								158.492357,53.440257,0
								158.492218,53.440299,0
								158.491602,53.440112,0
								158.490429,53.439896,0
								158.490304,53.43984,0
								158.489826,53.439752,0
								158.489347,53.43961,0
								158.489105,53.439459,0
								158.488806,53.439327,0
								158.488436,53.439068,0
								158.487486,53.438802,0
								158.48684,53.438485,0
								158.486679,53.438477,0
								158.485994,53.438026,0
								158.485813,53.437962,0
								158.485616,53.437962,0
								158.485412,53.437915,0
								158.484951,53.437696,0
								158.484781,53.437674,0
								158.484577,53.437718,0
								158.484388,53.43768,0
								158.483992,53.437737,0
								158.483839,53.43779,0
								158.483528,53.437698,0
								158.483183,53.437693,0
								158.482909,53.437598,0
								158.482643,53.43744,0
								158.481895,53.437437,0
								158.48168,53.437392,0
								158.481532,53.437294,0
								158.480931,53.437221,0
								158.480802,53.437133,0
								158.480621,53.437108,0
								158.480362,53.43688,0
								158.480062,53.436686,0
								158.479678,53.436601,0
								158.479494,53.436508,0
								158.478923,53.43644,0
								158.478698,53.436446,0
								158.478051,53.436332,0
								158.47787,53.436268,0
								158.477691,53.436326,0
								158.477472,53.436297,0
								158.477265,53.436314,0
								158.477122,53.436231,0
								158.476954,53.436188,0
								158.476247,53.436121,0
								158.475262,53.435853,0
								158.474359,53.435834,0
								158.474096,53.435709,0
								158.473765,53.435639,0
								158.473396,53.435427,0
								158.473086,53.435302,0
								158.47314,53.435217,0
								158.473052,53.435191,0
								158.473042,53.435245,0
								158.472875,53.435249,0
								158.472725,53.435179,0
								158.472405,53.435153,0
								158.47197,53.434855,0
								158.471907,53.434728,0
								158.47179,53.434599,0
								158.471288,53.434343,0
								158.470934,53.434061,0
								158.470505,53.433994,0
								158.470129,53.433808,0
								158.470018,53.433666,0
								158.469742,53.433449,0
								158.469569,53.433392,0
								158.469212,53.433084,0
								158.468973,53.433026,0
								158.468868,53.4329,0
								158.468622,53.43273,0
								158.46856,53.432638,0
								158.468442,53.432578,0
								158.46845,53.432367,0
								158.468685,53.431987,0
								158.468608,53.431704,0
								158.468477,53.431442,0
								158.468367,53.431367,0
								158.467414,53.431067,0
								158.4672,53.430926,0
								158.467145,53.430804,0
								158.466974,53.430689,0
								158.466528,53.43054,0
								158.466125,53.430564,0
								158.465625,53.430533,0
								158.465014,53.430358,0
								158.464678,53.430201,0
								158.464412,53.429942,0
								158.463931,53.429851,0
								158.463898,53.429651,0
								158.463392,53.429396,0
								158.463235,53.429023,0
								158.463313,53.428853,0
								158.463277,53.428492,0
								158.46311,53.428254,0
								158.463045,53.427865,0
								158.462798,53.427725,0
								158.462593,53.427266,0
								158.462558,53.427085,0
								158.462418,53.42688,0
								158.462217,53.42678,0
								158.461973,53.426576,0
								158.461544,53.42632,0
								158.461197,53.426,0
								158.46087,53.425841,0
								158.460215,53.425636,0
								158.459943,53.425417,0
								158.459631,53.425249,0
								158.459509,53.425065,0
								158.458886,53.424698,0
								158.458787,53.424392,0
								158.458725,53.424303,0
								158.458444,53.424194,0
								158.458211,53.424037,0
								158.45784,53.423653,0
								158.457801,53.42354,0
								158.457444,53.423346,0
								158.457147,53.42262,0
								158.457025,53.422544,0
								158.455859,53.422405,0
								158.455432,53.422295,0
								158.45533,53.421919,0
								158.455371,53.421687,0
								158.455299,53.421575,0
								158.455278,53.421379,0
								158.455161,53.421248,0
								158.455207,53.420878,0
								158.45537,53.420672,0
								158.455031,53.420561,0
								158.455,53.420423,0
								158.454333,53.420172,0
								158.45422,53.420046,0
								158.454238,53.419716,0
								158.45405,53.419466,0
								158.45398,53.419107,0
								158.453797,53.419055,0
								158.453644,53.418948,0
								158.453584,53.41871,0
								158.453491,53.418617,0
								158.453136,53.418421,0
								158.453008,53.418287,0
								158.452806,53.418241,0
								158.452696,53.418089,0
								158.452116,53.417974,0
								158.452007,53.417786,0
								158.452067,53.417648,0
								158.451602,53.417263,0
								158.451539,53.417112,0
								158.451254,53.416897,0
								158.451072,53.416645,0
								158.450532,53.416404,0
								158.450234,53.416061,0
								158.450013,53.415987,0
								158.449908,53.415838,0
								158.449358,53.415361,0
								158.449257,53.415211,0
								158.449184,53.414932,0
								158.449073,53.414803,0
								158.448847,53.414309,0
								158.448491,53.413835,0
								158.448277,53.413645,0
								158.448277,53.413469,0
								158.448005,53.41327,0
								158.447653,53.412931,0
								158.447376,53.41274,0
								158.447208,53.41249,0
								158.44679,53.41215,0
								158.44663,53.412111,0
								158.446477,53.412007,0
								158.446247,53.411684,0
								158.446008,53.411201,0
								158.445739,53.410762,0
								158.44556,53.410661,0
								158.445469,53.410458,0
								158.445355,53.410307,0
								158.444979,53.410027,0
								158.44489,53.409718,0
								158.444919,53.409562,0
								158.444634,53.409246,0
								158.444613,53.409079,0
								158.444218,53.408717,0
								158.444172,53.408411,0
								158.4442,53.408297,0
								158.4441,53.408183,0
								158.443584,53.407852,0
								158.443377,53.407642,0
								158.443137,53.407479,0
								158.443,53.407213,0
								158.442955,53.407056,0
								158.442956,53.406908,0
								158.442874,53.406697,0
								158.442874,53.40656,0
								158.442708,53.406012,0
								158.44279,53.405094,0
								158.442614,53.404883,0
								158.44216,53.404506,0
								158.441705,53.4042,0
								158.441648,53.404071,0
								158.441491,53.403923,0
								158.441455,53.403833,0
								158.440996,53.403452,0
								158.440909,53.40321,0
								158.440876,53.402976,0
								158.440752,53.402778,0
								158.440747,53.402639,0
								158.440707,53.402555,0
								158.440607,53.40248,0
								158.440587,53.402353,0
								158.440501,53.402281,0
								158.440319,53.402277,0
								158.440263,53.402138,0
								158.440048,53.401987,0
								158.439962,53.401556,0
								158.439674,53.401307,0
								158.439499,53.400739,0
								158.439391,53.400245,0
								158.43928,53.400101,0
								158.439239,53.399741,0
								158.439264,53.399188,0
								158.439223,53.399066,0
								158.439002,53.398885,0
								158.438937,53.398766,0
								158.438683,53.398718,0
								158.438721,53.398848,0
								158.437455,53.398093,0
								158.43664,53.397876,0
								158.436227,53.39807,0
								158.435962,53.397714,0
								158.43593,53.397255,0
								158.435596,53.396823,0
								158.435509,53.396477,0
								158.435822,53.395956,0
								158.435884,53.39554,0
								158.43587,53.395272,0
								158.435722,53.394887,0
								158.435402,53.394546,0
								158.435176,53.394067,0
								158.434968,53.393873,0
								158.434606,53.39372,0
								158.434273,53.393289,0
								158.433942,53.392972,0
								158.433747,53.392672,0
								158.433758,53.39241,0
								158.433664,53.392221,0
								158.433697,53.391953,0
								158.433303,53.391788,0
								158.43285,53.391287,0
								158.432856,53.391137,0
								158.432597,53.390975,0
								158.432551,53.390703,0
								158.432379,53.390362,0
								158.431997,53.389811,0
								158.432003,53.38964,0
								158.431797,53.389476,0
								158.431772,53.38932,0
								158.431581,53.389245,0
								158.43152,53.389135,0
								158.431292,53.389118,0
								158.431214,53.388954,0
								158.431013,53.388807,0
								158.430828,53.388739,0
								158.430699,53.388566,0
								158.430493,53.388397,0
								158.430367,53.388242,0
								158.430066,53.388035,0
								158.429973,53.387753,0
								158.429762,53.387576,0
								158.429657,53.387436,0
								158.429588,53.38714,0
								158.429417,53.387064,0
								158.429183,53.386806,0
								158.428856,53.386601,0
								158.428764,53.386467,0
								158.428529,53.386329,0
								158.428403,53.386137,0
								158.42806,53.385834,0
								158.428033,53.385563,0
								158.428095,53.385435,0
								158.427726,53.385246,0
								158.427694,53.384877,0
								158.427603,53.384576,0
								158.427475,53.384398,0
								158.427473,53.384286,0
								158.427424,53.38419,0
								158.427295,53.384106,0
								158.427218,53.383972,0
								158.427111,53.383893,0
								158.427092,53.383757,0
								158.42692,53.383435,0
								158.426726,53.383328,0
								158.426565,53.383095,0
								158.426538,53.382855,0
								158.426469,53.382756,0
								158.426062,53.382565,0
								158.42584,53.382362,0
								158.425779,53.382243,0
								158.425838,53.382123,0
								158.425815,53.381897,0
								158.4257,53.381684,0
								158.425612,53.381365,0
								158.424987,53.381011,0
								158.424791,53.380867,0
								158.42476,53.380775,0
								158.424775,53.38067,0
								158.424879,53.38054,0
								158.424859,53.380328,0
								158.424526,53.380024,0
								158.424362,53.379953,0
								158.424303,53.379749,0
								158.424067,53.379468,0
								158.423796,53.379295,0
								158.423667,53.379089,0
								158.423567,53.379004,0
								158.423617,53.378845,0
								158.423235,53.378581,0
								158.423101,53.378377,0
								158.422959,53.378285,0
								158.422748,53.377978,0
								158.422734,53.377732,0
								158.422678,53.377619,0
								158.422506,53.377428,0
								158.422208,53.377271,0
								158.422141,53.377167,0
								158.422141,53.377064,0
								158.422091,53.376946,0
								158.421902,53.376699,0
								158.421682,53.376502,0
								158.42131,53.376374,0
								158.421247,53.376243,0
								158.421046,53.375992,0
								158.420771,53.37583,0
								158.420716,53.375732,0
								158.420581,53.375658,0
								158.420548,53.375502,0
								158.420388,53.375418,0
								158.420101,53.37519,0
								158.420021,53.375073,0
								158.41963,53.374751,0
								158.419022,53.37448,0
								158.418583,53.374364,0
								158.417964,53.374311,0
								158.417656,53.374175,0
								158.417252,53.373805,0
								158.417095,53.373368,0
								158.41671,53.372941,0
								158.416304,53.372754,0
								158.416083,53.372704,0
								158.41591,53.372622,0
								158.415816,53.372515,0
								158.415598,53.372408,0
								158.414973,53.372165,0
								158.414877,53.372077,0
								158.414831,53.371947,0
								158.414471,53.371842,0
								158.414122,53.371664,0
								158.413703,53.371552,0
								158.413434,53.371409,0
								158.413245,53.37079,0
								158.412681,53.370055,0
								158.412482,53.36965,0
								158.412376,53.3696,0
								158.412389,53.369478,0
								158.412145,53.369151,0
								158.4121,53.36902,0
								158.412104,53.368897,0
								158.41204,53.368757,0
								158.411887,53.368601,0
								158.411592,53.368387,0
								158.411333,53.368119,0
								158.411234,53.367863,0
								158.411233,53.36772,0
								158.411053,53.367493,0
								158.410999,53.367358,0
								158.410587,53.367137,0
								158.410161,53.367051,0
								158.410019,53.366931,0
								158.410007,53.366781,0
								158.409944,53.366644,0
								158.409445,53.366357,0
								158.409356,53.366238,0
								158.409222,53.366135,0
								158.408481,53.365792,0
								158.408008,53.36545,0
								158.40651,53.365128,0
								158.406235,53.365005,0
								158.405981,53.364972,0
								158.405557,53.364708,0
								158.40534,53.364659,0
								158.405264,53.364567,0
								158.405089,53.364518,0
								158.40496,53.364419,0
								158.404291,53.364135,0
								158.404043,53.364064,0
								158.403609,53.363721,0
								158.403449,53.363667,0
								158.403252,53.363483,0
								158.403009,53.363333,0
								158.402692,53.363251,0
								158.402588,53.363155,0
								158.402157,53.362916,0
								158.401564,53.362773,0
								158.401401,53.362698,0
								158.401462,53.362538,0
								158.401409,53.362437,0
								158.401216,53.362236,0
								158.401081,53.362144,0
								158.400676,53.361979,0
								158.400475,53.361643,0
								158.400261,53.361466,0
								158.400068,53.361402,0
								158.399935,53.361311,0
								158.399832,53.361223,0
								158.399778,53.36111,0
								158.399554,53.360938,0
								158.399502,53.360845,0
								158.398904,53.360484,0
								158.398699,53.360432,0
								158.398528,53.3602,0
								158.398373,53.360124,0
								158.39832,53.360016,0
								158.398164,53.359941,0
								158.39807,53.359848,0
								158.39797,53.359607,0
								158.397957,53.35933,0
								158.397361,53.359002,0
								158.397266,53.358903,0
								158.39687,53.358763,0
								158.396778,53.358662,0
								158.396808,53.358526,0
								158.396799,53.358184,0
								158.396706,53.358055,0
								158.396537,53.357966,0
								158.396329,53.357627,0
								158.396195,53.357532,0
								158.395935,53.357485,0
								158.395713,53.357014,0
								158.395632,53.356908,0
								158.395476,53.356797,0
								158.395255,53.356707,0
								158.395189,53.356581,0
								158.395063,53.356487,0
								158.394191,53.355942,0
								158.394066,53.355835,0
								158.393951,53.355608,0
								158.393727,53.355315,0
								158.392942,53.354851,0
								158.392848,53.35476,0
								158.392744,53.354521,0
								158.392244,53.354336,0
								158.392097,53.354263,0
								158.391845,53.354033,0
								158.391121,53.353674,0
								158.390662,53.3535,0
								158.390523,53.353216,0
								158.390205,53.35298,0
								158.390121,53.352847,0
								158.389842,53.352654,0
								158.389233,53.352138,0
								158.388969,53.352002,0</coordinates></LineString></Placemark></Document></kml>