<?xml version="1.0" encoding="UTF-8"?><kml xmlns="http://www.opengis.net/kml/2.2"><Document>
<name>Маршрут Пока дремлют вулканы. Маршрут загрузил(а) Ян Попов</name>
<description>Скачено с сайта https://idilesom.com (Pro-выгрузка владельца платформы)</description> <Placemark><LineString><tessellate>1</tessellate> <coordinates>
159.870742,56.050669,0
159.870485,56.050769,0
159.869395,56.049785,0
159.868163,56.048906,0
159.864483,56.046853,0
159.862161,56.045708,0
159.861349,56.045482,0
159.861815,56.044853,0
159.863859,56.042863,0
159.863688,56.042279,0
159.863393,56.04186,0
159.863339,56.041629,0
159.863815,56.041049,0
159.863997,56.040887,0
159.864136,56.040788,0
159.864362,56.040746,0
159.861503,56.039507,0
159.845177,56.029712,0
159.844656,56.029356,0
159.844335,56.028889,0
159.841642,56.023169,0
159.840397,56.020735,0
159.835885,56.01258,0
159.8347,56.008476,0
159.83426,56.006761,0
159.833708,56.005384,0
159.828617,56.002011,0
159.828528,56.001666,0
159.826988,55.99959,0
159.82598,55.998048,0
159.825003,55.996368,0
159.82392,55.994784,0
159.822739,55.993158,0
159.822031,55.992012,0
159.821538,55.991369,0
159.821783,55.99037,0
159.821922,55.989337,0
159.822104,55.988617,0
159.82219,55.987441,0
159.822362,55.987039,0
159.822716,55.986613,0
159.82337,55.986223,0
159.824175,55.985923,0
159.825205,55.985706,0
159.826675,55.985562,0
159.829325,55.985544,0
159.831889,55.985292,0
159.83352,55.985028,0
159.83426,55.984704,0
159.835269,55.984188,0
159.835977,55.983726,0
159.83779,55.982694,0
159.838444,55.982165,0
159.839174,55.981409,0
159.839775,55.980875,0
159.840311,55.980329,0
159.840569,55.979722,0
159.840901,55.979074,0
159.841277,55.978624,0
159.843938,55.976859,0
159.845354,55.976181,0
159.846663,55.975706,0
159.847725,55.97507,0
159.849087,55.974067,0
159.850042,55.973491,0
159.853604,55.971912,0
159.855278,55.971084,0
159.857145,55.970081,0
159.858014,55.969144,0
159.858368,55.968952,0
159.858894,55.968796,0
159.859795,55.96867,0
159.860524,55.968466,0
159.86164,55.967943,0
159.862938,55.967217,0
159.864151,55.966394,0
159.865621,55.964989,0
159.866693,55.964082,0
159.86753,55.9638,0
159.868861,55.963416,0
159.869891,55.96317,0
159.870277,55.962911,0
159.870563,55.962483,0
159.871754,55.959775,0
159.874115,55.954928,0
159.875745,55.951246,0
159.876325,55.950243,0
159.876743,55.949227,0
159.876936,55.948002,0
159.87684,55.94629,0
159.876818,55.944577,0
159.876625,55.943953,0
159.876014,55.943238,0
159.875647,55.942889,0
159.876212,55.942555,0
159.876931,55.942255,0
159.878079,55.941474,0
159.879624,55.940855,0
159.880407,55.940668,0
159.882274,55.939671,0
159.884634,55.937928,0
159.885278,55.937327,0
159.885889,55.937141,0
159.886222,55.936414,0
159.887466,55.935579,0
159.889451,55.934864,0
159.891061,55.934004,0
159.89149,55.933938,0
159.893174,55.933836,0
159.896307,55.933253,0
159.89841,55.933163,0
159.900781,55.933445,0
159.901264,55.933385,0
159.904397,55.932628,0
159.906027,55.932009,0
159.907562,55.931312,0
159.908624,55.930963,0
159.909461,55.930735,0
159.910287,55.9302,0
159.911381,55.929196,0
159.911467,55.92889,0
159.911156,55.928481,0
159.910898,55.927988,0
159.910941,55.927123,0
159.910705,55.922782,0
159.910448,55.919115,0
159.910432,55.917423,0
159.910534,55.917122,0
159.911274,55.916918,0
159.913752,55.915974,0
159.917572,55.914705,0
159.921767,55.913088,0
159.937989,55.907152,0
159.938214,55.90699,0
159.938439,55.906725,0
159.938815,55.905896,0
159.939909,55.903754,0
159.940714,55.902684,0
159.945209,55.897625,0
159.947891,55.895039,0
159.948814,55.894389,0
159.95023,55.893282,0
159.950445,55.892927,0
159.951571,55.889197,0
159.952623,55.886706,0
159.953433,55.8862,0
159.953738,55.885415,0
159.953728,55.885069,0
159.953583,55.884729,0
159.953406,55.884434,0
159.953427,55.884146,0
159.953814,55.882966,0
159.954093,55.88228,0
159.954439,55.882077,0
159.954495,55.881859,0
159.95427,55.88157,0
159.95454,55.880928,0
159.954704,55.880655,0
159.954745,55.88033,0
159.956129,55.876003,0
159.961064,55.861875,0
159.963618,55.854137,0
159.964927,55.850511,0
159.964905,55.85024,0
159.964927,55.849777,0
159.964712,55.849199,0
159.963156,55.848217,0
159.959948,55.846085,0
159.957781,55.845157,0
159.953701,55.84391,0
159.95548,55.840946,0
159.957293,55.838091,0
159.957583,55.837549,0
159.957797,55.836988,0
159.957701,55.83647,0
159.957046,55.834,0
159.956907,55.833229,0
159.956971,55.830083,0
159.957025,55.829679,0
159.956842,55.826745,0
159.956789,55.824358,0
159.956941,55.82308,0
159.957261,55.821206,0
159.957647,55.81976,0
159.95799,55.819145,0
159.958634,55.818265,0
159.958892,55.817602,0
159.959085,55.81636,0
159.959149,55.814419,0
159.959299,55.813358,0
159.959686,55.81243,0
159.9599,55.812152,0
159.963247,55.810235,0
159.981637,55.79996,0
159.98831,55.796173,0
159.989555,55.795353,0
159.989984,55.794882,0
159.990263,55.794364,0
159.990606,55.792759,0
159.991121,55.787258,0
159.9914,55.78096,0
159.991389,55.779759,0
159.991529,55.779107,0
159.991475,55.778709,0
159.991271,55.778299,0
159.991046,55.776706,0
159.990853,55.774727,0
159.990413,55.773079,0
159.990327,55.772464,0
159.990327,55.772065,0
159.99008,55.771583,0
159.988857,55.768426,0
159.987784,55.765348,0
159.987634,55.763272,0
159.988235,55.762644,0
159.988643,55.762378,0
159.989158,55.762113,0
159.990273,55.761352,0
159.991775,55.760072,0
159.993771,55.758442,0
159.996367,55.756619,0
159.997784,55.755303,0
160.000981,55.7529,0
160.002247,55.752055,0
160.003127,55.751717,0
160.004199,55.751729,0
160.01326,55.752746,0
160.026671,55.753809,0
160.033666,55.753652,0
160.035383,55.753869,0
160.038172,55.754062,0
160.041219,55.754111,0
160.043773,55.754195,0
160.048772,55.754702,0
160.051304,55.754823,0
160.052034,55.755125,0
160.052313,55.755584,0
160.052442,55.756018,0
160.052828,55.756031,0
160.059222,55.755837,0
160.061282,55.756018,0
160.062613,55.756067,0
160.064158,55.756465,0
160.064576,55.756526,0
160.065273,55.756441,0
160.066207,55.756067,0
160.066775,55.755771,0
160.067355,55.75568,0
160.067644,55.755735,0
160.068256,55.755686,0
160.068814,55.755783,0
160.069146,55.755692,0
160.070155,55.755234,0
160.070466,55.755028,0
160.070691,55.754829,0
160.071528,55.754382,0
160.071678,55.754231,0
160.072086,55.754129,0
160.072419,55.75425,0
160.073148,55.75437,0
160.073878,55.754425,0
160.074586,55.754358,0
160.074929,55.754274,0
160.075573,55.75402,0
160.077783,55.754014,0
160.07891,55.753809,0
160.079435,55.753779,0
160.080272,55.753863,0
160.081324,55.75408,0
160.082128,55.754147,0
160.08422,55.75393,0
160.0904,55.752933,0
160.098801,55.751696,0
160.103157,55.750729,0
160.106826,55.750198,0
160.111697,55.74928,0
160.117582,55.748308,0
160.122346,55.747379,0
160.132584,55.74552,0
160.133991,55.745314,0
160.137837,55.744925,0
160.138503,55.744944,0
160.144902,55.744495,0
160.145821,55.744504,0
160.146561,55.744605,0
160.147,55.744811,0
160.148082,55.74515,0
160.148691,55.74509,0
160.14944,55.744903,0
160.150261,55.744518,0
160.151619,55.743713,0
160.153318,55.742079,0
160.153879,55.741676,0
160.154619,55.7413,0
160.156204,55.740847,0
160.157018,55.740742,0
160.158327,55.740509,0
160.159164,55.740275,0
160.159685,55.739991,0
160.160782,55.73881,0
160.161148,55.738458,0
160.162018,55.738032,0
160.163213,55.737616,0
160.163961,55.737552,0
160.166368,55.737726,0
160.168043,55.73779,0
160.169263,55.737762,0
160.17432,55.737144,0
160.175792,55.736897,0
160.178231,55.736343,0
160.178768,55.73611,0
160.179565,55.73586,0
160.179771,55.735837,0
160.180759,55.735462,0
160.188456,55.733206,0
160.189154,55.732916,0
160.18995,55.732776,0
160.190399,55.732603,0
160.191375,55.732413,0
160.192881,55.731919,0
160.194001,55.731693,0
160.194489,55.731627,0
160.195115,55.731434,0
160.195934,55.731249,0
160.197301,55.731057,0
160.198125,55.730888,0
160.198687,55.73084,0
160.19967,55.730558,0
160.200605,55.730479,0
160.201561,55.73035,0
160.20467,55.730079,0
160.205726,55.730131,0
160.206733,55.730017,0
160.207576,55.730003,0
160.208197,55.729932,0
160.208606,55.729935,0
160.209547,55.730015,0
160.21003,55.730008,0
160.211326,55.73013,0
160.213162,55.730242,0
160.213647,55.730252,0
160.214773,55.730192,0
160.216295,55.730248,0
160.217958,55.730373,0
160.218823,55.730531,0
160.219008,55.730535,0
160.220959,55.730286,0
160.223572,55.729883,0
160.226324,55.729602,0
160.226919,55.729575,0
160.22929,55.729889,0
160.230889,55.729913,0
160.23193,55.729841,0
160.233443,55.729599,0
160.235127,55.729255,0
160.236146,55.728826,0
160.238195,55.727871,0
160.239354,55.727467,0
160.23988,55.727195,0
160.240577,55.726639,0
160.241682,55.72589,0
160.242294,55.725418,0
160.242798,55.724881,0
160.243592,55.724367,0
160.244772,55.723672,0
160.245684,55.723255,0
160.246639,55.722736,0
160.247401,55.722083,0
160.247969,55.721696,0
160.249053,55.720717,0
160.250265,55.719751,0
160.251317,55.719309,0
160.252089,55.719279,0
160.253613,55.719376,0
160.255909,55.719769,0
160.257808,55.719944,0
160.259846,55.720059,0
160.261498,55.72024,0
160.263794,55.720349,0
160.266498,55.720772,0
160.267764,55.720615,0
160.269373,55.72047,0
160.270189,55.720071,0
160.27109,55.719479,0
160.272098,55.718971,0
160.273729,55.718645,0
160.275961,55.718427,0
160.27757,55.717944,0
160.279716,55.717134,0
160.283214,55.715333,0
160.284265,55.7152,0
160.285939,55.7152,0
160.28669,55.714995,0
160.288921,55.714668,0
160.291625,55.714197,0
160.293663,55.714052,0
160.29568,55.714197,0
160.298255,55.714789,0
160.302613,55.71572,0
160.304953,55.716627,0
160.306707,55.717103,0
160.307817,55.717519,0
160.308451,55.717794,0
160.309163,55.718168,0
160.309842,55.71858,0
160.310361,55.719031,0
160.311402,55.720479,0
160.311736,55.721068,0
160.311707,55.721406,0
160.311472,55.722204,0
160.311429,55.7226,0
160.311023,55.723536,0
160.310692,55.72376,0
160.310571,55.7239,0
160.310478,55.724191,0
160.310485,55.724549,0
160.310422,55.724644,0
160.310113,55.724922,0
160.310029,55.725212,0
160.309736,55.72562,0
160.309713,55.725703,0
160.309773,55.726116,0
160.30946,55.726492,0
160.309173,55.727048,0
160.309177,55.727128,0
160.309304,55.727385,0
160.309352,55.727667,0
160.309451,55.727885,0
160.309564,55.728056,0
160.309828,55.728272,0
160.310604,55.728785,0
160.311169,55.728975,0
160.311589,55.729026,0
160.31225,55.72919,0
160.312473,55.729304,0
160.312841,55.729611,0
160.313039,55.730376,0
160.313283,55.730594,0
160.313381,55.730734,0
160.313386,55.731232,0
160.313308,55.731713,0
160.313351,55.731774,0
160.31371,55.731979,0
160.313854,55.732237,0
160.314073,55.732516,0
160.314592,55.732866,0
160.315097,55.733553,0
160.315161,55.733699,0
160.315515,55.734002,0
160.315574,55.734089,0
160.315572,55.734212,0
160.315433,55.73442,0
160.315436,55.734607,0
160.315632,55.734663,0
160.316139,55.734585,0
160.317183,55.734588,0
160.318099,55.734927,0
160.318684,55.73536,0
160.319391,55.736258,0
160.319558,55.736395,0
160.320105,55.736746,0
160.320872,55.737146,0
160.321351,55.737464,0
160.321562,55.737644,0
160.321731,55.737827,0
160.321869,55.738053,0
160.32215,55.7383,0
160.322398,55.738619,0
160.32241,55.738884,0
160.32233,55.739193,0
160.322178,55.73957,0
160.322172,55.739816,0
160.322081,55.740039,0
160.322322,55.74042,0
160.322183,55.740783,0
160.322269,55.741043,0
160.322258,55.741614,0
160.322424,55.741725,0
160.323011,55.741727,0
160.323301,55.741656,0
160.323417,55.741688,0
160.323465,55.741766,0
160.323275,55.741945,0
160.323251,55.742109,0
160.323304,55.742188,0
160.323272,55.742364,0
160.323041,55.742643,0
160.322985,55.742804,0
160.323798,55.7447,0
160.323744,55.74496,0
160.323755,55.745237,0
160.324157,55.746297,0
160.32427,55.746992,0
160.324123,55.748009,0
160.324208,55.748462,0
160.324391,55.748649,0
160.324809,55.748867,0
160.325002,55.749024,0
160.325045,55.749247,0
160.324992,55.749452,0
160.324294,55.750032,0
160.323704,55.750841,0
160.32339,55.751191,0
160.32346,55.75133,0
160.323679,55.751421,0
160.324307,55.751448,0
160.324881,55.751354,0
160.32509,55.751421,0
160.325128,55.751563,0
160.325241,55.751662,0
160.325893,55.751982,0
160.326966,55.752435,0
160.327309,55.752779,0
160.327459,55.753063,0
160.327298,55.75357,0
160.327084,55.753812,0
160.326633,55.75421,0
160.32585,55.755062,0
160.325217,55.755436,0
160.324444,55.755695,0
160.32356,55.755879,0
160.322806,55.755934,0
160.321921,55.75592,0
160.321907,55.756091,0
160.321826,55.756227,0
160.321877,55.756358,0
160.322126,55.756575,0
160.322325,55.756637,0
160.3226,55.756792,0
160.322568,55.756889,0
160.322646,55.756984,0
160.322633,55.757113,0
160.322927,55.757348,0
160.322882,55.757508,0
160.3231,55.757737,0
160.323033,55.757845,0
160.323036,55.757947,0
160.323309,55.758074,0
160.323351,55.758151,0
160.323283,55.75842,0
160.323317,55.758609,0
160.32324,55.758676,0
160.323246,55.758796,0
160.323297,55.758837,0
160.32363,55.758927,0
160.323689,55.758976,0
160.323779,55.759116,0
160.323803,55.759364,0
160.324257,55.759598,0
160.325026,55.760072,0
160.325093,55.760163,0
160.325026,55.760513,0
160.325061,55.760626,0
160.325486,55.76095,0
160.325479,55.761065,0
160.325558,55.761164,0
160.325562,55.761223,0
160.325503,55.761289,0
160.325129,55.761548,0
160.3249,55.761657,0
160.324782,55.7618,0
160.324519,55.761934,0
160.324472,55.762008,0
160.324392,55.76275,0
160.324155,55.76356,0
160.324026,55.763823,0
160.324011,55.764123,0
160.323879,55.764462,0
160.323812,55.76481,0
160.323786,55.765412,0
160.323924,55.766266,0
160.323946,55.766708,0
160.323884,55.767229,0
160.323923,55.767896,0
160.324076,55.768795,0
160.324049,55.769121,0
160.324238,55.770176,0
160.324451,55.770581,0
160.324481,55.770712,0
160.324415,55.770886,0
160.324213,55.771049,0
160.324192,55.771129,0
160.324598,55.771925,0
160.324759,55.771999,0
160.325034,55.772275,0
160.325416,55.77257,0
160.325804,55.772762,0
160.326252,55.772904,0
160.326353,55.772973,0
160.326703,55.773295,0
160.32676,55.773426,0
160.32687,55.773546,0
160.327116,55.773735,0
160.327126,55.773927,0
160.327255,55.774023,0
160.32733,55.774197,0
160.327317,55.774298,0
160.327275,55.77434,0
160.32726,55.774524,0
160.327177,55.774668,0
160.327237,55.7748,0
160.327612,55.775117,0
160.327616,55.775306,0
160.327667,55.775384,0
160.328023,55.775653,0
160.328114,55.776013,0
160.328382,55.776238,0
160.328694,55.776651,0
160.329662,55.777323,0
160.329795,55.77754,0
160.329894,55.777633,0
160.329951,55.777755,0
160.329883,55.777898,0
160.329891,55.778155,0
160.330077,55.778549,0
160.330049,55.778665,0
160.330084,55.77876,0
160.330401,55.779187,0
160.330407,55.779445,0
160.330508,55.779747,0
160.331007,55.780097,0
160.331624,55.780425,0
160.331813,55.780468,0
160.332215,55.780703,0
160.332297,55.780807,0
160.332388,55.781108,0
160.332598,55.781452,0
160.332778,55.782268,0
160.333057,55.782557,0
160.333272,55.783109,0
160.333407,55.783238,0
160.333663,55.78365,0
160.333624,55.784478,0
160.33347,55.784857,0
160.333384,55.785267,0
160.333416,55.785587,0
160.33375,55.78586,0
160.333973,55.786132,0
160.334262,55.786297,0
160.334382,55.78643,0
160.334534,55.786517,0
160.334793,55.786792,0
160.335001,55.786892,0
160.335299,55.787139,0
160.335597,55.787261,0
160.335747,55.787444,0
160.336659,55.788069,0
160.3369,55.788271,0
160.337115,55.788795,0
160.337389,55.789281,0
160.33779,55.78969,0
160.337822,55.789787,0
160.337787,55.790026,0
160.337886,55.790192,0
160.338402,55.790745,0
160.338511,55.790821,0
160.338512,55.790979,0
160.338686,55.791371,0
160.339017,55.791671,0
160.339564,55.791951,0
160.339757,55.792104,0
160.339947,55.792201,0
160.340015,55.792294,0
160.340257,55.792481,0
160.340276,55.792513,0
160.340234,55.792624,0
160.340383,55.792875,0
160.340611,55.793108,0
160.340605,55.793152,0
160.340748,55.79339,0
160.340768,55.793499,0
160.341018,55.793763,0
160.341904,55.794543,0
160.342741,55.79519,0
160.343149,55.79573,0
160.343355,55.796081,0
160.343359,55.796916,0
160.343681,55.797187,0
160.343744,55.79735,0
160.343757,55.797623,0
160.343839,55.797695,0
160.343908,55.797832,0
160.343972,55.797861,0
160.344064,55.798096,0
160.344229,55.798231,0
160.344184,55.798284,0
160.344314,55.798801,0
160.34448,55.798936,0
160.344477,55.799036,0
160.344605,55.799156,0
160.344593,55.799346,0
160.344679,55.79939,0
160.344805,55.799904,0
160.345078,55.800197,0
160.3452,55.800436,0
160.345477,55.80061,0
160.345413,55.800664,0
160.345651,55.801032,0
160.346155,55.801259,0
160.346256,55.801377,0
160.346228,55.801523,0
160.346382,55.801592,0
160.346348,55.801684,0
160.346623,55.801867,0
160.346637,55.801961,0
160.347224,55.802081,0
160.347444,55.802218,0
160.347557,55.802389,0
160.347821,55.802451,0
160.347842,55.802494,0
160.347806,55.802614,0
160.347934,55.802672,0
160.347947,55.802779,0
160.348127,55.802947,0
160.348123,55.803088,0
160.348555,55.803427,0
160.348939,55.803598,0
160.34903,55.80374,0
160.349052,55.803978,0
160.349083,55.804025,0
160.349195,55.804068,0
160.349199,55.804156,0
160.349305,55.80426,0
160.349548,55.804618,0
160.349781,55.804866,0
160.349898,55.805188,0
160.350009,55.805336,0
160.350197,55.805438,0
160.350916,55.806148,0
160.351183,55.806328,0
160.351837,55.806961,0
160.352446,55.807679,0
160.353247,55.808351,0
160.353465,55.808816,0
160.353753,55.809223,0
160.354017,55.809718,0
160.354154,55.809823,0
160.354759,55.810018,0
160.355185,55.810006,0
160.355356,55.810048,0
160.355476,55.810127,0
160.355619,55.810141,0
160.356069,55.810319,0
160.356508,55.810357,0
160.356934,55.810455,0
160.357048,55.810553,0
160.357669,55.810589,0
160.357977,55.810696,0
160.358254,55.810689,0
160.359153,55.810985,0
160.359297,55.810979,0
160.359666,55.8107,0
160.359702,55.810441,0
160.359872,55.810028,0
160.359891,55.80984,0
160.359856,55.809599,0
160.359959,55.809378,0
160.360206,55.808488,0
160.360325,55.807899,0
160.360415,55.807694,0
160.360548,55.807496,0
160.360865,55.807188,0
160.361272,55.8072,0
160.361503,55.807343,0
160.361612,55.807361,0
160.362104,55.807792,0
160.362427,55.807996,0
160.362748,55.808327,0
160.362808,55.808456,0
160.362987,55.808564,0
160.363086,55.808579,0
160.363149,55.808716,0
160.363319,55.808757,0
160.363489,55.808867,0
160.363522,55.808997,0
160.363572,55.809056,0
160.363796,55.809148,0
160.364073,55.809185,0
160.364029,55.809265,0
160.364255,55.809383,0
160.36443,55.809567,0
160.36442,55.809651,0
160.364497,55.809863,0
160.365361,55.810699,0
160.365519,55.811018,0
160.365526,55.811282,0
160.365556,55.811349,0
160.365706,55.811357,0
160.365818,55.811558,0
160.365894,55.81162,0
160.366051,55.811874,0
160.366081,55.812111,0
160.366287,55.812321,0
160.366536,55.812739,0
160.366891,55.813039,0
160.36697,55.813187,0
160.367084,55.813251,0
160.367069,55.813341,0
160.367181,55.813434,0
160.367206,55.813526,0
160.367433,55.813713,0
160.367464,55.813828,0
160.367841,55.814028,0
160.367861,55.814163,0
160.368018,55.814442,0
160.367895,55.814587,0
160.367872,55.814644,0
160.367899,55.814707,0
160.368304,55.814889,0
160.3684,55.815034,0
160.368801,55.81509,0
160.368845,55.815111,0
160.368833,55.815167,0
160.368976,55.815242,0
160.368996,55.815306,0
160.369605,55.815497,0
160.369683,55.815681,0
160.369788,55.815724,0
160.370004,55.815907,0
160.370136,55.816315,0
160.37033,55.816596,0
160.370309,55.817289,0
160.370975,55.816929,0
160.371136,55.816807,0
160.371544,55.816605,0
160.371776,55.816548,0
160.372209,55.816186,0
160.372563,55.816016,0
160.373421,55.815874,0
160.373916,55.815727,0
160.37559,55.81564,0
160.376608,55.815512,0
160.376979,55.81552,0
160.378513,55.815266,0
160.380525,55.815461,0
160.381642,55.81562,0
160.3841,55.816165,0
160.385436,55.816145,0
160.385923,55.816074,0
160.386603,55.816079,0
160.387071,55.816139,0
160.387764,55.816379,0
160.388737,55.816642,0
160.389248,55.81684,0
160.389276,55.816928,0
160.389235,55.817017,0
160.389356,55.81724,0
160.389845,55.817467,0
160.389977,55.817666,0
160.390134,55.817744,0
160.390555,55.818303,0
160.390893,55.818605,0
160.391664,55.819499,0
160.391796,55.8197,0
160.391857,55.820242,0
160.391987,55.820599,0
160.392482,55.821393,0
160.392493,55.821588,0
160.392976,55.821721,0
160.39329,55.821887,0
160.393448,55.8221,0
160.394044,55.822714,0
160.394418,55.823172,0
160.394948,55.823534,0
160.395333,55.82393,0
160.395521,55.824079,0
160.395687,55.824324,0
160.395827,55.824445,0
160.396006,55.82483,0
160.396071,55.825096,0
160.396356,55.825488,0
160.39646,55.825553,0
160.393524,55.827805,0
160.389074,55.829044,0
160.393524,55.827805,0
160.39646,55.825553,0
160.396356,55.825488,0
160.396071,55.825096,0
160.396006,55.82483,0
160.395827,55.824445,0
160.395687,55.824324,0
160.395521,55.824079,0
160.395333,55.82393,0
160.394948,55.823534,0
160.394418,55.823172,0
160.394044,55.822714,0
160.393448,55.8221,0
160.39329,55.821887,0
160.392976,55.821721,0
160.392493,55.821588,0
160.392482,55.821393,0
160.391987,55.820599,0
160.391857,55.820242,0
160.391796,55.8197,0
160.391664,55.819499,0
160.390893,55.818605,0
160.390555,55.818303,0
160.390134,55.817744,0
160.389977,55.817666,0
160.389845,55.817467,0
160.389356,55.81724,0
160.389235,55.817017,0
160.389276,55.816928,0
160.389248,55.81684,0
160.389156,55.816794,0
160.389008,55.81677,0
160.388737,55.816642,0
160.387529,55.816307,0
160.387071,55.816139,0
160.386603,55.816079,0
160.385923,55.816074,0
160.385436,55.816145,0
160.3841,55.816165,0
160.381642,55.81562,0
160.380525,55.815461,0
160.378513,55.815266,0
160.376979,55.81552,0
160.376608,55.815512,0
160.37559,55.81564,0
160.373916,55.815727,0
160.373421,55.815874,0
160.372563,55.816016,0
160.372209,55.816186,0
160.371776,55.816548,0
160.371544,55.816605,0
160.371136,55.816807,0
160.370975,55.816929,0
160.370309,55.817289,0
160.37033,55.816596,0
160.370136,55.816315,0
160.370004,55.815907,0
160.369788,55.815724,0
160.369683,55.815681,0
160.369605,55.815497,0
160.368996,55.815306,0
160.368953,55.815218,0
160.368825,55.815155,0
160.368828,55.815099,0
160.3684,55.815034,0
160.368304,55.814889,0
160.367899,55.814707,0
160.367872,55.814644,0
160.367895,55.814587,0
160.368018,55.814442,0
160.367861,55.814163,0
160.367841,55.814028,0
160.367464,55.813828,0
160.367433,55.813713,0
160.367206,55.813526,0
160.367181,55.813434,0
160.367069,55.813341,0
160.367084,55.813251,0
160.36697,55.813187,0
160.366891,55.813039,0
160.366536,55.812739,0
160.366287,55.812321,0
160.366081,55.812111,0
160.366051,55.811874,0
160.365894,55.81162,0
160.365818,55.811558,0
160.365706,55.811357,0
160.365556,55.811349,0
160.365526,55.811282,0
160.365519,55.811018,0
160.365361,55.810699,0
160.364497,55.809863,0
160.36442,55.809651,0
160.36443,55.809567,0
160.364255,55.809383,0
160.364029,55.809265,0
160.364073,55.809185,0
160.363796,55.809148,0
160.363572,55.809056,0
160.363522,55.808997,0
160.363489,55.808867,0
160.363319,55.808757,0
160.363149,55.808716,0
160.363086,55.808579,0
160.362987,55.808564,0
160.362808,55.808456,0
160.362748,55.808327,0
160.362427,55.807996,0
160.362104,55.807792,0
160.361612,55.807361,0
160.361503,55.807343,0
160.361272,55.8072,0
160.360865,55.807188,0
160.360548,55.807496,0
160.360415,55.807694,0
160.360325,55.807899,0
160.360206,55.808488,0
160.359959,55.809378,0
160.359856,55.809599,0
160.359891,55.80984,0
160.359872,55.810028,0
160.359702,55.810441,0
160.359666,55.8107,0
160.359297,55.810979,0
160.359153,55.810985,0
160.358254,55.810689,0
160.357977,55.810696,0
160.357669,55.810589,0
160.357048,55.810553,0
160.356934,55.810455,0
160.356508,55.810357,0
160.356069,55.810319,0
160.355619,55.810141,0
160.355476,55.810127,0
160.355356,55.810048,0
160.355185,55.810006,0
160.354759,55.810018,0
160.354154,55.809823,0
160.354017,55.809718,0
160.353753,55.809223,0
160.353465,55.808816,0
160.353247,55.808351,0
160.352446,55.807679,0
160.351837,55.806961,0
160.351183,55.806328,0
160.350916,55.806148,0
160.350197,55.805438,0
160.350009,55.805336,0
160.349898,55.805188,0
160.349781,55.804866,0
160.349548,55.804618,0
160.349305,55.80426,0
160.349199,55.804156,0
160.349195,55.804068,0
160.349083,55.804025,0
160.349052,55.803978,0
160.34903,55.80374,0
160.348939,55.803598,0
160.348555,55.803427,0
160.348123,55.803088,0
160.348127,55.802947,0
160.347947,55.802779,0
160.347934,55.802672,0
160.347806,55.802614,0
160.347842,55.802494,0
160.347821,55.802451,0
160.347557,55.802389,0
160.347444,55.802218,0
160.347224,55.802081,0
160.346637,55.801961,0
160.346623,55.801867,0
160.346348,55.801684,0
160.346382,55.801592,0
160.346228,55.801523,0
160.346256,55.801377,0
160.346155,55.801259,0
160.345651,55.801032,0
160.345413,55.800664,0
160.345477,55.80061,0
160.3452,55.800436,0
160.345078,55.800197,0
160.344805,55.799904,0
160.344679,55.79939,0
160.344593,55.799346,0
160.344605,55.799156,0
160.344477,55.799036,0
160.34448,55.798936,0
160.344314,55.798801,0
160.344184,55.798284,0
160.344229,55.798231,0
160.344064,55.798096,0
160.343972,55.797861,0
160.343908,55.797832,0
160.343839,55.797695,0
160.343757,55.797623,0
160.343744,55.79735,0
160.343681,55.797187,0
160.343359,55.796916,0
160.343355,55.796081,0
160.343149,55.79573,0
160.342741,55.79519,0
160.341904,55.794543,0
160.341018,55.793763,0
160.340768,55.793499,0
160.340748,55.79339,0
160.340605,55.793152,0
160.340611,55.793108,0
160.340383,55.792875,0
160.340234,55.792624,0
160.340276,55.792513,0
160.340257,55.792481,0
160.340015,55.792294,0
160.339947,55.792201,0
160.339757,55.792104,0
160.339564,55.791951,0
160.339017,55.791671,0
160.338686,55.791371,0
160.338512,55.790979,0
160.338511,55.790821,0
160.338402,55.790745,0
160.337886,55.790192,0
160.337787,55.790026,0
160.337822,55.789787,0
160.33779,55.78969,0
160.337389,55.789281,0
160.337115,55.788795,0
160.3369,55.788271,0
160.336659,55.788069,0
160.335747,55.787444,0
160.335597,55.787261,0
160.335299,55.787139,0
160.335001,55.786892,0
160.334793,55.786792,0
160.334534,55.786517,0
160.334382,55.78643,0
160.334262,55.786297,0
160.333973,55.786132,0
160.33375,55.78586,0
160.333416,55.785587,0
160.333384,55.785267,0
160.33347,55.784857,0
160.333624,55.784478,0
160.333663,55.78365,0
160.333407,55.783238,0
160.333272,55.783109,0
160.333057,55.782557,0
160.332778,55.782268,0
160.332598,55.781452,0
160.332388,55.781108,0
160.332297,55.780807,0
160.332215,55.780703,0
160.331813,55.780468,0
160.331624,55.780425,0
160.331007,55.780097,0
160.330508,55.779747,0
160.330407,55.779445,0
160.330401,55.779187,0
160.330084,55.77876,0
160.330049,55.778665,0
160.330077,55.778549,0
160.329891,55.778155,0
160.329883,55.777898,0
160.329951,55.777755,0
160.329894,55.777633,0
160.329795,55.77754,0
160.329662,55.777323,0
160.328694,55.776651,0
160.328382,55.776238,0
160.328114,55.776013,0
160.328023,55.775653,0
160.327667,55.775384,0
160.327616,55.775306,0
160.327612,55.775117,0
160.327237,55.7748,0
160.327177,55.774668,0
160.32726,55.774524,0
160.327275,55.77434,0
160.327317,55.774298,0
160.32733,55.774197,0
160.327255,55.774023,0
160.327126,55.773927,0
160.327116,55.773735,0
160.32687,55.773546,0
160.32676,55.773426,0
160.326703,55.773295,0
160.326353,55.772973,0
160.326252,55.772904,0
160.325804,55.772762,0
160.325416,55.77257,0
160.325034,55.772275,0
160.324759,55.771999,0
160.324598,55.771925,0
160.324279,55.771337,0
160.324193,55.771082,0
160.324415,55.770886,0
160.324481,55.770712,0
160.324451,55.770581,0
160.324238,55.770176,0
160.324075,55.769339,0
160.324049,55.769121,0
160.324076,55.768795,0
160.323923,55.767896,0
160.323884,55.767229,0
160.323946,55.766708,0
160.323924,55.766266,0
160.323786,55.765412,0
160.323446,55.765353,0
160.323234,55.765277,0
160.322939,55.765241,0
160.322408,55.76541,0
160.322134,55.765434,0
160.321357,55.765825,0
160.321067,55.76625,0
160.320718,55.766483,0
160.320273,55.766549,0
160.319721,55.766407,0
160.319747,55.766646,0
160.319635,55.766839,0
160.319527,55.767141,0
160.319565,55.767282,0
160.317878,55.767581,0
160.317425,55.767542,0
160.317138,55.767626,0
160.316832,55.767614,0
160.315815,55.767702,0
160.315091,55.767684,0
160.314724,55.767628,0
160.314297,55.767035,0
160.314332,55.766832,0
160.314297,55.767035,0
160.314724,55.767628,0
160.315091,55.767684,0
160.315815,55.767702,0
160.316832,55.767614,0
160.317138,55.767626,0
160.317425,55.767542,0
160.317878,55.767581,0
160.319565,55.767282,0
160.319527,55.767141,0
160.319635,55.766839,0
160.319747,55.766646,0
160.319721,55.766407,0
160.320273,55.766549,0
160.320718,55.766483,0
160.321067,55.76625,0
160.321357,55.765825,0
160.322134,55.765434,0
160.322408,55.76541,0
160.322939,55.765241,0
160.323299,55.765034,0
160.323572,55.764575,0
160.324011,55.764123,0
160.324026,55.763823,0
160.324155,55.76356,0
160.324392,55.76275,0
160.324472,55.762008,0
160.324519,55.761934,0
160.324782,55.7618,0
160.3249,55.761657,0
160.325129,55.761548,0
160.325503,55.761289,0
160.325562,55.761223,0
160.325558,55.761164,0
160.325479,55.761065,0
160.325486,55.76095,0
160.325061,55.760626,0
160.325026,55.760513,0
160.325093,55.760163,0
160.325026,55.760072,0
160.324262,55.759591,0
160.323803,55.759364,0
160.323779,55.759116,0
160.323689,55.758976,0
160.32363,55.758927,0
160.323297,55.758837,0
160.323246,55.758796,0
160.32324,55.758676,0
160.323317,55.758609,0
160.323283,55.75842,0
160.323351,55.758151,0
160.323309,55.758074,0
160.323036,55.757947,0
160.323033,55.757845,0
160.3231,55.757737,0
160.32308,55.757689,0
160.322882,55.757508,0
160.322927,55.757348,0
160.322633,55.757113,0
160.322646,55.756984,0
160.322568,55.756889,0
160.322569,55.756833,0
160.3226,55.756792,0
160.322977,55.756707,0
160.322976,55.756629,0
160.322844,55.756572,0
160.322768,55.756345,0
160.322771,55.756258,0
160.322916,55.756169,0
160.323097,55.756165,0
160.323409,55.756008,0
160.32356,55.755879,0
160.324444,55.755695,0
160.325217,55.755436,0
160.32585,55.755062,0
160.326633,55.75421,0
160.327084,55.753812,0
160.327298,55.75357,0
160.327459,55.753063,0
160.327309,55.752779,0
160.326966,55.752435,0
160.325893,55.751982,0
160.325241,55.751662,0
160.325128,55.751563,0
160.32509,55.751421,0
160.324881,55.751354,0
160.324307,55.751448,0
160.323679,55.751421,0
160.32346,55.75133,0
160.32339,55.751191,0
160.323704,55.750841,0
160.324294,55.750032,0
160.324992,55.749452,0
160.325045,55.749247,0
160.325002,55.749024,0
160.324809,55.748867,0
160.324391,55.748649,0
160.324208,55.748462,0
160.324123,55.748009,0
160.32427,55.746992,0
160.324157,55.746297,0
160.323755,55.745237,0
160.323744,55.74496,0
160.323798,55.7447,0
160.322985,55.742804,0
160.323041,55.742643,0
160.323272,55.742364,0
160.323304,55.742188,0
160.323251,55.742109,0
160.323275,55.741945,0
160.323465,55.741766,0
160.323417,55.741688,0
160.323301,55.741656,0
160.323011,55.741727,0
160.322424,55.741725,0
160.322258,55.741614,0
160.322269,55.741043,0
160.322183,55.740783,0
160.322322,55.74042,0
160.322081,55.740039,0
160.322172,55.739816,0
160.322178,55.73957,0
160.32233,55.739193,0
160.32241,55.738884,0
160.322398,55.738619,0
160.322335,55.738511,0
160.321869,55.738053,0
160.321731,55.737827,0
160.321562,55.737644,0
160.321351,55.737464,0
160.320872,55.737146,0
160.320105,55.736746,0
160.319391,55.736258,0
160.318684,55.73536,0
160.318099,55.734927,0
160.317183,55.734588,0
160.316139,55.734585,0
160.315632,55.734663,0
160.315436,55.734607,0
160.315433,55.73442,0
160.315572,55.734212,0
160.315574,55.734089,0
160.315515,55.734002,0
160.315161,55.733699,0
160.315097,55.733553,0
160.314592,55.732866,0
160.314073,55.732516,0
160.313854,55.732237,0
160.31371,55.731979,0
160.313351,55.731774,0
160.313308,55.731713,0
160.313386,55.731232,0
160.313381,55.730734,0
160.313283,55.730594,0
160.313039,55.730376,0
160.312841,55.729611,0
160.312473,55.729304,0
160.31225,55.72919,0
160.311589,55.729026,0
160.311169,55.728975,0
160.310604,55.728785,0
160.309828,55.728272,0
160.309564,55.728056,0
160.309451,55.727885,0
160.309352,55.727667,0
160.309304,55.727385,0
160.309177,55.727128,0
160.309173,55.727048,0
160.30946,55.726492,0
160.309773,55.726116,0
160.309713,55.725703,0
160.309736,55.72562,0
160.310029,55.725212,0
160.310113,55.724922,0
160.310422,55.724644,0
160.310485,55.724549,0
160.310478,55.724191,0
160.310571,55.7239,0
160.310692,55.72376,0
160.311023,55.723536,0
160.311429,55.7226,0
160.311472,55.722204,0
160.311707,55.721406,0
160.311736,55.721068,0
160.311402,55.720479,0
160.310361,55.719031,0
160.309842,55.71858,0
160.309163,55.718168,0
160.308451,55.717794,0
160.307817,55.717519,0
160.306707,55.717103,0
160.304953,55.716627,0
160.302613,55.71572,0
160.300226,55.714408,0
160.299583,55.713828,0
160.298874,55.713308,0
160.297458,55.71187,0
160.292426,55.707939,0
160.29142,55.707194,0
160.290149,55.706354,0
160.28826,55.705226,0
160.286707,55.704051,0
160.286117,55.703532,0
160.284787,55.70307,0
160.284207,55.702816,0
160.28223,55.701434,0
160.281635,55.701099,0
160.281317,55.700726,0
160.280839,55.700394,0
160.279881,55.699812,0
160.277843,55.698964,0
160.275319,55.697675,0
160.274561,55.697458,0
160.273731,55.697285,0
160.273016,55.697061,0
160.269636,55.696308,0
160.268508,55.695903,0
160.267674,55.69543,0
160.267111,55.695206,0
160.266521,55.694993,0
160.265109,55.694628,0
160.264142,55.69422,0
160.263704,55.694178,0
160.262337,55.694328,0
160.261844,55.694287,0
160.261216,55.694293,0
160.259696,55.694092,0
160.258773,55.693807,0
160.258489,55.693684,0
160.258237,55.693531,0
160.25805,55.693318,0
160.25766,55.692699,0
160.257461,55.692524,0
160.257037,55.692258,0
160.256771,55.691613,0
160.255095,55.68981,0
160.254683,55.689515,0
160.253957,55.689216,0
160.253117,55.688786,0
160.252799,55.68859,0
160.252298,55.688129,0
160.25202,55.687274,0
160.252038,55.686664,0
160.251556,55.686115,0
160.251449,55.685689,0
160.251193,55.685208,0
160.250963,55.684939,0
160.250122,55.684188,0
160.249807,55.6838,0
160.249602,55.683604,0
160.249223,55.683468,0
160.248708,55.683457,0
160.248196,55.683511,0
160.248129,55.683427,0
160.247347,55.683584,0
160.246355,55.683979,0
160.245983,55.684045,0
160.244888,55.684397,0
160.244182,55.684527,0
160.24377,55.684661,0
160.243513,55.684671,0
160.242934,55.684875,0
160.242623,55.68495,0
160.242393,55.685052,0
160.242235,55.685188,0
160.242047,55.685507,0
160.241864,55.685679,0
160.241684,55.685793,0
160.241582,55.685991,0
160.241594,55.68606,0
160.243658,55.686309,0
160.2441,55.68642,0
160.24522,55.686795,0
160.245382,55.686896,0
160.245586,55.687088,0
160.245532,55.687214,0
160.245359,55.687271,0
160.245311,55.68745,0
160.245434,55.687562,0
160.245477,55.687668,0
160.245579,55.687779,0
160.24559,55.688103,0
160.245579,55.687779,0
160.245477,55.687668,0
160.245434,55.687562,0
160.245311,55.68745,0
160.245359,55.687271,0
160.245532,55.687214,0
160.245586,55.687088,0
160.245382,55.686896,0
160.24522,55.686795,0
160.2441,55.68642,0
160.243658,55.686309,0
160.241594,55.68606,0
160.241582,55.685991,0
160.241684,55.685793,0
160.241864,55.685679,0
160.242047,55.685507,0
160.242235,55.685188,0
160.242393,55.685052,0
160.242623,55.68495,0
160.242934,55.684875,0
160.243513,55.684671,0
160.24377,55.684661,0
160.244182,55.684527,0
160.244888,55.684397,0
160.245983,55.684045,0
160.246355,55.683979,0
160.247347,55.683584,0
160.248129,55.683427,0
160.248279,55.683175,0
160.248944,55.682496,0
160.249198,55.682058,0
160.249319,55.681688,0
160.249505,55.681383,0
160.249976,55.680894,0
160.250508,55.680164,0
160.251357,55.679325,0
160.251651,55.678623,0
160.251936,55.677515,0
160.251886,55.676607,0
160.25154,55.674898,0
160.25088,55.673052,0
160.250712,55.672728,0
160.250388,55.672412,0
160.248744,55.671245,0
160.248555,55.671059,0
160.248448,55.670846,0
160.248307,55.670331,0
160.246098,55.667129,0
160.245801,55.666512,0
160.245403,55.665185,0
160.244463,55.663416,0
160.244349,55.662906,0
160.244333,55.662358,0
160.24404,55.661731,0
160.243979,55.661274,0
160.244059,55.660504,0
160.24401,55.659918,0
160.244129,55.658698,0
160.244185,55.658623,0
160.244634,55.658304,0
160.244767,55.65817,0
160.244966,55.657822,0
160.24495,55.657522,0
160.245052,55.657194,0
160.245582,55.655782,0
160.24577,55.655103,0
160.246202,55.653971,0
160.247071,55.652251,0
160.247779,55.65058,0
160.248294,55.650029,0
160.248832,55.649616,0
160.250382,55.648919,0
160.251189,55.648366,0
160.25153,55.648078,0
160.251609,55.647729,0
160.251777,55.64753,0
160.252052,55.647366,0
160.252515,55.647161,0
160.253113,55.646811,0
160.253647,55.646583,0
160.253894,55.646388,0
160.253977,55.646269,0
160.254511,55.645138,0
160.254592,55.644861,0
160.254641,55.644464,0
160.254712,55.64426,0
160.255062,55.643738,0
160.255308,55.643486,0
160.255326,55.6434,0
160.255308,55.643486,0
160.255062,55.643738,0
160.254712,55.64426,0
160.254641,55.644464,0
160.254592,55.644861,0
160.254511,55.645138,0
160.253977,55.646269,0
160.253894,55.646388,0
160.253647,55.646583,0
160.253113,55.646811,0
160.252515,55.647161,0
160.252052,55.647366,0
160.251777,55.64753,0
160.251609,55.647729,0
160.25153,55.648078,0
160.251189,55.648366,0
160.250382,55.648919,0
160.248832,55.649616,0
160.248294,55.650029,0
160.247779,55.65058,0
160.246811,55.651126,0
160.244749,55.651716,0
160.242567,55.652183,0
160.241816,55.652271,0
160.24123,55.652284,0
160.240168,55.652274,0
160.239329,55.652178,0
160.238856,55.652023,0
160.238234,55.651895,0
160.237345,55.651641,0
160.236729,55.651503,0
160.234984,55.651447,0
160.233876,55.651338,0
160.232451,55.651335,0
160.230481,55.651771,0
160.230143,55.651874,0
160.22954,55.651957,0
160.229192,55.652044,0
160.228395,55.652376,0
160.227664,55.652541,0
160.226492,55.653092,0
160.225728,55.653346,0
160.225127,55.653232,0
160.224404,55.65298,0
160.224337,55.652688,0
160.224316,55.65093,0
160.223981,55.650619,0
160.223835,55.65032,0
160.223639,55.650093,0
160.223601,55.649765,0
160.223284,55.649383,0
160.221514,55.649303,0
160.22067,55.649086,0
160.219946,55.648851,0
160.219394,55.648745,0
160.218771,55.648572,0
160.218368,55.648327,0
160.2181,55.648068,0
160.217624,55.647485,0
160.217573,55.647412,0
160.217477,55.646984,0
160.217174,55.646552,0
160.217158,55.646333,0
160.217281,55.64572,0
160.217834,55.645295,0
160.217908,55.645061,0
160.217706,55.644812,0
160.217306,55.644443,0
160.217407,55.644049,0
160.217457,55.643656,0
160.217606,55.643345,0
160.217742,55.642389,0
160.217969,55.641234,0
160.216997,55.641448,0</coordinates></LineString></Placemark></Document></kml>
