<?xml version="1.0" encoding="UTF-8"?><kml xmlns="http://www.opengis.net/kml/2.2"><Document>
								 <name>Маршрут Верхне-Паратунские термальные источники. Маршрут загрузил(а) Roman Pozdny</name>
								 <description>Скачено с сайта https://idilesom.com</description> <Placemark><LineString><tessellate>1</tessellate> <coordinates>
								158.23438297666,52.94538496505,0
								158.22974811948,52.94538496505,0
								158.2258857385,52.945281525897,0
								158.22193752683,52.944712606136,0
								158.21970592893,52.942954079573,0
								158.21601520933,52.939747170647,0
								158.21232448972,52.936074450728,0
								158.20992123045,52.933746509103,0
								158.20811878599,52.931780594211,0
								158.20631634153,52.930331968204,0
								158.20623051084,52.928935032922,0
								158.20587158203,52.927740313991,0
								158.20578575134,52.926084582916,0
								158.20569992065,52.924480533047,0
								158.20561408997,52.923135155072,0
								158.20561408997,52.921737987541,0
								158.2053565979,52.919926777341,0
								158.2053565979,52.918736512243,0
								158.20441246033,52.917649719884,0
								158.20372581482,52.915734828889,0
								158.20226669312,52.913302277694,0
								158.20192337036,52.911645994446,0
								158.20055007935,52.910093171378,0
								158.19969177246,52.907970889824,0
								158.19849014282,52.906521467061,0
								158.1972026825,52.904761388509,0
								158.19600105286,52.903518937067,0
								158.19411277771,52.901862279721,0
								158.19248199463,52.900464425815,0
								158.19125695853,52.898892374836,0
								158.18971200613,52.896873099661,0
								158.18885369925,52.896199987027,0
								158.18816705374,52.895216188217,0
								158.18825288443,52.893610994847,0
								158.18833871512,52.892212874763,0
								158.18833871512,52.890866494281,0
								158.18816705374,52.889830788528,0
								158.1877379003,52.888691483619,0
								158.18567796377,52.887655725899,0
								158.18353219656,52.886619943432,0
								158.18181558279,52.885843090342,0
								158.17992730765,52.885118014899,0
								158.1788115087,52.883926793202,0
								158.17700906424,52.883357066908,0
								158.17632241873,52.882217591862,0
								158.17520661978,52.880870900927,0
								158.17443414358,52.879679562544,0
								158.17288919119,52.878591790217,0
								158.17194505362,52.877400389219,0
								158.1705717626,52.876364361745,0
								158.16979928641,52.875794536086,0
								158.16851182608,52.875017489029,0
								158.16670938162,52.874033209439,0
								158.16542192129,52.872893489376,0
								158.16447778372,52.87216819738,0
								158.16319032339,52.871494701096,0
								158.16216035513,52.870510341562,0
								158.16121621756,52.869888629294,0
								158.16001458792,52.869318718555,0
								158.1586412969,52.868489744114,0
								158.15692468314,52.86740169112,0
								158.15563722281,52.866469052548,0
								158.15492716953,52.865625895073,0
								158.15389720126,52.864226872435,0
								158.15329638644,52.863294165615,0
								158.152867233,52.862050525333,0
								158.15338221713,52.860858669948,0
								158.15398303195,52.859614959862,0
								158.15527049228,52.858630330764,0
								158.15578547641,52.857542030507,0
								158.15698710605,52.856557354377,0
								158.15775958225,52.855209866627,0
								158.15801707431,52.853810508145,0
								158.15801707431,52.852618426445,0
								158.15767375156,52.850856158745,0
								158.15690127536,52.850026831543,0
								158.15655795261,52.848627305961,0
								158.15630046054,52.847279572018,0
								158.15612879916,52.84587995787,0
								158.15466967746,52.844272937837,0
								158.15329638644,52.842769542668,0
								158.15218058749,52.841577157763,0
								158.15183726474,52.840436585042,0
								158.15183726474,52.839555212875,0
								158.15200892612,52.838362739707,0
								158.15312472507,52.837066536081,0
								158.15449801608,52.8364443446,0
								158.15604296848,52.83577029377,0
								158.15775958225,52.834940678388,0
								158.15981951877,52.833903636876,0
								158.16153613254,52.833022132124,0
								158.1631903247,52.831914335205,0
								158.1639628009,52.830617939129,0
								158.16447778503,52.829528936527,0
								158.16456361572,52.827973171168,0
								158.16559358398,52.826209903077,0
								158.1661943988,52.825068926768,0
								158.16610466431,52.824886959464,0
								158.1663406987,52.824420185838,0
								158.16631924103,52.82416086499,0
								158.16601883362,52.824083068434,0
								158.16578279922,52.824018237864,0
								158.1654180188,52.824044170103,0
								158.16509615372,52.823953407197,0
								158.16468845795,52.823927474904,0
								158.16438805054,52.82387561027,0
								158.16406618545,52.82384967793,0
								158.16383015106,52.823784847011,0
								158.16352974365,52.823707049782,0
								158.16329370926,52.823655184885,0</coordinates></LineString></Placemark></Document></kml>