<?xml version="1.0" encoding="UTF-8"?><kml xmlns="http://www.opengis.net/kml/2.2"><Document>
								 <name>Маршрут Вилючинский водопад. Маршрут загрузил(а) Roman Pozdny</name>
								 <description>Скачено с сайта https://idilesom.com</description> <Placemark><LineString><tessellate>1</tessellate> <coordinates>
								158.21245372295,52.724908927411,0
								158.2127648592,52.724876438202,0
								158.21307599545,52.724811459713,0
								158.21345150471,52.724759476851,0
								158.21362316608,52.724668506695,0
								158.21382701397,52.724558042678,0
								158.21406304836,52.724447578382,0
								158.21430981159,52.7243111221,0
								158.21453511715,52.72418116334,0
								158.21471750736,52.724083694015,0
								158.21491062641,52.723966730538,0
								158.2151144743,52.72384326875,0
								158.21523249149,52.723791284734,0
								158.21572601795,52.723823774751,0
								158.21617662907,52.72384326875,0
								158.21651995182,52.723856264744,0
								158.21682035923,52.723856264744,0
								158.21709930897,52.723862762739,0
								158.2174962759,52.723888754712,0
								158.21780741215,52.723895252703,0
								158.21807563305,52.723921244657,0
								158.21838676929,52.723921244657,0
								158.21866571903,52.723895252703,0
								158.21891248226,52.72384326875,0
								158.21914851665,52.723810778747,0
								158.21940600872,52.723778288721,0
								158.21954548359,52.723752296682,0
								158.21980297565,52.723622336256,0
								158.2199639082,52.723544359814,0
								158.22015702724,52.723453387123,0
								158.22037160397,52.723349418101,0
								158.22069346905,52.723173969814,0
								158.22098314762,52.723057003897,0
								158.22119772434,52.722946535798,0
								158.22141230106,52.722862060005,0
								158.22159469128,52.722803576667,0
								158.22178781033,52.722719100596,0
								158.22204530239,52.722660617067,0
								158.22230279446,52.722582638906,0
								158.22257101536,52.722524155194,0
								158.22275340557,52.722478667808,0
								158.2230001688,52.722394191108,0
								158.22323620319,52.722361700026,0
								158.22349369526,52.722283721331,0
								158.22363317013,52.722212240737,0
								158.22384774685,52.722069279199,0
								158.22397649288,52.72190032405,0
								158.22415888309,52.72174436487,0
								158.22431981564,52.72161439846,0
								158.2244592905,52.721510425054,0
								158.22467386723,52.721445441549,0
								158.22489917278,52.721399953038,0
								158.2252317667,52.721289480742,0
								158.22556436062,52.721224496908,0
								158.22585403919,52.721159512977,0
								158.22613298893,52.721107525762,0
								158.226390481,52.721036043241,0
								158.22663724422,52.721010049568,0
								158.22681963444,52.720984055879,0
								158.22714149952,52.720938566887,0
								158.22753846645,52.720899576285,0
								158.22793543339,52.720828093423,0
								158.22826802731,52.720769607358,0
								158.22849333286,52.720724118142,0
								158.22870790958,52.720737115065,0
								158.22899758816,52.720724118142,0
								158.22922289371,52.720678628878,0
								158.22952330112,52.720620142613,0
								158.22967350483,52.720600647173,0
								158.22987735271,52.720542160803,0
								158.23016703129,52.720431686335,0
								158.2303494215,52.720379698253,0
								158.23056399822,52.72025622631,0
								158.23078930378,52.720165246759,0
								158.23111116886,52.720067768459,0
								158.23144376278,52.719976788516,0
								158.23173344135,52.719898805556,0
								158.23211967945,52.719788329458,0
								158.2324630022,52.719716844775,0
								158.23267757893,52.719638861351,0
								158.23297798634,52.719586872324,0
								158.2332354784,52.719489392731,0
								158.23354661465,52.719437403526,0
								158.23383629322,52.719346422267,0
								158.23421180248,52.719248942137,0
								158.23458731174,52.719157960486,0
								158.2349306345,52.719092973476,0
								158.23522031307,52.719021487653,0
								158.23547780514,52.718950001713,0
								158.23577821255,52.718878515656,0
								158.23604643345,52.718826525723,0
								158.23632538319,52.718716046908,0
								158.23670089245,52.71861856537,0
								158.23696911335,52.718521083613,0</coordinates></LineString></Placemark></Document></kml>