<?xml version="1.0" encoding="UTF-8"?><kml xmlns="http://www.opengis.net/kml/2.2"><Document>
								 <name>Маршрут Водопад Спокойный (Косы Вероники). Маршрут загрузил(а) Roman Pozdny</name>
								 <description>Скачено с сайта https://idilesom.com</description> <Placemark><LineString><tessellate>1</tessellate> <coordinates>
								158.1584072113,52.661287716886,0
								158.15905094147,52.661287716886,0
								158.15969467163,52.661287716886,0
								158.16020965576,52.661235658335,0
								158.16098213196,52.661131541045,0
								158.16171169281,52.660871246735,0
								158.16201210022,52.660689039796,0
								158.16235542297,52.660480802364,0
								158.16295623779,52.660194474276,0
								158.16355705261,52.659934174386,0
								158.16415786743,52.659543721645,0
								158.16471576691,52.65928341788,0
								158.165102005,52.658945020668,0
								158.16531658173,52.658502497284,0
								158.16617488861,52.658086000594,0
								158.16668987274,52.657721562736,0
								158.16711902618,52.65735712184,0
								158.16754817963,52.657018709716,0
								158.16832065582,52.65665426296,0
								158.16900730133,52.656263780921,0
								158.16952228546,52.655977425209,0
								158.17020893097,52.655612969772,0
								158.17102432251,52.655430740915,0
								158.17162513733,52.655378675387,0
								158.17239761353,52.655196445553,0
								158.17299842834,52.655196445553,0
								158.17381381989,52.65506628092,0
								158.17450046539,52.655092313878,0
								158.17510128021,52.65506628092,0
								158.17578792572,52.65506628092,0
								158.17651748657,52.65491008285,0
								158.17724704742,52.654779917365,0
								158.17806243896,52.654493551933,0
								158.17853450775,52.654285284987,0
								158.17917823792,52.653946849083,0
								158.17973613739,52.653660478195,0
								158.18037986755,52.653790647013,0
								158.18093776703,52.653998916316,0
								158.18136692047,52.654259251549,0
								158.18192481995,52.654545618515,0
								158.18243980408,52.654753884221,0
								158.18321228027,52.654571651783,0
								158.18385601044,52.654675784698,0
								158.18445682526,52.654571651783,0
								158.18462848663,52.65450006026,0
								158.18490743637,52.654480535278,0
								158.18504691124,52.654539110196,0
								158.18504691124,52.654669276398,0
								158.18485915661,52.654838491881,0
								158.18474650383,52.655010960834,0
								158.18456411362,52.655160650317,0
								158.18440854549,52.655329863899,0
								158.18430662155,52.655453519563,0
								158.18430662155,52.655580428961,0
								158.18434417248,52.655717100207,0
								158.18449437618,52.65578543567,0
								158.18466603756,52.655847262902,0
								158.18489670753,52.655873295394,0
								158.18514347076,52.655873295394,0
								158.18531513214,52.655870041334,0
								158.18554580212,52.655857025088,0
								158.18572819233,52.655870041334,0
								158.18595349789,52.655857025088,0
								158.18620562553,52.655850516964,0
								158.18642020226,52.655857025088,0
								158.18668842316,52.65583424665,0
								158.18698883057,52.655814722265,0
								158.18719804287,52.655795197871,0
								158.18749308586,52.655739878707,0
								158.18779349327,52.655717100207,0
								158.18799734116,52.655687813547,0
								158.18822264671,52.655671543172,0
								158.18843722343,52.655743132777,0
								158.18865180016,52.655814722265,0
								158.18890929222,52.655847262902,0
								158.18919897079,52.655938376558,0
								158.18947792053,52.655957900888,0
								158.18975687027,52.655977425209,0
								158.19004654884,52.655990441419,0
								158.19033622742,52.655990441419,0
								158.19064736366,52.655996949522,0
								158.19099068642,52.655983933314,0
								158.19128036499,52.655964408996,0
								158.19160223007,52.655964408996,0
								158.19198846817,52.655925360333,0
								158.19227814674,52.655905835988,0
								158.19249272346,52.655918852219,0
								158.19276094437,52.655918852219,0
								158.19309353828,52.655918852219,0
								158.19340467453,52.655899327871,0
								158.19371581078,52.655853771027,0
								158.19398403168,52.655827738522,0
								158.19441318512,52.655853771027,0
								158.19464921951,52.655892819754,0
								158.19496035576,52.655840754776,0
								158.19522857666,52.655808214134,0
								158.19553971291,52.655795197871,0
								158.19573283195,52.655769165332,0
								158.19590449333,52.655762657194,0
								158.19614052773,52.655775673468,0
								158.19636583328,52.655814722265,0
								158.19650530815,52.655814722265,0
								158.1966984272,52.655801706003,0
								158.19676280022,52.655762657194,0
								158.19685935974,52.655717100207,0
								158.19697737694,52.655652018714,0
								158.19692373276,52.655599953451,0
								158.19692373276,52.65550883909,0
								158.19691300392,52.655450265471,0
								158.19689154625,52.655391691775,0
								158.19674134254,52.655294068773,0
								158.19660186768,52.655202953774,0
								158.19646239281,52.65511834682,0
								158.19630146027,52.655092313878,0
								158.19618344307,52.655040247947,0
								158.19615125656,52.654975165447,0
								158.19606542587,52.654851508429,0
								158.19599032402,52.654753884221,0</coordinates></LineString></Placemark></Document></kml>