<?xml version="1.0" encoding="UTF-8"?><kml xmlns="http://www.opengis.net/kml/2.2"><Document>
								 <name>Маршрут Вулкан Ичинская сопка. Маршрут загрузил(а) Roman Pozdny</name>
								 <description>Скачено с сайта https://idilesom.com</description> <Placemark><LineString><tessellate>1</tessellate> <coordinates>
								158.697434,55.925995,0
								158.687211,55.925196,0
								158.68383,55.921898,0
								158.686672,55.916849,0
								158.684954,55.91034,0
								158.684121,55.90281,0
								158.681387,55.897299,0
								158.679749,55.890863,0
								158.673492,55.884754,0
								158.663014,55.877804,0
								158.659487,55.874836,0
								158.656228,55.869786,0
								158.652687,55.866459,0
								158.641211,55.859393,0
								158.639238,55.85536,0
								158.63271,55.851183,0
								158.627594,55.848734,0
								158.616716,55.846178,0
								158.594389,55.841812,0
								158.578529,55.834922,0
								158.569342,55.830551,0
								158.5639,55.82768,0
								158.550363,55.823823,0
								158.534774,55.820782,0
								158.517934,55.813102,0
								158.506085,55.806938,0
								158.492876,55.799397,0
								158.488452,55.794459,0
								158.48311,55.794098,0
								158.473991,55.794194,0
								158.463302,55.791571,0
								158.454079,55.791192,0
								158.447268,55.787118,0
								158.443139,55.786343,0
								158.431586,55.781056,0
								158.423551,55.778274,0
								158.409843,55.771517,0
								158.405374,55.767241,0
								158.399971,55.763259,0
								158.392918,55.758178,0
								158.378147,55.751306,0
								158.364196,55.745833,0
								158.361709,55.742684,0
								158.352755,55.739156,0
								158.348695,55.737739,0
								158.342667,55.73539,0
								158.33513,55.731037,0
								158.327981,55.727118,0
								158.329028,55.723519,0
								158.328494,55.717171,0
								158.324169,55.707926,0
								158.321511,55.704362,0
								158.318526,55.699218,0
								158.313656,55.692483,0
								158.30556,55.683134,0
								158.290672,55.679907,0
								158.278017,55.679153,0
								158.271016,55.682122,0
								158.264102,55.682489,0
								158.258202,55.681605,0
								158.251415,55.681873,0
								158.241904,55.681825,0
								158.236341,55.682498,0
								158.222891,55.685287,0
								158.21011,55.684624,0
								158.188763,55.685111,0
								158.177645,55.688623,0
								158.172016,55.690142,0
								158.162795,55.691927,0
								158.150137,55.696373,0
								158.139154,55.69959,0
								158.132207,55.700067,0
								158.126784,55.701337,0
								158.115915,55.701415,0
								158.107255,55.702414,0
								158.099952,55.700671,0
								158.092406,55.695935,0
								158.085479,55.690071,0
								158.077706,55.683069,0
								158.075199,55.681492,0
								158.065398,55.678766,0
								158.053105,55.674019,0
								158.041424,55.668816,0
								158.032327,55.668119,0
								158.023761,55.667445,0
								158.009995,55.66764,0
								157.999159,55.666432,0
								157.990255,55.664391,0
								157.979739,55.660774,0
								157.969282,55.659234,0
								157.956771,55.656496,0
								157.948335,55.65249,0
								157.941391,55.64792,0
								157.942775,55.653319,0
								157.915936,55.676133,0
								157.873535,55.671196,0
								157.806931,55.671292,0
								157.732601,55.677294,0
								157.718868,55.677681,0</coordinates></LineString></Placemark></Document></kml>