<?xml version="1.0" encoding="UTF-8"?><kml xmlns="http://www.opengis.net/kml/2.2"><Document>
								 <name>Маршрут Вулкан Вилючинский. Маршрут загрузил(а) Roman Pozdny</name>
								 <description>Скачено с сайта https://idilesom.com</description> <Placemark><LineString><tessellate>1</tessellate> <coordinates>
								158.21251809597,52.724902429571,0
								158.21268975735,52.724889433888,0
								158.21289360523,52.724850446818,0
								158.21312963963,52.724817957566,0
								158.21327984333,52.724928420924,0
								158.21343004704,52.725019390538,0
								158.21358025074,52.725116857772,0
								158.21366608143,52.72522082258,0
								158.21373045444,52.725396262633,0
								158.2136875391,52.72557819972,0
								158.21361243725,52.72581861542,0
								158.2135373354,52.726007048421,0
								158.21347296238,52.72622147119,0
								158.2134193182,52.726357921494,0
								158.21332275867,52.726604830483,0
								158.21326911449,52.726864733171,0
								158.21318328381,52.727027171565,0
								158.21310818195,52.72720260435,0
								158.21305453777,52.727274076764,0
								158.21287214756,52.727417021241,0
								158.21280777454,52.727670421661,0
								158.21267902851,52.727845851858,0
								158.21261465549,52.72807975769,0
								158.21253955364,52.728255186241,0
								158.21258246899,52.728430614085,0
								158.21271121502,52.728612538512,0
								158.21281850338,52.728768473131,0
								158.21306526661,52.728742484067,0
								158.21346223354,52.728697003167,0
								158.21375191212,52.728697003167,0
								158.21400940418,52.728677511338,0
								158.21430981159,52.7286580195,0
								158.21464240551,52.728625533085,0
								158.21489989758,52.72863203037,0
								158.21522176266,52.7286580195,0
								158.21555435658,52.728674262696,0
								158.21588695049,52.728690505891,0
								158.21637511253,52.728703500441,0
								158.21700274944,52.728748981334,0
								158.21730315685,52.728755478601,0
								158.21760356426,52.728833445724,0
								158.21793615818,52.728865931985,0
								158.21817219257,52.728943898911,0
								158.218536973,52.728969887855,0
								158.21878373623,52.729021865697,0
								158.21897685528,52.72901536847,0
								158.21923434734,52.728943898911,0
								158.21958839893,52.728911412708,0
								158.21998536587,52.728846440231,0
								158.22031795979,52.728761975866,0
								158.2206183672,52.728697003167,0
								158.22083294392,52.72866451678,0
								158.22118699551,52.728560560182,0
								158.22158396244,52.728495587182,0
								158.22181999683,52.728417619454,0
								158.2220774889,52.728339651587,0
								158.22241008282,52.72826818092,0
								158.22279632092,52.728209704832,0
								158.22308599949,52.728190212786,0
								158.22342932224,52.728242191557,0
								158.22372972965,52.728242191557,0
								158.22418034077,52.728196710135,0
								158.22456657887,52.72817072073,0
								158.22494208813,52.72817072073,0
								158.22517812252,52.728177218083,0
								158.22548925877,52.728164223377,0
								158.22604715824,52.72814473131,0
								158.22661578655,52.728099249786,0
								158.22696983814,52.728099249786,0
								158.22735607624,52.728066762955,0
								158.22769939899,52.728014783974,0
								158.22805345058,52.72803752478,0
								158.22840750217,52.728060265585,0
								158.22880446911,52.728047270844,0
								158.22917997837,52.728014783974,0
								158.2295769453,52.727982297079,0
								158.23002755642,52.727943312774,0
								158.23047816753,52.727930317998,0
								158.23072493076,52.728034276099,0
								158.23093950748,52.72807975769,0
								158.23129355907,52.728118741873,0
								158.23169052601,52.728183715435,0
								158.23203384876,52.72822919687,0
								158.23244154453,52.728281175595,0
								158.23275268078,52.728300667601,0
								158.23310673237,52.728378635538,0
								158.23343932629,52.72838513286,0
								158.23379337788,52.72842411677,0
								158.23401868343,52.728398127501,0
								158.23432981968,52.728320159599,0
								158.23460876942,52.728248688899,0
								158.23484480381,52.728190212786,0
								158.23515594006,52.728105747149,0
								158.23541343212,52.728034276099,0
								158.23569238186,52.727962804931,0
								158.23603570461,52.727891333646,0
								158.23634684086,52.727780877793,0
								158.23667943478,52.727696411364,0
								158.2369852066,52.727631437028,0
								158.23729097843,52.727566462692,0
								158.23753774166,52.727507985663,0
								158.23788106442,52.72739752884,0
								158.238235116,52.727261081789,0
								158.23851406574,52.727144126834,0
								158.23878228664,52.72700767899,0
								158.23910415173,52.726884225811,0
								158.23949038982,52.7266957966,0
								158.23989808559,52.726513864176,0
								158.2403165102,52.726325433365,0
								158.24067056179,52.726175987661,0
								158.24098169804,52.726000550745,0
								158.24137866497,52.725870597019,0
								158.24167907238,52.725721149756,0
								158.24203312397,52.72554571101,0
								158.2422798872,52.725435249215,0
								158.24253737926,52.725318289363,0
								158.24284851551,52.725207826993,0
								158.24309527874,52.725077870904,0
								158.24330985546,52.724973905755,0
								158.2435888052,52.724863442512,0
								158.24377119541,52.724733485397,0
								158.24401795864,52.72459703001,0
								158.24430763721,52.724421586742,0
								158.24450075626,52.724317620028,0
								158.24475824833,52.724161669492,0
								158.24501574039,52.723986224473,0
								158.24527323246,52.72384326875,0
								158.2455521822,52.723726304628,0
								158.24577748775,52.723563853938,0
								158.24594914913,52.723459885179,0
								158.24615299702,52.723381908447,0
								158.24643194675,52.723264943088,0
								158.24666798115,52.723186966007,0
								158.24687182903,52.723108988787,0
								158.24716150761,52.723005018944,0
								158.2475477457,52.722868558148,0
								158.24791252613,52.722706104263,0
								158.24825584888,52.72260213346,0
								158.24853479862,52.722498162408,0
								158.2488244772,52.722407187534,0
								158.24916779995,52.722309714245,0
								158.24945747852,52.72219274601,0
								158.24968278408,52.722134261775,0
								158.24991881847,52.722010794799,0
								158.25031578541,52.721893825762,0
								158.25072348118,52.721731368246,0
								158.25092732906,52.72166638507,0
								158.25124919415,52.721529920086,0
								158.25149595737,52.721438943193,0
								158.25181782246,52.721406451399,0
								158.25211822987,52.721328470996,0
								158.25250446796,52.721256988837,0
								158.25286924839,52.721205001739,0
								158.25304090977,52.721107525762,0
								158.25334131718,52.720984055879,0
								158.25364172459,52.72088008097,0
								158.25393140316,52.720672130408,0
								158.25427472591,52.720561656269,0
								158.25444638729,52.720470677356,0
								158.25473606586,52.720321211586,0
								158.25503647327,52.720191240936,0
								158.25532615185,52.720067768459,0
								158.25575530529,52.720087264137,0
								158.25613081455,52.720119756913,0
								158.2564419508,52.720106759805,0
								158.25684964657,52.720119756913,0
								158.25701057911,52.720119756913,0
								158.25719296932,52.720048272773,0
								158.25745046139,52.719963791366,0
								158.25774013996,52.719879309795,0
								158.25807273388,52.719807825261,0
								158.25834095478,52.71967785308,0
								158.25872719288,52.719580373691,0
								158.25907051563,52.719450400833,0
								158.25941383839,52.719346422267,0
								158.25970351696,52.719242443454,0
								158.26005756855,52.719151461789,0
								158.26029360294,52.719079976062,0
								158.26049745083,52.718937004257,0
								158.26073348522,52.718794031983,0
								158.26109826565,52.718638061695,0
								158.26132357121,52.718495088441,0
								158.26161324978,52.718358613534,0
								158.26187074184,52.718202641689,0
								158.26225697994,52.718020673832,0
								158.26257884502,52.717825707428,0
								158.26291143894,52.717643737998,0
								158.26324403286,52.717448769909,0
								158.26346933842,52.717331788638,0
								158.2637912035,52.717169314129,0
								158.26412379742,52.71697434392,0
								158.26448857784,52.716785871889,0
								158.26466023922,52.716584400887,0
								158.26496064663,52.716343934279,0
								158.26527178288,52.716077469733,0
								158.26557219028,52.715811003559,0
								158.26582968235,52.715551034992,0
								158.26611936092,52.715258568501,0
								158.26633393764,52.715050591137,0
								158.2666772604,52.71475162194,0
								158.26688110828,52.71450464584,0
								158.26709568501,52.714368158448,0
								158.26729953289,52.714140678512,0
								158.26753556728,52.71395869371,0
								158.26773941517,52.713763709151,0
								158.26795399189,52.71356872372,0
								158.26814711094,52.713334740052,0
								158.26839387417,52.71310075513,0
								158.26867282391,52.712873268586,0
								158.26887667179,52.712684778836,0
								158.26901614666,52.712548285751,0
								158.26927363873,52.712346795177,0
								158.26953113079,52.712073806464,0
								158.26978862286,52.711839814779,0
								158.26989591122,52.711709818856,0
								158.27024996281,52.71152132408,0
								158.27059328556,52.711313328899,0
								158.27089369297,52.711111832622,0
								158.27122628689,52.710936335106,0
								158.27158033848,52.710663337568,0
								158.27195584774,52.71048133826,0
								158.27223479748,52.710247338034,0
								158.27254593372,52.710104337278,0
								158.27280342579,52.709922335639,0
								158.27311456203,52.709720832938,0
								158.27330768108,52.709525829438,0
								158.27360808849,52.709311324581,0
								158.27387630939,52.709083818278,0
								158.27412307262,52.708875811477,0
								158.27438056469,52.708693804713,0
								158.27462732792,52.708511797189,0
								158.27488481998,52.708329788907,0
								158.27512085438,52.708147779865,0
								158.27530324459,52.707972270427,0
								158.27556073666,52.707803260671,0
								158.27576458454,52.707634250261,0
								158.27601134777,52.707432736993,0
								158.27622592449,52.707237723267,0
								158.27650487423,52.707049209171,0
								158.27669799328,52.706893196889,0
								158.27696621418,52.706704681304,0
								158.27722370625,52.706477161409,0
								158.27747046947,52.706334148297,0
								158.27763140202,52.706152130931,0
								158.27794253826,52.706009116754,0
								158.27823221684,52.705866102108,0
								158.27856481075,52.705716586295,0
								158.27884376049,52.70556706997,0
								158.27910125256,52.705456557574,0
								158.27932655811,52.705359046404,0
								158.27949821949,52.705268035783,0
								158.2796806097,52.705164023411,0
								158.27999174595,52.705034007598,0</coordinates></LineString></Placemark></Document></kml>