<?xml version="1.0" encoding="UTF-8"?><kml xmlns="http://www.opengis.net/kml/2.2"><Document>
								 <name>Маршрут Вулкан Горелый. Маршрут загрузил(а) Roman Pozdny</name>
								 <description>Скачено с сайта https://idilesom.com</description> <Placemark><LineString><tessellate>1</tessellate> <coordinates>
								158.0891418457,52.580457315709,0
								158.08921694756,52.580339967229,0
								158.08929204941,52.580222618749,0
								158.0894100666,52.580092230812,0
								158.0895280838,52.579961842875,0
								158.08963537216,52.579877090301,0
								158.08974266052,52.579792337726,0
								158.08995723724,52.579570676157,0
								158.09007525444,52.579466364318,0
								158.09019327164,52.579362052479,0
								158.09021472931,52.579127349656,0
								158.09023618698,52.578970880129,0
								158.09025764465,52.578814410603,0
								158.09021472931,52.578677498851,0
								158.09017181396,52.578540587099,0
								158.09021472931,52.57833195852,0
								158.0901825428,52.578240683109,0
								158.09015035629,52.578149407699,0
								158.09036493301,52.577979895541,0
								158.09055805206,52.577927737791,0
								158.09075117111,52.577875580042,0
								158.09087991714,52.577790823433,0
								158.09100866318,52.577706066825,0
								158.0911052227,52.577562631819,0
								158.09120178223,52.577419196812,0
								158.09130907059,52.577275760867,0
								158.09141635895,52.577132324922,0
								158.091609478,52.576975848554,0
								158.09180259705,52.576845451155,0
								158.09208154678,52.576688973763,0
								158.09197425842,52.576578135133,0
								158.09186697006,52.576467296502,0
								158.09178113937,52.576382537172,0
								158.09169530869,52.576297777841,0
								158.09171676636,52.576128258524,0
								158.09172749519,52.576030458511,0
								158.09173822403,52.575932658498,0
								158.09163093567,52.575860938211,0
								158.09152364731,52.575789217924,0
								158.09140563011,52.575691417154,0
								158.09128761292,52.575593616385,0
								158.09120178223,52.575521895543,0
								158.09111595154,52.575450174702,0
								158.09099793434,52.575391493839,0
								158.09087991714,52.575332812976,0
								158.0906867981,52.575176330186,0
								158.09062242508,52.575072007891,0
								158.09055805206,52.574967685597,0
								158.09052586555,52.574772079956,0
								158.09049367905,52.574576474316,0
								158.09049367905,52.574433029071,0
								158.09049367905,52.574289583825,0
								158.09041857719,52.574159178242,0
								158.09034347534,52.57402877266,0
								158.09031128883,52.573872284936,0
								158.09027910233,52.573715797213,0
								158.09031128883,52.573604951066,0
								158.09034347534,52.573494104919,0
								158.09021472931,52.573363697164,0
								158.09002161026,52.573233289022,0
								158.08989286423,52.57315504388,0
								158.08976411819,52.573076798738,0
								158.08968901634,52.572959430502,0
								158.08961391449,52.572842062266,0
								158.08953881264,52.572731213911,0
								158.08946371078,52.572620365556,0
								158.08942079544,52.572502996255,0
								158.08939933777,52.572372585552,0
								158.08934569359,52.572209571629,0
								158.08930277824,52.572092201229,0
								158.0891418457,52.572013954121,0
								158.08902382851,52.571974830514,0
								158.08890581131,52.571916145039,0
								158.08876633644,52.571863980107,0
								158.08862686157,52.571785732591,0
								158.08849811554,52.571753129419,0
								158.08840155602,52.571700964292,0
								158.088337183,52.571616195829,0
								158.08822989464,52.571498823841,0
								158.08815479279,52.571368410152,0
								158.08802604675,52.571296682458,0
								158.08797240257,52.571198871776,0
								158.08787584305,52.571114102343,0
								158.087682724,52.571009770507,0
								158.08747887611,52.570911959186,0
								158.08723211288,52.570814147647,0
								158.087028265,52.570716335889,0
								158.08679223061,52.57065764873,0
								158.08665275574,52.570553315809,0
								158.08639526367,52.570481586781,0
								158.08623433113,52.570383774282,0
								158.08605194092,52.570253357277,0
								158.08588027954,52.570129460763,0
								158.08574080467,52.57001860569,0
								158.08551549912,52.569959917597,0
								158.08535456657,52.569907750337,0
								158.08523654938,52.569822978408,0
								158.08510780334,52.569718643501,0
								158.08495759964,52.56960778739,0
								158.0847966671,52.569470847101,0
								158.08458209038,52.569373032347,0
								158.08442115784,52.569216528288,0
								158.08424949646,52.569131755022,0
								158.08415293694,52.569066544706,0
								158.08391690254,52.568994813247,0
								158.08368086815,52.568975250101,0
								158.08342337608,52.568955686947,0
								158.083101511,52.568916560612,0
								158.08291912079,52.568851349976,0
								158.08276891708,52.568792660321,0
								158.08265089989,52.568727449501,0
								158.08251142502,52.568629633089,0
								158.08238267899,52.568570943138,0
								158.08222174644,52.568531816459,0
								158.0820286274,52.568479647501,0
								158.08177113533,52.568433999611,0
								158.08138489723,52.568381830536,0
								158.08161020279,52.568407915081,0
								158.08120250702,52.568336182545,0
								158.08093428612,52.568284013354,0
								158.08080554008,52.568218801777,0
								158.08055877686,52.568173153616,0
								158.08032274246,52.568107941875,0
								158.08014035225,52.568036208848,0
								158.0799472332,52.5679840393,0
								158.0797970295,52.567931869689,0
								158.07953953743,52.567866657589,0
								158.07926058769,52.567794924168,0
								158.07898163795,52.567716669392,0
								158.0787563324,52.567644935724,0
								158.07854175568,52.567599286966,0
								158.0782520771,52.567579723198,0
								158.07795166969,52.56755363816,0
								158.07760834694,52.567527553107,0
								158.07740449905,52.567560159421,0
								158.07714700699,52.567507989306,0
								158.07687878609,52.567481904226,0
								158.07668566704,52.567442776576,0
								158.07653546333,52.567436255298,0
								158.0762565136,52.567338436006,0
								158.07599902153,52.567260180416,0
								158.07580590248,52.567162360731,0
								158.07562351227,52.567058019494,0
								158.07535529137,52.56698628475,0
								158.07524800301,52.566868900369,0
								158.07507634163,52.566758037055,0
								158.0749475956,52.56664717346,0
								158.07473301888,52.566484138252,0
								158.07436823845,52.566386316837,0
								158.07414293289,52.566281973754,0
								158.07391762733,52.56621023774,0
								158.07370305061,52.56614502308,0
								158.07353138924,52.566060243877,0
								158.07327389717,52.565975464511,0
								158.07308077812,52.565851555911,0
								158.07285547256,52.565766776141,0
								158.07268381119,52.565616780761,0
								158.07246923447,52.565499392715,0
								158.07234048843,52.565401569104,0
								158.07211518288,52.565297223678,0
								158.07199716568,52.56523200766,0
								158.07186841965,52.565127661831,0
								158.07171821594,52.565088532081,0
								158.07160019875,52.564990707553,0
								158.07144999504,52.564899404463,0
								158.07129979134,52.56478853617,0
								158.07116031647,52.56464505914,0
								158.07096719742,52.564527668493,0
								158.07082772255,52.564462451332,0
								158.07066679001,52.564351581934,0
								158.07050585747,52.564240712257,0
								158.07038784027,52.564136364069,0
								158.07029128075,52.564012450273,0
								158.07018399239,52.563895057934,0
								158.07003378868,52.563732012496,0
								158.06987285614,52.563562444598,0
								158.06973338127,52.563497226001,0
								158.06954026222,52.563490704136,0
								158.06939005852,52.563412441681,0
								158.06926131248,52.56326243825,0
								158.06910037994,52.563079824686,0
								158.06892871857,52.562936342066,0
								158.06882143021,52.562851556661,0
								158.0686712265,52.562753727144,0
								158.06851029396,52.562695029329,0
								158.06827425957,52.562610243458,0
								158.06812405586,52.562538501439,0
								158.06795239449,52.562440671223,0
								158.0678665638,52.562362406894,0
								158.0676305294,52.562284142425,0
								158.06745886803,52.562140657203,0
								158.06728720665,52.562068914416,0
								158.06706190109,52.561984127334,0
								158.0669438839,52.561892817986,0
								158.06676149368,52.561834119019,0
								158.06662201881,52.561755853608,0
								158.0664396286,52.561677588056,0
								158.06630015373,52.561618888802,0
								158.06624650955,52.561501490056,0
								158.06611776352,52.561384090996,0
								158.06598901749,52.561279736013,0
								158.0659031868,52.561116680854,0
								158.06576371193,52.560934058356,0
								158.06560277939,52.560797090985,0
								158.06552767754,52.56064707861,0
								158.06543111801,52.560438364888,0
								158.06540966034,52.560307918308,0
								158.06529164314,52.560157904261,0
								158.06521654129,52.559988322547,0
								158.06515216827,52.559857874628,0
								158.06507706642,52.559760038434,0
								158.06490540504,52.55967524689,0
								158.06485176086,52.559557842943,0
								158.06473374367,52.55947957347,0
								158.06454062462,52.559394781384,0
								158.06429386139,52.559296944158,0
								158.06400418282,52.559166494183,0
								158.06370377541,52.55910126905,0
								158.06336045265,52.559029521292,0
								158.06319147348,52.558988755412,0
								158.06302249432,52.558947989531,0
								158.06290984154,52.558879502874,0
								158.06256651878,52.55884036755,0
								158.06239485741,52.558801232191,0
								158.06219100952,52.558755574228,0
								158.06195497513,52.558703393641,0
								158.06161165237,52.558625122644,0
								158.06145071983,52.558507715886,0
								158.06137561798,52.558396831438,0
								158.06122541428,52.558259856144,0
								158.06104302406,52.558142448409,0
								158.06083917618,52.558109835094,0
								158.06061387062,52.558005472321,0
								158.06038856506,52.557966336218,0
								158.06017398834,52.557835882286,0
								158.06004524231,52.557757609742,0
								158.05980920792,52.557695643834,0
								158.05957317352,52.557633677927,0
								158.05924057961,52.557561927769,0
								158.05900454521,52.557503223007,0
								158.05877923965,52.557483654735,0
								158.05854320526,52.557483654735,0
								158.05827498436,52.557477131976,0
								158.05801749229,52.557372767698,0
								158.05759906769,52.557314062683,0
								158.05727720261,52.557255357589,0
								158.05691242218,52.557216220817,0
								158.05657982826,52.557209698018,0
								158.05633306503,52.557098810289,0
								158.05611848831,52.556987922279,0
								158.05604338646,52.556890079686,0
								158.05590391159,52.556772668285,0
								158.05582880974,52.556596550595,0
								158.05574297905,52.556426955114,0
								158.05572152138,52.556257358977,0
								158.0556678772,52.556126899965,0
								158.05548548698,52.556048624371,0
								158.05522799492,52.556025793957,0
								158.05497050285,52.556002963544,0
								158.05483102798,52.555918164738,0
								158.05485248566,52.555781181705,0
								158.05479884148,52.555663767337,0
								158.05468082428,52.555526783511,0
								158.05463790894,52.555389799256,0
								158.05451989174,52.555278906928,0
								158.05432677269,52.555135398792,0
								158.05418729782,52.555004936444,0
								158.05405855179,52.554874473707,0
								158.05402636528,52.554698348397,0
								158.05396199226,52.554580931132,0
								158.05377960205,52.554476559965,0
								158.05369377136,52.554365665328,0
								158.05340409279,52.554352618882,0
								158.05332899094,52.554254770411,0
								158.05314660072,52.554137351958,0
								158.05300712585,52.553967746972,0
								158.05282473564,52.553811187941,0
								158.05267453194,52.553687244978,0
								158.05256724358,52.5536220117,0
								158.05234193802,52.553511114903,0
								158.05208444595,52.553426311281,0
								158.0517411232,52.55331541399,0
								158.05154800415,52.553361077615,0
								158.05131196976,52.553387171093,0
								158.05111885071,52.553367600986,0
								158.05092573166,52.553334984121,0
								158.05071115494,52.553237133381,0
								158.05052876472,52.553126235612,0
								158.050314188,52.553126235612,0
								158.05008888245,52.553054478082,0
								158.04987430573,52.553015337562,0
								158.04973483086,52.552982720436,0
								158.04961681366,52.55288486891,0
								158.04949879646,52.55282615789,0
								158.0493915081,52.55275439987,0
								158.04916620255,52.552695688675,0
								158.0489730835,52.552650024359,0
								158.0487370491,52.552643500881,0
								158.04844737053,52.552643500881,0
								158.04828643799,52.552604359994,0
								158.04802894592,52.552558695583,0
								158.04779291153,52.552506507625,0
								158.04748177528,52.55241517855,0
								158.0472779274,52.55234994338,0
								158.04705262184,52.552310802232,0
								158.04685950279,52.552271661049,0
								158.04652690887,52.55225861398,0
								158.04631233215,52.552252090444,0
								158.04599046707,52.552271661049,0
								158.04581880569,52.552310802232,0
								158.04564714432,52.552252090444,0
								158.04541110992,52.552147713738,0
								158.04511070251,52.552062907481,0
								158.04489612579,52.551925912413,0
								158.0446600914,52.551847629324,0
								158.0445420742,52.551710633584,0
								158.04441332817,52.551573637416,0
								158.04424166679,52.551469259096,0
								158.04414510727,52.551371404195,0
								158.04403781891,52.551280072758,0
								158.04387688637,52.551221359591,0
								158.04363012314,52.551214835901,0
								158.04338335991,52.551162646345,0
								158.0430829525,52.551195264825,0
								158.04272890091,52.551280072758,0
								158.04237484932,52.551338785847,0
								158.04195642471,52.551430117162,0
								158.04167747498,52.551501877347,0
								158.04137706757,52.551534495575,0
								158.04103374481,52.551508400995,0
								158.04079771042,52.551443164477,0
								158.04055094719,52.551371404195,0
								158.04033637047,52.551345309518,0
								158.04003596306,52.5513257385,0
								158.03974628448,52.551390975144,0
								158.03945660591,52.551456211788,0
								158.03913474083,52.551527971931,0
								158.03869485855,52.551573637416,0
								158.03839445114,52.551658444618,0
								158.03802967072,52.551671491865,0
								158.03767561913,52.551756298878,0
								158.03738594055,52.55173020443,0
								158.03710699081,52.551769346096,0
								158.03686022758,52.551756298878,0
								158.03664565086,52.551658444618,0
								158.03643107414,52.551593208323,0
								158.03622722626,52.551534495575,0
								158.03605556488,52.55143664082,0
								158.03589463234,52.551371404195,0
								158.0357336998,52.551332262174,0
								158.03550839424,52.551267025394,0
								158.03530454636,52.55120831221,0
								158.03502559662,52.551240930655,0
								158.03476810455,52.551240930655,0
								158.03459644318,52.551240930655,0
								158.03439259529,52.551351833189,0
								158.03421020508,52.55148883005,0
								158.0341565609,52.551599731957,0
								158.03424239159,52.551756298878,0
								158.03427457809,52.551919388827,0
								158.03427457809,52.552056383916,0
								158.03422093391,52.552193378577,0
								158.03429603577,52.55234994338,0
								158.03431749344,52.55247389012,0
								158.03428530693,52.552650024359,0
								158.0343067646,52.552806587533,0
								158.03434967995,52.552937056418,0
								158.03434967995,52.552995767289,0</coordinates></LineString></Placemark></Document></kml>